{
"type": "FeatureCollection",
"crs": { "type": "name", "properties": { "name": "urn:ogc:def:crs:OGC:1.3:CRS84" } },
"features": [
{ "type": "Feature", "properties": { "element_type": "node", "osmid": "1246428101", "barrier": "nan", "amenity": "university", "name": "Universidade São Leopoldo Mandic", "website": "https://www.slmandic.edu.br/", "addr:city": "nan", "addr:housenumber": "nan", "addr:postcode": "nan", "addr:street": "nan", "addr:suburb": "nan", "phone": "nan", "nodes": "nan", "alt_ref": "nan", "building": "nan", "building:levels": "nan", "official_name": "nan", "ref": "nan", "height": "nan", "wheelchair": "nan", "wikidata": "nan", "wikipedia": "nan", "alt_name": "nan", "fence_type": "nan", "fee": "nan", "start_date": "nan", "email": "nan", "operator": "nan", "toilets:wheelchair": "nan", "note": "nan", "short_name": "nan", "contact:phone": "nan", "contact:website": "nan", "loc_name": "nan", "opening_hours": "nan", "fixme": "nan", "acronym": "nan", "fax": "nan", "source": "nan", "operator:type": "nan", "contact:email": "nan", "ways": "nan", "type": "nan", "alt_name_2": "nan", "name:en": "nan", "description": "nan", "internet_access": "nan" }, "geometry": { "type": "Point", "coordinates": [ -51.2222169, -30.0352804 ] } },
{ "type": "Feature", "properties": { "element_type": "node", "osmid": "2361062529", "barrier": "nan", "amenity": "university", "name": "Faculdades QI", "website": "nan", "addr:city": "nan", "addr:housenumber": "nan", "addr:postcode": "nan", "addr:street": "nan", "addr:suburb": "nan", "phone": "nan", "nodes": "nan", "alt_ref": "nan", "building": "nan", "building:levels": "nan", "official_name": "nan", "ref": "nan", "height": "nan", "wheelchair": "nan", "wikidata": "nan", "wikipedia": "nan", "alt_name": "nan", "fence_type": "nan", "fee": "nan", "start_date": "nan", "email": "nan", "operator": "nan", "toilets:wheelchair": "nan", "note": "nan", "short_name": "nan", "contact:phone": "nan", "contact:website": "nan", "loc_name": "nan", "opening_hours": "nan", "fixme": "nan", "acronym": "nan", "fax": "nan", "source": "nan", "operator:type": "nan", "contact:email": "nan", "ways": "nan", "type": "nan", "alt_name_2": "nan", "name:en": "nan", "description": "nan", "internet_access": "nan" }, "geometry": { "type": "Point", "coordinates": [ -51.0176202, -29.9360635 ] } },
{ "type": "Feature", "properties": { "element_type": "node", "osmid": "2361062543", "barrier": "nan", "amenity": "university", "name": "FACENSA", "website": "nan", "addr:city": "nan", "addr:housenumber": "nan", "addr:postcode": "nan", "addr:street": "nan", "addr:suburb": "nan", "phone": "nan", "nodes": "nan", "alt_ref": "nan", "building": "nan", "building:levels": "nan", "official_name": "nan", "ref": "nan", "height": "nan", "wheelchair": "nan", "wikidata": "nan", "wikipedia": "nan", "alt_name": "nan", "fence_type": "nan", "fee": "nan", "start_date": "nan", "email": "nan", "operator": "nan", "toilets:wheelchair": "nan", "note": "nan", "short_name": "nan", "contact:phone": "nan", "contact:website": "nan", "loc_name": "nan", "opening_hours": "nan", "fixme": "nan", "acronym": "nan", "fax": "nan", "source": "nan", "operator:type": "nan", "contact:email": "nan", "ways": "nan", "type": "nan", "alt_name_2": "nan", "name:en": "nan", "description": "nan", "internet_access": "nan" }, "geometry": { "type": "Point", "coordinates": [ -50.9949562, -29.9372303 ] } },
{ "type": "Feature", "properties": { "element_type": "node", "osmid": "3684630345", "barrier": "nan", "amenity": "university", "name": "Centro de Tecnologia Acadêmica", "website": "http://cta.if.ufrgs.br", "addr:city": "nan", "addr:housenumber": "nan", "addr:postcode": "nan", "addr:street": "nan", "addr:suburb": "nan", "phone": "nan", "nodes": "nan", "alt_ref": "nan", "building": "nan", "building:levels": "nan", "official_name": "nan", "ref": "nan", "height": "nan", "wheelchair": "nan", "wikidata": "nan", "wikipedia": "nan", "alt_name": "nan", "fence_type": "nan", "fee": "nan", "start_date": "nan", "email": "nan", "operator": "nan", "toilets:wheelchair": "nan", "note": "nan", "short_name": "nan", "contact:phone": "nan", "contact:website": "nan", "loc_name": "nan", "opening_hours": "nan", "fixme": "nan", "acronym": "nan", "fax": "nan", "source": "nan", "operator:type": "nan", "contact:email": "nan", "ways": "nan", "type": "nan", "alt_name_2": "nan", "name:en": "nan", "description": "nan", "internet_access": "nan" }, "geometry": { "type": "Point", "coordinates": [ -51.1193707, -30.0728474 ] } },
{ "type": "Feature", "properties": { "element_type": "node", "osmid": "4567065708", "barrier": "nan", "amenity": "university", "name": "EJA Universitário", "website": "nan", "addr:city": "Porto Alegre", "addr:housenumber": "1645", "addr:postcode": "90010-273", "addr:street": "Rua Riachuelo", "addr:suburb": "Centro Histórico", "phone": "nan", "nodes": "nan", "alt_ref": "nan", "building": "nan", "building:levels": "nan", "official_name": "nan", "ref": "nan", "height": "nan", "wheelchair": "nan", "wikidata": "nan", "wikipedia": "nan", "alt_name": "nan", "fence_type": "nan", "fee": "nan", "start_date": "nan", "email": "nan", "operator": "nan", "toilets:wheelchair": "nan", "note": "nan", "short_name": "nan", "contact:phone": "nan", "contact:website": "nan", "loc_name": "nan", "opening_hours": "nan", "fixme": "nan", "acronym": "nan", "fax": "nan", "source": "nan", "operator:type": "nan", "contact:email": "nan", "ways": "nan", "type": "nan", "alt_name_2": "nan", "name:en": "nan", "description": "nan", "internet_access": "nan" }, "geometry": { "type": "Point", "coordinates": [ -51.2251013, -30.0316337 ] } },
{ "type": "Feature", "properties": { "element_type": "node", "osmid": "5261257047", "barrier": "nan", "amenity": "university", "name": "UNINTER", "website": "nan", "addr:city": "Guaíba", "addr:housenumber": "1474", "addr:postcode": "92500-000", "addr:street": "R. Vinte de Setembro", "addr:suburb": "Centro", "phone": "nan", "nodes": "nan", "alt_ref": "nan", "building": "nan", "building:levels": "nan", "official_name": "nan", "ref": "nan", "height": "nan", "wheelchair": "nan", "wikidata": "nan", "wikipedia": "nan", "alt_name": "nan", "fence_type": "nan", "fee": "nan", "start_date": "nan", "email": "nan", "operator": "nan", "toilets:wheelchair": "nan", "note": "nan", "short_name": "nan", "contact:phone": "nan", "contact:website": "nan", "loc_name": "nan", "opening_hours": "nan", "fixme": "nan", "acronym": "nan", "fax": "nan", "source": "nan", "operator:type": "nan", "contact:email": "nan", "ways": "nan", "type": "nan", "alt_name_2": "nan", "name:en": "nan", "description": "nan", "internet_access": "nan" }, "geometry": { "type": "Point", "coordinates": [ -51.3247887, -30.1129832 ] } },
{ "type": "Feature", "properties": { "element_type": "node", "osmid": "8462437040", "barrier": "nan", "amenity": "university", "name": "Instituto Pro universidade Canoense - IPUC", "website": "nan", "addr:city": "Canoas", "addr:housenumber": "500", "addr:postcode": "92310-022", "addr:street": "Avenida Guilherme Schell", "addr:suburb": "Centro", "phone": "+55 51 2103 3000", "nodes": "nan", "alt_ref": "nan", "building": "nan", "building:levels": "nan", "official_name": "nan", "ref": "nan", "height": "nan", "wheelchair": "nan", "wikidata": "nan", "wikipedia": "nan", "alt_name": "nan", "fence_type": "nan", "fee": "nan", "start_date": "nan", "email": "nan", "operator": "nan", "toilets:wheelchair": "nan", "note": "nan", "short_name": "nan", "contact:phone": "nan", "contact:website": "nan", "loc_name": "nan", "opening_hours": "nan", "fixme": "nan", "acronym": "nan", "fax": "nan", "source": "nan", "operator:type": "nan", "contact:email": "nan", "ways": "nan", "type": "nan", "alt_name_2": "nan", "name:en": "nan", "description": "nan", "internet_access": "nan" }, "geometry": { "type": "Point", "coordinates": [ -51.1804772, -29.9251082 ] } },
{ "type": "Feature", "properties": { "element_type": "node", "osmid": "11057796738", "barrier": "nan", "amenity": "university", "name": "Anhanguera Polo Alvorada", "website": "nan", "addr:city": "nan", "addr:housenumber": "nan", "addr:postcode": "nan", "addr:street": "nan", "addr:suburb": "nan", "phone": "nan", "nodes": "nan", "alt_ref": "nan", "building": "nan", "building:levels": "nan", "official_name": "nan", "ref": "nan", "height": "nan", "wheelchair": "nan", "wikidata": "nan", "wikipedia": "nan", "alt_name": "nan", "fence_type": "nan", "fee": "nan", "start_date": "nan", "email": "nan", "operator": "nan", "toilets:wheelchair": "nan", "note": "nan", "short_name": "nan", "contact:phone": "nan", "contact:website": "nan", "loc_name": "nan", "opening_hours": "nan", "fixme": "nan", "acronym": "nan", "fax": "nan", "source": "nan", "operator:type": "nan", "contact:email": "nan", "ways": "nan", "type": "nan", "alt_name_2": "nan", "name:en": "nan", "description": "nan", "internet_access": "nan" }, "geometry": { "type": "Point", "coordinates": [ -51.0762677, -30.0314361 ] } },
{ "type": "Feature", "properties": { "element_type": "way", "osmid": "27207968", "barrier": "nan", "amenity": "university", "name": "Informática 43425", "website": "http://www.inf.ufrgs.br/", "addr:city": "nan", "addr:housenumber": "43425", "addr:postcode": "nan", "addr:street": "nan", "addr:suburb": "nan", "phone": "nan", "nodes": [ 298559594, 3083929753, 3083929752, 298559595, 3083929754, 3083929758, 3083929762, 3083929766, 3083929771, 3083929772, 3083929774, 3083929778, 3083929780, 3083929785, 3083929789, 298559596, 3083929796, 3083929799, 3083929801, 298559597, 3083929795, 3083929787, 3083929783, 3083929770, 3083929767, 3083929763, 3083929759, 298559594 ], "alt_ref": "73", "building": "yes", "building:levels": "2", "official_name": "Instituto de Informática", "ref": "43425", "height": "nan", "wheelchair": "nan", "wikidata": "nan", "wikipedia": "nan", "alt_name": "nan", "fence_type": "nan", "fee": "nan", "start_date": "nan", "email": "nan", "operator": "nan", "toilets:wheelchair": "nan", "note": "nan", "short_name": "nan", "contact:phone": "nan", "contact:website": "nan", "loc_name": "nan", "opening_hours": "nan", "fixme": "nan", "acronym": "nan", "fax": "nan", "source": "nan", "operator:type": "nan", "contact:email": "nan", "ways": "nan", "type": "nan", "alt_name_2": "nan", "name:en": "nan", "description": "nan", "internet_access": "nan" }, "geometry": { "type": "Polygon", "coordinates": [ [ [ -51.1202581, -30.068307 ], [ -51.1203354, -30.0682724 ], [ -51.1203595, -30.0682621 ], [ -51.1204349, -30.0682308 ], [ -51.1204833, -30.0682912 ], [ -51.1205189, -30.0683536 ], [ -51.1205549, -30.0684166 ], [ -51.1205911, -30.0684802 ], [ -51.1206448, -30.0685742 ], [ -51.1206509, -30.0685823 ], [ -51.1206635, -30.0686041 ], [ -51.1206759, -30.0686257 ], [ -51.1206878, -30.0686462 ], [ -51.1207005, -30.0686683 ], [ -51.1207125, -30.0686892 ], [ -51.1207389, -30.0687351 ], [ -51.1206881, -30.068757 ], [ -51.1206512, -30.0687729 ], [ -51.1206254, -30.0687791 ], [ -51.1205511, -30.068816 ], [ -51.1205086, -30.0687493 ], [ -51.1204721, -30.0686853 ], [ -51.1204556, -30.0686564 ], [ -51.1204004, -30.0685598 ], [ -51.1203652, -30.0684979 ], [ -51.120329, -30.0684346 ], [ -51.1202934, -30.0683721 ], [ -51.1202581, -30.068307 ] ] ] } },
{ "type": "Feature", "properties": { "element_type": "way", "osmid": "27368913", "barrier": "nan", "amenity": "university", "name": "nan", "website": "nan", "addr:city": "nan", "addr:housenumber": "nan", "addr:postcode": "nan", "addr:street": "nan", "addr:suburb": "nan", "phone": "nan", "nodes": [ 300454663, 300454664, 300454665, 300454666, 300454663 ], "alt_ref": "nan", "building": "yes", "building:levels": "nan", "official_name": "nan", "ref": "21109", "height": "nan", "wheelchair": "nan", "wikidata": "nan", "wikipedia": "nan", "alt_name": "nan", "fence_type": "nan", "fee": "nan", "start_date": "nan", "email": "nan", "operator": "nan", "toilets:wheelchair": "nan", "note": "nan", "short_name": "nan", "contact:phone": "nan", "contact:website": "nan", "loc_name": "nan", "opening_hours": "nan", "fixme": "nan", "acronym": "nan", "fax": "nan", "source": "nan", "operator:type": "nan", "contact:email": "nan", "ways": "nan", "type": "nan", "alt_name_2": "nan", "name:en": "nan", "description": "nan", "internet_access": "nan" }, "geometry": { "type": "Polygon", "coordinates": [ [ [ -51.2074629, -30.0401397 ], [ -51.2072457, -30.0404217 ], [ -51.2071569, -30.0403704 ], [ -51.2073741, -30.0400884 ], [ -51.2074629, -30.0401397 ] ] ] } },
{ "type": "Feature", "properties": { "element_type": "way", "osmid": "126014188", "barrier": "nan", "amenity": "university", "name": "11103 Castelinho (NORIE) - UFRGS", "website": "nan", "addr:city": "nan", "addr:housenumber": "nan", "addr:postcode": "nan", "addr:street": "nan", "addr:suburb": "nan", "phone": "nan", "nodes": [ 1398057149, 1398057138, 9907060079, 1398057129, 3244510691, 1398057137, 1398057141, 1398057145, 1398057149 ], "alt_ref": "nan", "building": "university", "building:levels": "nan", "official_name": "Castelinho - NORIE", "ref": "11103", "height": "5", "wheelchair": "nan", "wikidata": "nan", "wikipedia": "nan", "alt_name": "nan", "fence_type": "nan", "fee": "nan", "start_date": "nan", "email": "nan", "operator": "nan", "toilets:wheelchair": "nan", "note": "nan", "short_name": "nan", "contact:phone": "nan", "contact:website": "nan", "loc_name": "nan", "opening_hours": "nan", "fixme": "nan", "acronym": "nan", "fax": "nan", "source": "nan", "operator:type": "nan", "contact:email": "nan", "ways": "nan", "type": "nan", "alt_name_2": "nan", "name:en": "nan", "description": "nan", "internet_access": "nan" }, "geometry": { "type": "Polygon", "coordinates": [ [ [ -51.2219043, -30.0320821 ], [ -51.2218885, -30.03201 ], [ -51.2220869, -30.0319828 ], [ -51.2221113, -30.0319622 ], [ -51.2221593, -30.0319782 ], [ -51.2221664, -30.0320199 ], [ -51.2221297, -30.0320498 ], [ -51.2221171, -30.0320448 ], [ -51.2219043, -30.0320821 ] ] ] } },
{ "type": "Feature", "properties": { "element_type": "way", "osmid": "210320259", "barrier": "nan", "amenity": "university", "name": "Faculdade Anhanguera", "website": "https://www.anhanguera.com/graduacao/localidades/porto_alegre_rs.php", "addr:city": "nan", "addr:housenumber": "4890", "addr:postcode": "90740-000", "addr:street": "Avenida Cavalhada", "addr:suburb": "nan", "phone": "nan", "nodes": [ 2204039169, 7651574708, 2204039170, 7651574707, 3277301165, 2204039173, 2204039172, 2204039171, 7651574704, 3277294070, 3277294069, 3277294068, 7651574705, 7651574706, 7655437275, 3277294066, 3277294067, 2204039166, 2204039167, 2204039169 ], "alt_ref": "nan", "building": "nan", "building:levels": "nan", "official_name": "nan", "ref": "nan", "height": "nan", "wheelchair": "nan", "wikidata": "nan", "wikipedia": "nan", "alt_name": "Anhanguera", "fence_type": "nan", "fee": "nan", "start_date": "nan", "email": "nan", "operator": "nan", "toilets:wheelchair": "nan", "note": "nan", "short_name": "nan", "contact:phone": "nan", "contact:website": "nan", "loc_name": "nan", "opening_hours": "nan", "fixme": "nan", "acronym": "nan", "fax": "nan", "source": "nan", "operator:type": "nan", "contact:email": "nan", "ways": "nan", "type": "nan", "alt_name_2": "nan", "name:en": "nan", "description": "nan", "internet_access": "nan" }, "geometry": { "type": "Polygon", "coordinates": [ [ [ -51.224127, -30.1189475 ], [ -51.2240875, -30.1189788 ], [ -51.2240687, -30.1192353 ], [ -51.2240982, -30.1192758 ], [ -51.2240611, -30.1195812 ], [ -51.224, -30.1198048 ], [ -51.223264, -30.1194591 ], [ -51.2234062, -30.1191807 ], [ -51.223303, -30.1191296 ], [ -51.223197, -30.1190194 ], [ -51.2230964, -30.1187236 ], [ -51.2229006, -30.118422 ], [ -51.2229435, -30.1181598 ], [ -51.2230548, -30.1182109 ], [ -51.223088, -30.1181584 ], [ -51.2231268, -30.1180972 ], [ -51.2233595, -30.1181865 ], [ -51.223433, -30.118073 ], [ -51.2241599, -30.118473 ], [ -51.224127, -30.1189475 ] ] ] } },
{ "type": "Feature", "properties": { "element_type": "way", "osmid": "217427753", "barrier": "nan", "amenity": "university", "name": "UFRGS Campus Olímpico", "website": "http://www.ufrgs.br/", "addr:city": "nan", "addr:housenumber": "nan", "addr:postcode": "nan", "addr:street": "nan", "addr:suburb": "nan", "phone": "nan", "nodes": [ 2266951111, 2266951108, 2266951105, 2266951107, 2266951109, 2266951113, 2266951112, 2266951111 ], "alt_ref": "nan", "building": "nan", "building:levels": "nan", "official_name": "Universidade Federal do Rio Grande do Sul - Campus Olímpico", "ref": "nan", "height": "nan", "wheelchair": "nan", "wikidata": "nan", "wikipedia": "nan", "alt_name": "nan", "fence_type": "nan", "fee": "nan", "start_date": "nan", "email": "nan", "operator": "nan", "toilets:wheelchair": "nan", "note": "nan", "short_name": "nan", "contact:phone": "nan", "contact:website": "nan", "loc_name": "nan", "opening_hours": "nan", "fixme": "nan", "acronym": "nan", "fax": "nan", "source": "nan", "operator:type": "nan", "contact:email": "nan", "ways": "nan", "type": "nan", "alt_name_2": "nan", "name:en": "nan", "description": "nan", "internet_access": "nan" }, "geometry": { "type": "Polygon", "coordinates": [ [ [ -51.1844064, -30.050647 ], [ -51.1837231, -30.0495077 ], [ -51.1828715, -30.0483435 ], [ -51.1791061, -30.0483592 ], [ -51.1797467, -30.0495435 ], [ -51.1812033, -30.0517953 ], [ -51.1838666, -30.051019 ], [ -51.1844064, -30.050647 ] ] ] } },
{ "type": "Feature", "properties": { "element_type": "way", "osmid": "235997930", "barrier": "fence", "amenity": "university", "name": "UniRitter Campus Zona Sul", "website": "https://www.uniritter.edu.br/", "addr:city": "nan", "addr:housenumber": "555", "addr:postcode": "90840-440", "addr:street": "Rua Orfanatrófio", "addr:suburb": "nan", "phone": "+55 51 3230-3333", "nodes": [ 4942198619, 4238623615, 4238623664, 4942199445, 2440714565, 2440714578, 4942199470, 4942199486, 2440714588, 2440714599, 6107373518, 6107373517, 6107373516, 2440714615, 2440714623, 2440714620, 2440714619, 2440714618, 2440714612, 2440714577, 2440714567, 4942198613, 2440714554, 2204696478, 4942198606, 4942198611, 4238623158, 4942198619 ], "alt_ref": "nan", "building": "nan", "building:levels": "nan", "official_name": "nan", "ref": "nan", "height": "nan", "wheelchair": "nan", "wikidata": "Q5062890", "wikipedia": "pt:Centro Universitário Ritter dos Reis", "alt_name": "nan", "fence_type": "metal", "fee": "yes", "start_date": "1971-10-18", "email": "nan", "operator": "nan", "toilets:wheelchair": "nan", "note": "nan", "short_name": "nan", "contact:phone": "nan", "contact:website": "nan", "loc_name": "nan", "opening_hours": "nan", "fixme": "nan", "acronym": "nan", "fax": "nan", "source": "nan", "operator:type": "nan", "contact:email": "nan", "ways": "nan", "type": "nan", "alt_name_2": "nan", "name:en": "nan", "description": "nan", "internet_access": "nan" }, "geometry": { "type": "Polygon", "coordinates": [ [ [ -51.2187003, -30.0795091 ], [ -51.2186736, -30.079535 ], [ -51.2186071, -30.0795994 ], [ -51.2185902, -30.0796158 ], [ -51.218794, -30.0798457 ], [ -51.219048, -30.0801449 ], [ -51.2190727, -30.0801661 ], [ -51.2194679, -30.0805039 ], [ -51.2195725, -30.0805933 ], [ -51.2197187, -30.0807007 ], [ -51.2198347, -30.0805341 ], [ -51.2203479, -30.0807498 ], [ -51.2202428, -30.0809373 ], [ -51.2203934, -30.0810123 ], [ -51.2209181, -30.081327 ], [ -51.2210884, -30.0811837 ], [ -51.2210875, -30.0811367 ], [ -51.2210019, -30.0810901 ], [ -51.220805, -30.0809829 ], [ -51.220803, -30.0801615 ], [ -51.2210355, -30.0799328 ], [ -51.2203895, -30.0794509 ], [ -51.2201534, -30.0792747 ], [ -51.219171, -30.0788444 ], [ -51.2190085, -30.0790205 ], [ -51.2186156, -30.0794463 ], [ -51.2186361, -30.0794615 ], [ -51.2187003, -30.0795091 ] ] ] } },
{ "type": "Feature", "properties": { "element_type": "way", "osmid": "243238221", "barrier": "fence", "amenity": "university", "name": "IFRS Campus Restinga", "website": "https://restinga.ifrs.edu.br/", "addr:city": "Porto Alegre", "addr:housenumber": "285", "addr:postcode": "91791-508", "addr:street": "Rua Alberto Hoffmann", "addr:suburb": "Restinga", "phone": "+55 51 3247-8400", "nodes": [ 2506559465, 3299063761, 4670396572, 4670396569, 2506559431, 4670396560, 3299063762, 2506559403, 2506559402, 2506559393, 2506559416, 3299063764, 2506559423, 4670396564, 4670396577, 4670396588, 4306891907, 4670398005, 4410378029, 4670398007, 4410378028, 4670398018, 4670398021, 2506559465 ], "alt_ref": "nan", "building": "nan", "building:levels": "nan", "official_name": "Instituto Federal de Educação, Ciência e Tecnologia do Rio Grande do Sul - Campus Restinga", "ref": "nan", "height": "nan", "wheelchair": "yes", "wikidata": "nan", "wikipedia": "pt:Instituto Federal do Rio Grande do Sul", "alt_name": "nan", "fence_type": "concrete", "fee": "nan", "start_date": "nan", "email": "comunicacao@restinga.ifrs.edu.br", "operator": "Governo Federal", "toilets:wheelchair": "yes", "note": "nan", "short_name": "nan", "contact:phone": "nan", "contact:website": "nan", "loc_name": "nan", "opening_hours": "nan", "fixme": "nan", "acronym": "nan", "fax": "nan", "source": "nan", "operator:type": "nan", "contact:email": "nan", "ways": "nan", "type": "nan", "alt_name_2": "nan", "name:en": "nan", "description": "nan", "internet_access": "nan" }, "geometry": { "type": "Polygon", "coordinates": [ [ [ -51.1303509, -30.1422067 ], [ -51.1301361, -30.1422018 ], [ -51.1288706, -30.1412966 ], [ -51.1288257, -30.1412645 ], [ -51.1287808, -30.1412324 ], [ -51.1288256, -30.1411823 ], [ -51.1291101, -30.1408638 ], [ -51.1303234, -30.1404176 ], [ -51.1305389, -30.1403388 ], [ -51.131982, -30.140477 ], [ -51.1322747, -30.1403841 ], [ -51.1325252, -30.1409405 ], [ -51.1325385, -30.1411352 ], [ -51.1323055, -30.1412409 ], [ -51.131914, -30.1413338 ], [ -51.1314616, -30.1415116 ], [ -51.1309768, -30.1417697 ], [ -51.130962, -30.1417563 ], [ -51.1309013, -30.14179 ], [ -51.1308571, -30.1418145 ], [ -51.1307149, -30.1418933 ], [ -51.1306008, -30.1419563 ], [ -51.1306201, -30.1419894 ], [ -51.1303509, -30.1422067 ] ] ] } },
{ "type": "Feature", "properties": { "element_type": "way", "osmid": "243551352", "barrier": "fence", "amenity": "university", "name": "UniRitter - Campus FAPA", "website": "https://www.uniritter.edu.br/", "addr:city": "nan", "addr:housenumber": "2001", "addr:postcode": "nan", "addr:street": "Avenida Manoel Elias", "addr:suburb": "nan", "phone": "+55 51 3382-8282", "nodes": [ 2509408020, 2509408019, 2509408017, 2509408016, 2509408014, 2509408013, 2509408015, 2509408018, 2516223927, 2516224001, 2516224110, 2516223928, 2516224190, 5220213914, 5220213916, 2509408028, 5220214525, 2509408030, 2509408032, 2509408035, 2509408036, 2509408034, 2509408033, 2509408027, 2509408026, 2509408025, 2509408024, 2509408023, 2509408022, 2509408021, 2509408020 ], "alt_ref": "nan", "building": "nan", "building:levels": "nan", "official_name": "nan", "ref": "nan", "height": "nan", "wheelchair": "nan", "wikidata": "Q5062890", "wikipedia": "pt:Centro Universitário Ritter dos Reis", "alt_name": "Faculdade Portoalegrense", "fence_type": "metal", "fee": "nan", "start_date": "1968", "email": "nan", "operator": "nan", "toilets:wheelchair": "nan", "note": "Antiga Faculdade Porto-Alegrense (FAPA).", "short_name": "FAPA", "contact:phone": "nan", "contact:website": "nan", "loc_name": "nan", "opening_hours": "nan", "fixme": "nan", "acronym": "nan", "fax": "nan", "source": "nan", "operator:type": "nan", "contact:email": "nan", "ways": "nan", "type": "nan", "alt_name_2": "nan", "name:en": "nan", "description": "nan", "internet_access": "nan" }, "geometry": { "type": "Polygon", "coordinates": [ [ [ -51.125246, -30.0321919 ], [ -51.1251979, -30.031842 ], [ -51.1252966, -30.0313783 ], [ -51.1247154, -30.0312818 ], [ -51.1248949, -30.0303697 ], [ -51.1244306, -30.0303128 ], [ -51.1242771, -30.0308287 ], [ -51.12126, -30.0313957 ], [ -51.1213333, -30.0318026 ], [ -51.1213774, -30.0320472 ], [ -51.1215653, -30.0330896 ], [ -51.1217416, -30.0340677 ], [ -51.1217525, -30.0341281 ], [ -51.1217886, -30.0343283 ], [ -51.1218386, -30.0346056 ], [ -51.1218821, -30.0348471 ], [ -51.1232517, -30.0348711 ], [ -51.1233713, -30.0348732 ], [ -51.1237936, -30.0356813 ], [ -51.1244205, -30.0358724 ], [ -51.1248131, -30.0359921 ], [ -51.1248609, -30.035833 ], [ -51.1245817, -30.0357502 ], [ -51.1247833, -30.0342933 ], [ -51.1251969, -30.0341188 ], [ -51.1255511, -30.0335347 ], [ -51.1255614, -30.0334407 ], [ -51.1254322, -30.033425 ], [ -51.1254916, -30.0329908 ], [ -51.1254037, -30.0322277 ], [ -51.125246, -30.0321919 ] ] ] } },
{ "type": "Feature", "properties": { "element_type": "way", "osmid": "245577979", "barrier": "wall", "amenity": "university", "name": "Instituto Porto Alegre Unidade Central", "website": "http://ipametodista.edu.br/", "addr:city": "nan", "addr:housenumber": "80", "addr:postcode": "nan", "addr:street": "Rua Coronel Joaquim Pedro Salgado", "addr:suburb": "nan", "phone": "nan", "nodes": [ 2527526601, 4840407217, 2527526605, 2527526628, 2527526635, 2527526636, 2527526632, 4840410521, 2527526601 ], "alt_ref": "nan", "building": "nan", "building:levels": "nan", "official_name": "nan", "ref": "nan", "height": "nan", "wheelchair": "yes", "wikidata": "Q18484127", "wikipedia": "nan", "alt_name": "Centro Universitário Metodista Unidade Central", "fence_type": "nan", "fee": "nan", "start_date": "2004", "email": "nan", "operator": "nan", "toilets:wheelchair": "nan", "note": "nan", "short_name": "IPA Unidade Central", "contact:phone": "+55 51 3331-3243", "contact:website": "http://www.ipametodista.edu.br/", "loc_name": "IPA", "opening_hours": "Mo-Fr 07:00-23:00; Sa 08:00-12:00", "fixme": "nan", "acronym": "nan", "fax": "nan", "source": "nan", "operator:type": "nan", "contact:email": "nan", "ways": "nan", "type": "nan", "alt_name_2": "nan", "name:en": "nan", "description": "nan", "internet_access": "nan" }, "geometry": { "type": "Polygon", "coordinates": [ [ [ -51.1983027, -30.0331407 ], [ -51.1974934, -30.0331985 ], [ -51.1960296, -30.033303 ], [ -51.1961072, -30.0345316 ], [ -51.1959164, -30.0348091 ], [ -51.1966411, -30.0348216 ], [ -51.1985801, -30.0347361 ], [ -51.1984353, -30.0339033 ], [ -51.1983027, -30.0331407 ] ] ] } },
{ "type": "Feature", "properties": { "element_type": "way", "osmid": "245577980", "barrier": "wall", "amenity": "university", "name": "IPA Unidade Dona Leonor", "website": "nan", "addr:city": "nan", "addr:housenumber": "340", "addr:postcode": "nan", "addr:street": "Rua Dona Leonor", "addr:suburb": "nan", "phone": "nan", "nodes": [ 2527526647, 2527526646, 2527526645, 2527526644, 2527526642, 2527526641, 2527526649, 2527526655, 2527526672, 2527526676, 2527526647 ], "alt_ref": "nan", "building": "nan", "building:levels": "nan", "official_name": "Instituto Porto Alegre Unidade Dona Leonor", "ref": "nan", "height": "nan", "wheelchair": "yes", "wikidata": "nan", "wikipedia": "nan", "alt_name": "Centro Universitário Metodista Unidade Dona Leonor", "fence_type": "nan", "fee": "nan", "start_date": "nan", "email": "nan", "operator": "nan", "toilets:wheelchair": "nan", "note": "nan", "short_name": "nan", "contact:phone": "nan", "contact:website": "nan", "loc_name": "nan", "opening_hours": "Mo-Fr 07:00-23:00; Sa 08:00-12:00", "fixme": "Não tenho bem certeza dos limites a oeste, inspecionar.", "acronym": "nan", "fax": "nan", "source": "nan", "operator:type": "nan", "contact:email": "nan", "ways": "nan", "type": "nan", "alt_name_2": "nan", "name:en": "nan", "description": "nan", "internet_access": "nan" }, "geometry": { "type": "Polygon", "coordinates": [ [ [ -51.2012424, -30.0354174 ], [ -51.2015148, -30.0353767 ], [ -51.2014923, -30.0352646 ], [ -51.2015657, -30.0352535 ], [ -51.2015265, -30.0350585 ], [ -51.2019568, -30.0349978 ], [ -51.2020053, -30.0355348 ], [ -51.2016827, -30.0357213 ], [ -51.2017854, -30.0361841 ], [ -51.2014968, -30.0362485 ], [ -51.2012424, -30.0354174 ] ] ] } },
{ "type": "Feature", "properties": { "element_type": "way", "osmid": "254565659", "barrier": "nan", "amenity": "university", "name": "Universidade Federal de Ciências da Saúde", "website": "https://www.ufcspa.edu.br/", "addr:city": "nan", "addr:housenumber": "245", "addr:postcode": "90050-170", "addr:street": "Rua Sarmento Leite", "addr:suburb": "nan", "phone": "nan", "nodes": [ 1398057106, 7819917148, 2603619962, 7820120389, 7820120390, 7820120391, 7820120392, 7820120393, 7820120394, 7820120395, 3552625299, 7820120396, 7820120398, 7819917153, 3552625301, 1398057070, 7820112374, 7820112373, 1398057106 ], "alt_ref": "nan", "building": "nan", "building:levels": "nan", "official_name": "Universidade Federal de Ciências da Saúde de Porto Alegre", "ref": "nan", "height": "nan", "wheelchair": "nan", "wikidata": "Q2036836", "wikipedia": "nan", "alt_name": "nan", "fence_type": "nan", "fee": "nan", "start_date": "nan", "email": "nan", "operator": "nan", "toilets:wheelchair": "nan", "note": "nan", "short_name": "UFCSPA", "contact:phone": "+55 51 3303-9000", "contact:website": "http://ufcspa.edu.br/", "loc_name": "nan", "opening_hours": "nan", "fixme": "nan", "acronym": "UFCSPA", "fax": "+55 51 3303-8810", "source": "nan", "operator:type": "nan", "contact:email": "nan", "ways": "nan", "type": "nan", "alt_name_2": "nan", "name:en": "nan", "description": "nan", "internet_access": "nan" }, "geometry": { "type": "Polygon", "coordinates": [ [ [ -51.2200086, -30.0313574 ], [ -51.2203934, -30.0319203 ], [ -51.2203995, -30.031931 ], [ -51.2205267, -30.0318693 ], [ -51.2206531, -30.031808 ], [ -51.220827, -30.0317236 ], [ -51.2208639, -30.0317057 ], [ -51.2208942, -30.031691 ], [ -51.2209283, -30.0316745 ], [ -51.220979, -30.0316499 ], [ -51.2210682, -30.0316066 ], [ -51.22125, -30.0315111 ], [ -51.2214392, -30.0314122 ], [ -51.2215615, -30.0313481 ], [ -51.2214599, -30.0312363 ], [ -51.2210343, -30.0308066 ], [ -51.2205074, -30.0310966 ], [ -51.2202466, -30.0312307 ], [ -51.2200086, -30.0313574 ] ] ] } },
{ "type": "Feature", "properties": { "element_type": "way", "osmid": "316692276", "barrier": "nan", "amenity": "university", "name": "IFRS Campus Viamão", "website": "nan", "addr:city": "nan", "addr:housenumber": "nan", "addr:postcode": "nan", "addr:street": "nan", "addr:suburb": "nan", "phone": "nan", "nodes": [ 3228488719, 3228488720, 3228488721, 3250892972, 3228488722, 5280054388, 3228488723, 3228488719 ], "alt_ref": "nan", "building": "nan", "building:levels": "nan", "official_name": "nan", "ref": "nan", "height": "nan", "wheelchair": "nan", "wikidata": "nan", "wikipedia": "nan", "alt_name": "nan", "fence_type": "nan", "fee": "nan", "start_date": "nan", "email": "nan", "operator": "nan", "toilets:wheelchair": "nan", "note": "nan", "short_name": "nan", "contact:phone": "nan", "contact:website": "nan", "loc_name": "nan", "opening_hours": "nan", "fixme": "nan", "acronym": "nan", "fax": "nan", "source": "nan", "operator:type": "nan", "contact:email": "nan", "ways": "nan", "type": "nan", "alt_name_2": "nan", "name:en": "nan", "description": "nan", "internet_access": "nan" }, "geometry": { "type": "Polygon", "coordinates": [ [ [ -51.0563948, -30.0854076 ], [ -51.0592523, -30.0876861 ], [ -51.0596431, -30.0860453 ], [ -51.0620336, -30.0824149 ], [ -51.0598409, -30.0812989 ], [ -51.0595773, -30.0825273 ], [ -51.0582965, -30.083664 ], [ -51.0563948, -30.0854076 ] ] ] } },
{ "type": "Feature", "properties": { "element_type": "way", "osmid": "316857239", "barrier": "nan", "amenity": "university", "name": "FARGS", "website": "nan", "addr:city": "nan", "addr:housenumber": "626", "addr:postcode": "90020-061", "addr:street": "Rua Marechal Floriano Peixoto", "addr:suburb": "nan", "phone": "+55 51 3214-1111", "nodes": [ 9712415706, 9712415664, 3245139653, 3245123171, 3245123172, 9712415706 ], "alt_ref": "nan", "building": "university", "building:levels": "5", "official_name": "Faculdade Estácio de Sá do Rio Grande do Sul Campus FARGS Centro", "ref": "nan", "height": "nan", "wheelchair": "nan", "wikidata": "nan", "wikipedia": "nan", "alt_name": "nan", "fence_type": "nan", "fee": "yes", "start_date": "nan", "email": "nan", "operator": "nan", "toilets:wheelchair": "nan", "note": "nan", "short_name": "nan", "contact:phone": "nan", "contact:website": "nan", "loc_name": "nan", "opening_hours": "nan", "fixme": "nan", "acronym": "nan", "fax": "nan", "source": "nan", "operator:type": "nan", "contact:email": "nan", "ways": "nan", "type": "nan", "alt_name_2": "nan", "name:en": "nan", "description": "nan", "internet_access": "nan" }, "geometry": { "type": "Polygon", "coordinates": [ [ [ -51.2271217, -30.0342763 ], [ -51.2270023, -30.034282 ], [ -51.226978, -30.0342839 ], [ -51.227016, -30.0348153 ], [ -51.2271792, -30.0348258 ], [ -51.2271217, -30.0342763 ] ] ] } },
{ "type": "Feature", "properties": { "element_type": "way", "osmid": "324537392", "barrier": "nan", "amenity": "university", "name": "FADERGS", "website": "https://www.fadergs.edu.br/", "addr:city": "Porto Alegre", "addr:housenumber": "5310", "addr:postcode": "nan", "addr:street": "Avenida Sertório", "addr:suburb": "Jardim Lindóia", "phone": "nan", "nodes": [ 3312425570, 3312425571, 3312425572, 3312425573, 3312425574, 3312425575, 3312425570 ], "alt_ref": "nan", "building": "nan", "building:levels": "nan", "official_name": "nan", "ref": "nan", "height": "nan", "wheelchair": "nan", "wikidata": "nan", "wikipedia": "nan", "alt_name": "nan", "fence_type": "nan", "fee": "nan", "start_date": "nan", "email": "nan", "operator": "nan", "toilets:wheelchair": "nan", "note": "nan", "short_name": "nan", "contact:phone": "nan", "contact:website": "nan", "loc_name": "nan", "opening_hours": "nan", "fixme": "nan", "acronym": "nan", "fax": "nan", "source": "nan", "operator:type": "nan", "contact:email": "nan", "ways": "nan", "type": "nan", "alt_name_2": "nan", "name:en": "nan", "description": "nan", "internet_access": "nan" }, "geometry": { "type": "Polygon", "coordinates": [ [ [ -51.1510464, -29.9974314 ], [ -51.1510391, -29.9977564 ], [ -51.1518301, -29.9977755 ], [ -51.1518264, -29.9978169 ], [ -51.1520545, -29.9978201 ], [ -51.1520509, -29.997613 ], [ -51.1510464, -29.9974314 ] ] ] } },
{ "type": "Feature", "properties": { "element_type": "way", "osmid": "348683004", "barrier": "nan", "amenity": "university", "name": "nan", "website": "nan", "addr:city": "nan", "addr:housenumber": "nan", "addr:postcode": "nan", "addr:street": "nan", "addr:suburb": "nan", "phone": "nan", "nodes": [ 3547352537, 3547352538, 3547352539, 3547352540, 3547352537 ], "alt_ref": "nan", "building": "nan", "building:levels": "nan", "official_name": "nan", "ref": "nan", "height": "nan", "wheelchair": "nan", "wikidata": "nan", "wikipedia": "nan", "alt_name": "nan", "fence_type": "nan", "fee": "nan", "start_date": "nan", "email": "nan", "operator": "nan", "toilets:wheelchair": "nan", "note": "nan", "short_name": "nan", "contact:phone": "nan", "contact:website": "nan", "loc_name": "nan", "opening_hours": "nan", "fixme": "nan", "acronym": "nan", "fax": "nan", "source": "nan", "operator:type": "nan", "contact:email": "nan", "ways": "nan", "type": "nan", "alt_name_2": "nan", "name:en": "nan", "description": "nan", "internet_access": "nan" }, "geometry": { "type": "Polygon", "coordinates": [ [ [ -51.2038628, -30.0423974 ], [ -51.2023662, -30.0424081 ], [ -51.2023715, -30.0429708 ], [ -51.2038597, -30.0429495 ], [ -51.2038628, -30.0423974 ] ] ] } },
{ "type": "Feature", "properties": { "element_type": "way", "osmid": "355834096", "barrier": "nan", "amenity": "university", "name": "Campus Central", "website": "https://uergs.edu.br/porto-alegre", "addr:city": "Porto Alegre", "addr:housenumber": "675", "addr:postcode": "90010-460", "addr:street": "Rua Washington Luiz", "addr:suburb": "Centro Histórico", "phone": "nan", "nodes": [ 3613759422, 3613759434, 3613759421, 3613759420, 3613759416, 3613759417, 3613759418, 3613759419, 3613759422 ], "alt_ref": "nan", "building": "nan", "building:levels": "nan", "official_name": "nan", "ref": "nan", "height": "nan", "wheelchair": "nan", "wikidata": "nan", "wikipedia": "nan", "alt_name": "nan", "fence_type": "nan", "fee": "nan", "start_date": "nan", "email": "nan", "operator": "Universidade Estadual do Rio Grande do Sul", "toilets:wheelchair": "nan", "note": "nan", "short_name": "UERGS", "contact:phone": "nan", "contact:website": "nan", "loc_name": "nan", "opening_hours": "nan", "fixme": "nan", "acronym": "nan", "fax": "nan", "source": "nan", "operator:type": "university", "contact:email": "nan", "ways": "nan", "type": "nan", "alt_name_2": "nan", "name:en": "nan", "description": "nan", "internet_access": "nan" }, "geometry": { "type": "Polygon", "coordinates": [ [ [ -51.2371402, -30.0367885 ], [ -51.2329407, -30.0371388 ], [ -51.2328926, -30.0367327 ], [ -51.2334177, -30.0366147 ], [ -51.2355721, -30.0361305 ], [ -51.2359031, -30.0361333 ], [ -51.2360317, -30.0361344 ], [ -51.2372979, -30.0363217 ], [ -51.2371402, -30.0367885 ] ] ] } },
{ "type": "Feature", "properties": { "element_type": "way", "osmid": "355834100", "barrier": "nan", "amenity": "university", "name": "UFRGS Escola de Administração", "website": "nan", "addr:city": "nan", "addr:housenumber": "855", "addr:postcode": "90010-460", "addr:street": "Rua Washington Luiz", "addr:suburb": "nan", "phone": "nan", "nodes": [ 3613759447, 3613759444, 4805948859, 3613759424, 3613759423, 3613759440, 3613759446, 3613759447 ], "alt_ref": "nan", "building": "nan", "building:levels": "nan", "official_name": "nan", "ref": "nan", "height": "nan", "wheelchair": "nan", "wikidata": "nan", "wikipedia": "nan", "alt_name": "nan", "fence_type": "nan", "fee": "nan", "start_date": "nan", "email": "nan", "operator": "nan", "toilets:wheelchair": "nan", "note": "nan", "short_name": "nan", "contact:phone": "nan", "contact:website": "nan", "loc_name": "nan", "opening_hours": "nan", "fixme": "nan", "acronym": "nan", "fax": "nan", "source": "nan", "operator:type": "nan", "contact:email": "nan", "ways": "nan", "type": "nan", "alt_name_2": "nan", "name:en": "nan", "description": "nan", "internet_access": "nan" }, "geometry": { "type": "Polygon", "coordinates": [ [ [ -51.2307504, -30.0374464 ], [ -51.2306947, -30.0372947 ], [ -51.2315824, -30.0370222 ], [ -51.2319707, -30.036903 ], [ -51.2325475, -30.0368037 ], [ -51.2325761, -30.0372037 ], [ -51.23112, -30.0373443 ], [ -51.2307504, -30.0374464 ] ] ] } },
{ "type": "Feature", "properties": { "element_type": "way", "osmid": "380777094", "barrier": "nan", "amenity": "university", "name": "Faculdade de Tecnologia Senai de Porto Alegre", "website": "nan", "addr:city": "Porto Alegre", "addr:housenumber": "8450", "addr:postcode": "91140-000", "addr:street": "Avenida Assis Brasil", "addr:suburb": "Sarandi", "phone": "nan", "nodes": [ 3840853160, 3840853161, 3840853162, 3840853163, 4166609479, 3840853164, 3840853165, 3840853160 ], "alt_ref": "nan", "building": "nan", "building:levels": "nan", "official_name": "nan", "ref": "nan", "height": "nan", "wheelchair": "nan", "wikidata": "nan", "wikipedia": "nan", "alt_name": "nan", "fence_type": "nan", "fee": "yes", "start_date": "nan", "email": "nan", "operator": "nan", "toilets:wheelchair": "nan", "note": "nan", "short_name": "nan", "contact:phone": "+55 51 3347-8400", "contact:website": "nan", "loc_name": "nan", "opening_hours": "nan", "fixme": "nan", "acronym": "nan", "fax": "nan", "source": "nan", "operator:type": "nan", "contact:email": "adriana.menelli@senairs.org.br", "ways": "nan", "type": "nan", "alt_name_2": "nan", "name:en": "nan", "description": "nan", "internet_access": "nan" }, "geometry": { "type": "Polygon", "coordinates": [ [ [ -51.1149789, -29.980345 ], [ -51.1170657, -29.9803915 ], [ -51.117071, -29.9806308 ], [ -51.1158446, -29.9817884 ], [ -51.1153801, -29.9813248 ], [ -51.1152257, -29.9810049 ], [ -51.1149803, -29.9804345 ], [ -51.1149789, -29.980345 ] ] ] } },
{ "type": "Feature", "properties": { "element_type": "way", "osmid": "419874074", "barrier": "nan", "amenity": "university", "name": "Uniter", "website": "nan", "addr:city": "Alvorada", "addr:housenumber": "2905", "addr:postcode": "nan", "addr:street": "Avenida Presidente Getúlio Vargas", "addr:suburb": "nan", "phone": "nan", "nodes": [ 4198654037, 4198654038, 4198654039, 4198654040, 4198654037 ], "alt_ref": "nan", "building": "nan", "building:levels": "3", "official_name": "nan", "ref": "nan", "height": "nan", "wheelchair": "nan", "wikidata": "nan", "wikipedia": "nan", "alt_name": "nan", "fence_type": "nan", "fee": "nan", "start_date": "nan", "email": "nan", "operator": "nan", "toilets:wheelchair": "nan", "note": "nan", "short_name": "nan", "contact:phone": "nan", "contact:website": "nan", "loc_name": "nan", "opening_hours": "nan", "fixme": "nan", "acronym": "nan", "fax": "nan", "source": "nan", "operator:type": "nan", "contact:email": "nan", "ways": "nan", "type": "nan", "alt_name_2": "nan", "name:en": "nan", "description": "nan", "internet_access": "nan" }, "geometry": { "type": "Polygon", "coordinates": [ [ [ -51.0712216, -29.9964501 ], [ -51.0711788, -29.9965364 ], [ -51.071054, -29.9964862 ], [ -51.0711001, -29.9964036 ], [ -51.0712216, -29.9964501 ] ] ] } },
{ "type": "Feature", "properties": { "element_type": "way", "osmid": "442584817", "barrier": "nan", "amenity": "university", "name": "Faculdade UNIASSELVI", "website": "https://www.iergs.com.br/universidade-parceira", "addr:city": "nan", "addr:housenumber": "nan", "addr:postcode": "nan", "addr:street": "nan", "addr:suburb": "nan", "phone": "+55 51 3079-8400", "nodes": [ 4155700791, 4155700554, 4155699129, 4155699120, 4155699148, 4155700791 ], "alt_ref": "nan", "building": "nan", "building:levels": "nan", "official_name": "Universidades Associadas Leornardo da Vinci", "ref": "nan", "height": "nan", "wheelchair": "nan", "wikidata": "nan", "wikipedia": "nan", "alt_name": "nan", "fence_type": "nan", "fee": "nan", "start_date": "nan", "email": "nan", "operator": "UNIASSELVI", "toilets:wheelchair": "nan", "note": "nan", "short_name": "UNIASSELVI", "contact:phone": "nan", "contact:website": "nan", "loc_name": "nan", "opening_hours": "nan", "fixme": "nan", "acronym": "nan", "fax": "nan", "source": "nan", "operator:type": "nan", "contact:email": "nan", "ways": "nan", "type": "nan", "alt_name_2": "nan", "name:en": "nan", "description": "nan", "internet_access": "nan" }, "geometry": { "type": "Polygon", "coordinates": [ [ [ -51.22582, -30.0273836 ], [ -51.2255659, -30.0273152 ], [ -51.2258135, -30.0265546 ], [ -51.2258312, -30.026547 ], [ -51.2260908, -30.0266154 ], [ -51.22582, -30.0273836 ] ] ] } },
{ "type": "Feature", "properties": { "element_type": "way", "osmid": "461594738", "barrier": "nan", "amenity": "university", "name": "IDC", "website": "nan", "addr:city": "nan", "addr:housenumber": "nan", "addr:postcode": "nan", "addr:street": "nan", "addr:suburb": "nan", "phone": "nan", "nodes": [ 4211558153, 4570648924, 4570648923, 4570648922, 4211558797, 4211558417, 4211558153 ], "alt_ref": "nan", "building": "nan", "building:levels": "nan", "official_name": "nan", "ref": "nan", "height": "nan", "wheelchair": "nan", "wikidata": "nan", "wikipedia": "nan", "alt_name": "nan", "fence_type": "nan", "fee": "nan", "start_date": "nan", "email": "nan", "operator": "nan", "toilets:wheelchair": "nan", "note": "nan", "short_name": "nan", "contact:phone": "nan", "contact:website": "nan", "loc_name": "nan", "opening_hours": "nan", "fixme": "nan", "acronym": "nan", "fax": "nan", "source": "nan", "operator:type": "nan", "contact:email": "nan", "ways": "nan", "type": "nan", "alt_name_2": "nan", "name:en": "nan", "description": "nan", "internet_access": "nan" }, "geometry": { "type": "Polygon", "coordinates": [ [ [ -51.1993223, -30.0468424 ], [ -51.1995941, -30.0469888 ], [ -51.199391, -30.0472793 ], [ -51.1991948, -30.0471713 ], [ -51.1993543, -30.0469551 ], [ -51.1992732, -30.0469112 ], [ -51.1993223, -30.0468424 ] ] ] } },
{ "type": "Feature", "properties": { "element_type": "way", "osmid": "461594739", "barrier": "nan", "amenity": "university", "name": "FAEPESUL", "website": "www.faepesul.org.br", "addr:city": "nan", "addr:housenumber": "nan", "addr:postcode": "nan", "addr:street": "nan", "addr:suburb": "nan", "phone": "nan", "nodes": [ 4570648926, 4207639339, 4207641172, 4207640750, 4570648925, 4570648926 ], "alt_ref": "nan", "building": "nan", "building:levels": "nan", "official_name": "Fundação de Apoio à Educação, Pesquisa e Extensão da Unisul - Unidade de Projeto", "ref": "nan", "height": "nan", "wheelchair": "nan", "wikidata": "nan", "wikipedia": "nan", "alt_name": "nan", "fence_type": "nan", "fee": "nan", "start_date": "nan", "email": "nan", "operator": "UNISUL", "toilets:wheelchair": "nan", "note": "nan", "short_name": "nan", "contact:phone": "nan", "contact:website": "nan", "loc_name": "nan", "opening_hours": "nan", "fixme": "nan", "acronym": "nan", "fax": "nan", "source": "nan", "operator:type": "nan", "contact:email": "nan", "ways": "nan", "type": "nan", "alt_name_2": "nan", "name:en": "nan", "description": "nan", "internet_access": "nan" }, "geometry": { "type": "Polygon", "coordinates": [ [ [ -51.2162473, -30.0444755 ], [ -51.216111, -30.0446591 ], [ -51.2163055, -30.0447628 ], [ -51.216412, -30.0446203 ], [ -51.2164398, -30.0445843 ], [ -51.2162473, -30.0444755 ] ] ] } },
{ "type": "Feature", "properties": { "element_type": "way", "osmid": "462555354", "barrier": "nan", "amenity": "university", "name": "nan", "website": "nan", "addr:city": "nan", "addr:housenumber": "nan", "addr:postcode": "nan", "addr:street": "nan", "addr:suburb": "nan", "phone": "nan", "nodes": [ 4211724318, 4579353878, 4211725322, 4579353877, 4211722163, 4579353876, 4579353875, 4579353874, 4579353873, 4211724318 ], "alt_ref": "nan", "building": "nan", "building:levels": "nan", "official_name": "nan", "ref": "nan", "height": "nan", "wheelchair": "nan", "wikidata": "nan", "wikipedia": "nan", "alt_name": "nan", "fence_type": "nan", "fee": "nan", "start_date": "nan", "email": "nan", "operator": "nan", "toilets:wheelchair": "nan", "note": "nan", "short_name": "nan", "contact:phone": "nan", "contact:website": "nan", "loc_name": "nan", "opening_hours": "nan", "fixme": "nan", "acronym": "nan", "fax": "nan", "source": "nan", "operator:type": "nan", "contact:email": "nan", "ways": "nan", "type": "nan", "alt_name_2": "nan", "name:en": "nan", "description": "nan", "internet_access": "nan" }, "geometry": { "type": "Polygon", "coordinates": [ [ [ -51.2028194, -29.9993399 ], [ -51.2032262, -29.9992534 ], [ -51.2034321, -29.9998575 ], [ -51.2034428, -29.9998765 ], [ -51.2032407, -29.9999251 ], [ -51.2033134, -30.0001181 ], [ -51.2031391, -30.0001587 ], [ -51.2030613, -29.9998788 ], [ -51.2029688, -29.9998939 ], [ -51.2028194, -29.9993399 ] ] ] } },
{ "type": "Feature", "properties": { "element_type": "way", "osmid": "471271986", "barrier": "nan", "amenity": "university", "name": "UniRitter Campus Exclusivo", "website": "http://www.uniritter.edu.br/", "addr:city": "nan", "addr:housenumber": "1040", "addr:postcode": "91900-000", "addr:street": "Avenida Wenceslau Escobar", "addr:suburb": "nan", "phone": "+55 51 3230-3333", "nodes": [ 4654377060, 4736931381, 4736931384, 4736931385, 4736931388, 4661700768, 4654377059, 5090901239, 4253553139, 5090901240, 4253553218, 4654377061, 4654377060 ], "alt_ref": "nan", "building": "nan", "building:levels": "nan", "official_name": "nan", "ref": "nan", "height": "nan", "wheelchair": "nan", "wikidata": "Q5062890", "wikipedia": "pt:Centro Universitário Ritter dos Reis", "alt_name": "nan", "fence_type": "nan", "fee": "nan", "start_date": "nan", "email": "nan", "operator": "nan", "toilets:wheelchair": "nan", "note": "nan", "short_name": "nan", "contact:phone": "nan", "contact:website": "nan", "loc_name": "nan", "opening_hours": "nan", "fixme": "nan", "acronym": "nan", "fax": "nan", "source": "nan", "operator:type": "nan", "contact:email": "nan", "ways": "nan", "type": "nan", "alt_name_2": "nan", "name:en": "nan", "description": "nan", "internet_access": "nan" }, "geometry": { "type": "Polygon", "coordinates": [ [ [ -51.248263, -30.0992381 ], [ -51.2480361, -30.0992753 ], [ -51.2479437, -30.0992947 ], [ -51.247614, -30.0993551 ], [ -51.2475703, -30.0993633 ], [ -51.2476164, -30.099625 ], [ -51.2476686, -30.099616 ], [ -51.2477455, -30.0996034 ], [ -51.247998, -30.0995619 ], [ -51.2482301, -30.0995238 ], [ -51.2482791, -30.0995158 ], [ -51.2483222, -30.0995083 ], [ -51.248263, -30.0992381 ] ] ] } },
{ "type": "Feature", "properties": { "element_type": "way", "osmid": "481652428", "barrier": "nan", "amenity": "university", "name": "IFSul - Campus Gravataí", "website": "nan", "addr:city": "Gravataí", "addr:housenumber": "800", "addr:postcode": "nan", "addr:street": "Rua Mem de Sá", "addr:suburb": "Bom Sucesso", "phone": "nan", "nodes": [ 4745642518, 4745642519, 4745642520, 4745643021, 4745643022, 4745643023, 4745643024, 4745643025, 4745643026, 4745643027, 4745643028, 4745643029, 4745643030, 4745642518 ], "alt_ref": "nan", "building": "nan", "building:levels": "nan", "official_name": "nan", "ref": "nan", "height": "nan", "wheelchair": "nan", "wikidata": "nan", "wikipedia": "nan", "alt_name": "nan", "fence_type": "nan", "fee": "nan", "start_date": "nan", "email": "nan", "operator": "nan", "toilets:wheelchair": "nan", "note": "nan", "short_name": "nan", "contact:phone": "nan", "contact:website": "nan", "loc_name": "nan", "opening_hours": "nan", "fixme": "nan", "acronym": "nan", "fax": "nan", "source": "nan", "operator:type": "nan", "contact:email": "nan", "ways": "nan", "type": "nan", "alt_name_2": "nan", "name:en": "nan", "description": "nan", "internet_access": "nan" }, "geometry": { "type": "Polygon", "coordinates": [ [ [ -51.0402416, -29.9289031 ], [ -51.0397052, -29.9292537 ], [ -51.0397052, -29.9293187 ], [ -51.0395434, -29.9294511 ], [ -51.0395134, -29.9294355 ], [ -51.0393486, -29.929542 ], [ -51.0393995, -29.9295888 ], [ -51.0384915, -29.9302562 ], [ -51.0378052, -29.9296303 ], [ -51.0378562, -29.9295862 ], [ -51.0381558, -29.9296355 ], [ -51.0391358, -29.9289576 ], [ -51.0396273, -29.929033 ], [ -51.0402416, -29.9289031 ] ] ] } },
{ "type": "Feature", "properties": { "element_type": "way", "osmid": "491834411", "barrier": "nan", "amenity": "university", "name": "Unisinos", "website": "nan", "addr:city": "nan", "addr:housenumber": "nan", "addr:postcode": "nan", "addr:street": "nan", "addr:suburb": "nan", "phone": "nan", "nodes": [ 1149306444, 1149305754, 1149306097, 1149306206, 1149306444 ], "alt_ref": "nan", "building": "nan", "building:levels": "nan", "official_name": "nan", "ref": "nan", "height": "nan", "wheelchair": "nan", "wikidata": "nan", "wikipedia": "nan", "alt_name": "nan", "fence_type": "nan", "fee": "nan", "start_date": "nan", "email": "nan", "operator": "nan", "toilets:wheelchair": "nan", "note": "nan", "short_name": "nan", "contact:phone": "nan", "contact:website": "nan", "loc_name": "nan", "opening_hours": "nan", "fixme": "nan", "acronym": "nan", "fax": "nan", "source": "nan", "operator:type": "nan", "contact:email": "nan", "ways": "nan", "type": "nan", "alt_name_2": "nan", "name:en": "nan", "description": "nan", "internet_access": "nan" }, "geometry": { "type": "Polygon", "coordinates": [ [ [ -51.1766711, -30.0276356 ], [ -51.1748349, -30.026911 ], [ -51.1745148, -30.02753 ], [ -51.1770011, -30.0282432 ], [ -51.1766711, -30.0276356 ] ] ] } },
{ "type": "Feature", "properties": { "element_type": "relation", "osmid": "3345719", "barrier": "nan", "amenity": "university", "name": "ESPM", "website": "https://www.espm.br/", "addr:city": "nan", "addr:housenumber": "nan", "addr:postcode": "nan", "addr:street": "nan", "addr:suburb": "nan", "phone": "+55 51 3218-1300", "nodes": [ [ [ 7713023206, 2408708987, 2408708989, 2408708991, 2408708992, 7713277775 ], [ 7713277775, 7713023206 ], [ 7713277777, 2408708967, 7713076386, 7713076385, 7713076387, 7713076388, 2408708968, 2408708969, 7713007867, 7713007866, 7713007862, 7713007863, 7713007864, 7713007865, 2408708975, 2408708966, 7713277778 ], [ 7713277778, 7713277777 ] ] ], "alt_ref": "nan", "building": "nan", "building:levels": "nan", "official_name": "Escola Superior de Propaganda e Marketing", "ref": "nan", "height": "nan", "wheelchair": "nan", "wikidata": "Q3847972", "wikipedia": "pt:Escola Superior de Propaganda e Marketing", "alt_name": "nan", "fence_type": "nan", "fee": "nan", "start_date": "1985", "email": "nan", "operator": "nan", "toilets:wheelchair": "nan", "note": "nan", "short_name": "ESPM", "contact:phone": "nan", "contact:website": "nan", "loc_name": "nan", "opening_hours": "Mo-Fr 07:00-23:00", "fixme": "nan", "acronym": "nan", "fax": "nan", "source": "nan", "operator:type": "nan", "contact:email": "nan", "ways": [ 232522253, 826114014, 232522251, 826114015 ], "type": "multipolygon", "alt_name_2": "nan", "name:en": "nan", "description": "nan", "internet_access": "nan" }, "geometry": { "type": "MultiPolygon", "coordinates": [ [ [ [ -51.2073404, -30.0548359 ], [ -51.2073096, -30.0547552 ], [ -51.2072271, -30.0545265 ], [ -51.2070239, -30.054577 ], [ -51.2069914, -30.0546208 ], [ -51.2069669, -30.0546261 ], [ -51.2069401, -30.0546359 ], [ -51.206916, -30.0546525 ], [ -51.2069019, -30.0546644 ], [ -51.2068469, -30.0547349 ], [ -51.2067477, -30.0547951 ], [ -51.2068335, -30.0550593 ], [ -51.206892, -30.0550516 ], [ -51.2069039, -30.0550094 ], [ -51.206924, -30.0550048 ], [ -51.2069465, -30.0550994 ], [ -51.2073954, -30.0550007 ], [ -51.2073404, -30.0548359 ] ] ], [ [ [ -51.2073207, -30.0554519 ], [ -51.2072336, -30.0554734 ], [ -51.2069911, -30.0555341 ], [ -51.2071399, -30.0559868 ], [ -51.2075906, -30.0558788 ], [ -51.2074564, -30.0554203 ], [ -51.2073207, -30.0554519 ] ] ] ] } },
{ "type": "Feature", "properties": { "element_type": "relation", "osmid": "3494410", "barrier": "nan", "amenity": "university", "name": "UFRGS Campus Saúde", "website": "http://www.ufrgs.br/", "addr:city": "nan", "addr:housenumber": "nan", "addr:postcode": "nan", "addr:street": "nan", "addr:suburb": "nan", "phone": "nan", "nodes": [ [ [ 1398058807, 1398058820, 1398058851, 1398058879, 1398058954, 2511596005, 2511596004, 2511596009, 2511596012, 1398058957, 2511596018, 1398058955, 1398058952, 1398058815, 1398058807 ], [ 1398058953, 1398058927, 1398058859, 1398058829, 5288854661, 2136838244, 1398058566, 5288854660, 1398058644, 1398058877, 1398058896, 1398058910, 1398058953 ] ] ], "alt_ref": "nan", "building": "nan", "building:levels": "nan", "official_name": "Universidade Federal do Rio Grande do Sul - Campus Saúde", "ref": "nan", "height": "nan", "wheelchair": "nan", "wikidata": "Q18479797", "wikipedia": "pt:Campus Saúde da Universidade Federal do Rio Grande do Sul", "alt_name": "nan", "fence_type": "nan", "fee": "nan", "start_date": "nan", "email": "nan", "operator": "nan", "toilets:wheelchair": "nan", "note": "nan", "short_name": "nan", "contact:phone": "nan", "contact:website": "nan", "loc_name": "nan", "opening_hours": "Mo-Fr 07:30-22:30; Sa 07:30-12:00", "fixme": "nan", "acronym": "nan", "fax": "nan", "source": "nan", "operator:type": "nan", "contact:email": "nan", "ways": [ 260393160, 260393157 ], "type": "multipolygon", "alt_name_2": "nan", "name:en": "nan", "description": "nan", "internet_access": "nan" }, "geometry": { "type": "MultiPolygon", "coordinates": [ [ [ [ -51.2081545, -30.0422973 ], [ -51.2081506, -30.0424474 ], [ -51.2080717, -30.0428705 ], [ -51.207985, -30.0430445 ], [ -51.2073459, -30.0438827 ], [ -51.207658, -30.0440602 ], [ -51.2078379, -30.0440583 ], [ -51.2078354, -30.0440977 ], [ -51.207833, -30.0441261 ], [ -51.2084337, -30.0444887 ], [ -51.208652, -30.0442143 ], [ -51.2087584, -30.0440805 ], [ -51.2087784, -30.0436551 ], [ -51.2088994, -30.0423348 ], [ -51.2081545, -30.0422973 ] ] ], [ [ [ -51.2070865, -30.0437199 ], [ -51.2073982, -30.0434014 ], [ -51.2077312, -30.0429857 ], [ -51.2078707, -30.0426226 ], [ -51.2079124, -30.0421941 ], [ -51.2081167, -30.0383627 ], [ -51.2081795, -30.0371854 ], [ -51.2081002, -30.0371334 ], [ -51.2050435, -30.0375819 ], [ -51.2052314, -30.042989 ], [ -51.2057873, -30.043089 ], [ -51.206122, -30.0431968 ], [ -51.2070865, -30.0437199 ] ] ] ] } },
{ "type": "Feature", "properties": { "element_type": "relation", "osmid": "3494411", "barrier": "nan", "amenity": "university", "name": "UFRGS Campus Centro", "website": "http://www.ufrgs.br", "addr:city": "Porto Alegre", "addr:housenumber": "110", "addr:postcode": "90040-060", "addr:street": "Avenida Paulo Gama", "addr:suburb": "Farropilhas", "phone": "+55 51 3308-6000", "nodes": [ [ [ 2911552940, 7783976896, 3230326617, 3230326618, 1398057572, 2438190565, 1398057184, 7783976895, 2438190569, 7783976894, 2911552931, 2911552940 ], [ 300251147, 300251146, 1398057314, 7783976897, 1398057256, 7783976898, 4805948849, 1398057527, 4455139377, 1398057577, 4455139380, 3230708914, 1398057586, 300251147 ] ] ], "alt_ref": "nan", "building": "nan", "building:levels": "nan", "official_name": "Universidade Federal do Rio Grande do Sul - Campus Centro", "ref": "nan", "height": "nan", "wheelchair": "nan", "wikidata": "Q766447", "wikipedia": "pt:Universidade Federal do Rio Grande do Sul", "alt_name": "nan", "fence_type": "nan", "fee": "nan", "start_date": "nan", "email": "nan", "operator": "nan", "toilets:wheelchair": "nan", "note": "nan", "short_name": "UFRGS", "contact:phone": "nan", "contact:website": "nan", "loc_name": "nan", "opening_hours": "nan", "fixme": "nan", "acronym": "nan", "fax": "nan", "source": "nan", "operator:type": "nan", "contact:email": "nan", "ways": [ 126014249, 126014248 ], "type": "multipolygon", "alt_name_2": "UFRGS Campus Central", "name:en": "nan", "description": "nan", "internet_access": "nan" }, "geometry": { "type": "MultiPolygon", "coordinates": [ [ [ [ -51.2228684, -30.0324429 ], [ -51.2222119, -30.0319404 ], [ -51.2210988, -30.03213 ], [ -51.2206194, -30.0322142 ], [ -51.2205859, -30.0322478 ], [ -51.2205791, -30.0322885 ], [ -51.2208078, -30.0326515 ], [ -51.2217195, -30.0340036 ], [ -51.2225768, -30.0329581 ], [ -51.2228805, -30.0325369 ], [ -51.2228885, -30.0324882 ], [ -51.2228684, -30.0324429 ] ] ], [ [ [ -51.2181886, -30.0344027 ], [ -51.2213118, -30.0340583 ], [ -51.2213641, -30.0340352 ], [ -51.2214, -30.0340007 ], [ -51.2214224, -30.0339613 ], [ -51.2214322, -30.0339148 ], [ -51.2214213, -30.0338679 ], [ -51.22067, -30.0327499 ], [ -51.2205339, -30.0325221 ], [ -51.2205027, -30.0325021 ], [ -51.2204611, -30.0324998 ], [ -51.2192783, -30.0327622 ], [ -51.2180914, -30.034253 ], [ -51.2181886, -30.0344027 ] ] ] ] } },
{ "type": "Feature", "properties": { "element_type": "relation", "osmid": "3516594", "barrier": "nan", "amenity": "university", "name": "PUCRS", "website": "https://www.pucrs.br/", "addr:city": "nan", "addr:housenumber": "6681", "addr:postcode": "90619-900", "addr:street": "Avenida Ipiranga", "addr:suburb": "nan", "phone": "+55 51 3320-3500", "nodes": [ [ [ 2675347826, 4245384686, 4245384683, 4245384684, 4245384706, 4245384831, 2675347836, 7828600773, 395296165, 7795934995, 395296162, 7795934996, 2184851344, 2188463313, 2188463312, 2188463310, 395296159, 1538111964, 1139984451, 2551951832, 2551951864, 2675347826 ], [ 1139984451, 2500668306, 10274536956, 3115593220, 3115593217, 10274469704, 1139984373, 1139984411, 2500675019, 2500675016, 2500675021, 2675347822, 2675347823, 2675347824, 2675347825, 2675347826, 2551951864, 2551951832, 1139984451 ], [ 1139984337, 7795934997, 2543711729, 3431610060, 1139984371, 1139984408, 7795934999, 1139984453, 2190655919, 2190655920, 2190656079, 1199277201, 1199276879, 830475790, 830475787, 1199277108, 830475785, 2483801967, 4245397515, 4245397489, 4245397482, 4245397252, 4245397072, 4245396841, 830475768, 830475772, 1199277053, 2483801908, 1199277113, 441031839, 832783612, 7795934998, 2675347832, 2675347830, 2675347829, 2675347828, 1139984337 ], [ 1711333111, 1711333124, 1711333117, 1711333119, 1711333111 ] ] ], "alt_ref": "nan", "building": "nan", "building:levels": "nan", "official_name": "Pontifícia Universidade Católica do Rio Grande do Sul", "ref": "nan", "height": "nan", "wheelchair": "nan", "wikidata": "Q600634", "wikipedia": "pt:Pontifícia Universidade Católica do Rio Grande do Sul", "alt_name": "nan", "fence_type": "nan", "fee": "nan", "start_date": "1948", "email": "nan", "operator": "nan", "toilets:wheelchair": "nan", "note": "nan", "short_name": "nan", "contact:phone": "nan", "contact:website": "nan", "loc_name": "PUC", "opening_hours": "nan", "fixme": "nan", "acronym": "nan", "fax": "nan", "source": "nan", "operator:type": "nan", "contact:email": "nan", "ways": [ 98543853, 1123478632, 261901104, 159028807 ], "type": "multipolygon", "alt_name_2": "nan", "name:en": "Pontifical Catholic University of Rio Grande do Sul", "description": "nan", "internet_access": "nan" }, "geometry": { "type": "MultiPolygon", "coordinates": [ [ [ [ -51.1733654, -30.0545678 ], [ -51.1718877, -30.0539584 ], [ -51.1713962, -30.0537558 ], [ -51.1709339, -30.0535699 ], [ -51.1702046, -30.0533338 ], [ -51.1697223, -30.0538242 ], [ -51.1694294, -30.0542021 ], [ -51.1692792, -30.0545619 ], [ -51.1692704, -30.0550186 ], [ -51.1699109, -30.0550151 ], [ -51.1699135, -30.0554113 ], [ -51.1710575, -30.0554047 ], [ -51.1714411, -30.0554395 ], [ -51.1718327, -30.0555207 ], [ -51.1722457, -30.0556647 ], [ -51.1727192, -30.0558514 ], [ -51.1748306, -30.0567403 ], [ -51.1748377, -30.0567386 ], [ -51.1748473, -30.0567394 ], [ -51.1748571, -30.0567437 ], [ -51.1749576, -30.0567871 ], [ -51.1760302, -30.0572529 ], [ -51.1770394, -30.0555235 ], [ -51.1771275, -30.0553238 ], [ -51.1770415, -30.054606 ], [ -51.1769986, -30.054548 ], [ -51.1769208, -30.0545178 ], [ -51.1764915, -30.0545063 ], [ -51.1762232, -30.0544007 ], [ -51.1753965, -30.0540752 ], [ -51.1752928, -30.0540344 ], [ -51.174764, -30.0538263 ], [ -51.1739912, -30.053498 ], [ -51.1733654, -30.0545678 ] ] ], [ [ [ -51.1692859, -30.0560756 ], [ -51.1693449, -30.0565109 ], [ -51.1694679, -30.0578145 ], [ -51.1696695, -30.0601533 ], [ -51.1697607, -30.0614289 ], [ -51.1711259, -30.0616059 ], [ -51.171535, -30.0616332 ], [ -51.1718374, -30.0616332 ], [ -51.1730641, -30.0615364 ], [ -51.1731922, -30.0615474 ], [ -51.1746514, -30.0619422 ], [ -51.1747299, -30.0619489 ], [ -51.1760423, -30.0620934 ], [ -51.1762558, -30.062088 ], [ -51.1770915, -30.0621781 ], [ -51.1771002, -30.0620511 ], [ -51.1769629, -30.0612562 ], [ -51.1769311, -30.0612117 ], [ -51.176825, -30.0611881 ], [ -51.1768259, -30.06118 ], [ -51.1768262, -30.0611765 ], [ -51.1768348, -30.0610962 ], [ -51.1768452, -30.0609975 ], [ -51.1768511, -30.060935 ], [ -51.1770011, -30.0609066 ], [ -51.1768354, -30.0601343 ], [ -51.1766305, -30.059274 ], [ -51.1765856, -30.0589473 ], [ -51.1765306, -30.0588036 ], [ -51.1765198, -30.0582178 ], [ -51.1745198, -30.0573379 ], [ -51.172872, -30.0566269 ], [ -51.1719804, -30.0562334 ], [ -51.1717698, -30.0561686 ], [ -51.1714293, -30.0560964 ], [ -51.1711264, -30.0560566 ], [ -51.1692859, -30.0560756 ] ] ] ] } },
{ "type": "Feature", "properties": { "element_type": "relation", "osmid": "4292326", "barrier": "nan", "amenity": "university", "name": "UFRGS Campus do Vale", "website": "nan", "addr:city": "nan", "addr:housenumber": "nan", "addr:postcode": "nan", "addr:street": "nan", "addr:suburb": "nan", "phone": "nan", "nodes": [ [ [ 3618665486, 3039858261, 3039858259, 3039858257, 3039858256, 3039858252, 3039858249, 3039858243, 3039858241, 2060102757, 4795358168, 4795358170, 4464271710, 3039858245, 3039858246, 3039858244, 8649985342, 3056665069, 3056665060, 3056665056, 3056665054, 3039858238, 3039858236, 3039858235, 3039858233, 3039857527, 3039857522, 3039857502, 3039857497, 3039857473, 3618665350, 3618665343, 4915327546 ], [ 4915327536, 4915327537, 4915327538, 4915327539, 3039857456, 3039857479, 3039857482, 3039857484, 3039857485, 3039857487, 3039857488, 3039857494, 3039857498, 3039857500, 3039857503, 3245008246, 341022977, 4915327574, 4915327571, 4915327569, 4915327565, 4915327563, 4915327562, 4915327561, 4915327560, 4915327559, 4915327557, 4915327556, 4915327553, 4915327546 ], [ 4915327524, 4915327528, 4915327530, 4915327536 ], [ 4915327524, 3327839825, 3327839826, 321360094, 3327839829, 3327839831, 3327839833, 3327839837, 3327839838, 3327839839, 3263444079, 3263444080, 341035541 ], [ 341035511, 341035519, 3263444071, 3263444072, 341035529, 341035536, 3263444076, 341035541 ], [ 3244755605, 3263437659, 3263437660, 3263444066, 341035511 ], [ 3244755605, 3618665473, 3244755606, 321363448, 3039858255, 3039858258, 3039858260, 3039858262, 3039858263, 3039858266, 3039858265, 3039858264, 3618665486 ], [ 5283177720, 5283181021, 5283181022, 5283181023, 5283177720 ], [ 5283181024, 6645364361, 5283181025, 6645364362, 5283181026, 5283181027, 5283181028, 5283181030, 5283181031, 5283181024 ], [ 1397396238, 1397396191, 1397396168, 1397396187, 4065299511, 4065299512, 3833141308, 4065299513, 4065299514, 1397396251, 1397396292, 1397396286, 297391865, 1397396238 ] ] ], "alt_ref": "nan", "building": "nan", "building:levels": "nan", "official_name": "Universidade Federal do Rio Grande do Sul - Campus do Vale", "ref": "nan", "height": "nan", "wheelchair": "nan", "wikidata": "nan", "wikipedia": "nan", "alt_name": "nan", "fence_type": "nan", "fee": "nan", "start_date": "nan", "email": "nan", "operator": "nan", "toilets:wheelchair": "nan", "note": "Esta área corresponde à UEU 4014 definida pela prefeitura, e não à propriedada da UFRGS, que é maior (cf. http://mapa.ufrgs.br)", "short_name": "nan", "contact:phone": "nan", "contact:website": "nan", "loc_name": "nan", "opening_hours": "nan", "fixme": "nan", "acronym": "nan", "fax": "nan", "source": "nan", "operator:type": "nan", "contact:email": "nan", "ways": [ 356395553, 500493080, 500493134, 500493502, 319871838, 319871836, 318101654, 546725499, 546725500, 125935710 ], "type": "multipolygon", "alt_name_2": "nan", "name:en": "nan", "description": "nan", "internet_access": "nan" }, "geometry": { "type": "Polygon", "coordinates": [ [ [ -51.138635, -30.070309 ], [ -51.1377778, -30.0710903 ], [ -51.136485, -30.07182 ], [ -51.1356172, -30.0721848 ], [ -51.1323835, -30.0732681 ], [ -51.1319461, -30.0733942 ], [ -51.1310784, -30.0734748 ], [ -51.1258806, -30.0738427 ], [ -51.1254274, -30.0739552 ], [ -51.1248302, -30.0742257 ], [ -51.1247974, -30.0741723 ], [ -51.1247604, -30.0741196 ], [ -51.1244461, -30.0736714 ], [ -51.1249396, -30.0734485 ], [ -51.1250568, -30.0733446 ], [ -51.1255601, -30.0730945 ], [ -51.1262396, -30.0726596 ], [ -51.1267918, -30.0720593 ], [ -51.1269758, -30.0717101 ], [ -51.1270822, -30.0709575 ], [ -51.1269769, -30.0705869 ], [ -51.126717, -30.0700611 ], [ -51.1247777, -30.0672784 ], [ -51.1242846, -30.0669329 ], [ -51.1237595, -30.0667533 ], [ -51.1231581, -30.0666947 ], [ -51.1228998, -30.0666873 ], [ -51.1222349, -30.0657564 ], [ -51.1214429, -30.0654375 ], [ -51.120618, -30.0653273 ], [ -51.1205941, -30.0655289 ], [ -51.1202231, -30.065833 ], [ -51.1201193, -30.0663552 ], [ -51.1201167, -30.0667092 ], [ -51.1189044, -30.0672411 ], [ -51.118021, -30.0679575 ], [ -51.1176926, -30.0710505 ], [ -51.1175623, -30.0716773 ], [ -51.1173727, -30.0720343 ], [ -51.1172375, -30.0726066 ], [ -51.1170747, -30.0728826 ], [ -51.1164406, -30.0734796 ], [ -51.1153986, -30.0732952 ], [ -51.1147798, -30.0733863 ], [ -51.114079, -30.0734713 ], [ -51.1134213, -30.0738519 ], [ -51.1130535, -30.0742189 ], [ -51.1125838, -30.0745399 ], [ -51.1120765, -30.0749085 ], [ -51.1118096, -30.0753404 ], [ -51.1109665, -30.0761521 ], [ -51.1103611, -30.0764158 ], [ -51.1098179, -30.0770449 ], [ -51.1096922, -30.077221 ], [ -51.1090952, -30.0780579 ], [ -51.1092849, -30.0781212 ], [ -51.1095734, -30.0782175 ], [ -51.1104654, -30.0786679 ], [ -51.1108067, -30.0789149 ], [ -51.1114609, -30.0797033 ], [ -51.111786, -30.0799746 ], [ -51.1121456, -30.0800734 ], [ -51.1124508, -30.0800676 ], [ -51.1127493, -30.0799926 ], [ -51.1148729, -30.0791133 ], [ -51.1153007, -30.0789362 ], [ -51.1157178, -30.0788402 ], [ -51.1180445, -30.0785792 ], [ -51.1185371, -30.0784455 ], [ -51.1202386, -30.0773912 ], [ -51.1210204, -30.077117 ], [ -51.1231917, -30.0766093 ], [ -51.1243267, -30.0765028 ], [ -51.1246561, -30.0765068 ], [ -51.1247797, -30.0765091 ], [ -51.1249694, -30.0765146 ], [ -51.1250768, -30.0765285 ], [ -51.1263894, -30.076738 ], [ -51.1283023, -30.076779 ], [ -51.1289941, -30.0766754 ], [ -51.1294126, -30.0765766 ], [ -51.1294609, -30.0765652 ], [ -51.1299649, -30.0763994 ], [ -51.1300518, -30.0763507 ], [ -51.1301918, -30.0762771 ], [ -51.130335, -30.0762368 ], [ -51.1318314, -30.0759194 ], [ -51.1326498, -30.0757782 ], [ -51.1330368, -30.0756752 ], [ -51.1339805, -30.0753329 ], [ -51.1344835, -30.0750838 ], [ -51.1372463, -30.073573 ], [ -51.1376974, -30.0732772 ], [ -51.1425012, -30.0694895 ], [ -51.1432102, -30.0690632 ], [ -51.1428804, -30.0684206 ], [ -51.1421817, -30.0686488 ], [ -51.1412137, -30.069178 ], [ -51.1394185, -30.0698681 ], [ -51.138635, -30.070309 ] ], [ [ -51.119179, -30.0719149 ], [ -51.1193863, -30.072298 ], [ -51.1189743, -30.0724762 ], [ -51.1187635, -30.0720758 ], [ -51.119179, -30.0719149 ] ], [ [ -51.1199798, -30.0718621 ], [ -51.1197253, -30.071969 ], [ -51.1195127, -30.0715607 ], [ -51.1196202, -30.0715187 ], [ -51.1193847, -30.0711348 ], [ -51.1195242, -30.071075 ], [ -51.1195777, -30.0711627 ], [ -51.1198825, -30.0710465 ], [ -51.1202867, -30.0717282 ], [ -51.1199798, -30.0718621 ] ], [ [ -51.1229554, -30.0762987 ], [ -51.1221481, -30.0766508 ], [ -51.1215267, -30.0769218 ], [ -51.1210851, -30.0761159 ], [ -51.1221923, -30.0756265 ], [ -51.1223036, -30.0756184 ], [ -51.1225409, -30.0755153 ], [ -51.1227287, -30.0754304 ], [ -51.1228441, -30.0753469 ], [ -51.1230754, -30.0752426 ], [ -51.1235377, -30.075038 ], [ -51.1237016, -30.0753048 ], [ -51.1240248, -30.0758323 ], [ -51.1229554, -30.0762987 ] ] ] } },
{ "type": "Feature", "properties": { "element_type": "relation", "osmid": "6211615", "barrier": "nan", "amenity": "university", "name": "Instituto Federal do Rio Grande do Sul", "website": "https://www.poa.ifrs.edu.br/", "addr:city": "Porto Alegre", "addr:housenumber": "281", "addr:postcode": "90030-041", "addr:street": "Rua Coronel Vicente", "addr:suburb": "Centro Histórico", "phone": "+55 51 3930-6002", "nodes": [ [ [ 2645408843, 2645408844, 2645408845, 3243618813, 3243618815, 4410583055, 3243618814, 2645408846, 3243618812, 2645408843 ], [ 4184257819, 4184257821, 4184257820, 4184257816, 4184257815, 4184257818, 4184257817, 4184257833, 4184257834, 4184257835, 4184257836, 4184257840, 4184257841, 4184257842, 4184257837, 4184257838, 4184257844, 4184257845, 4184257843, 4184257839, 4184257832, 4184257831, 4184257826, 4184257825, 4184257823, 4184257822, 4184257819 ], [ 4184257828, 4184257830, 4184257829, 4184257827, 4184257824, 4184257828 ] ] ], "alt_ref": "nan", "building": "yes", "building:levels": "nan", "official_name": "nan", "ref": "nan", "height": "nan", "wheelchair": "yes", "wikidata": "Q7335253", "wikipedia": "en:Federal Institute of Rio Grande do Sul", "alt_name": "IFRS Campus Porto Alegre", "fence_type": "nan", "fee": "nan", "start_date": "nan", "email": "nan", "operator": "nan", "toilets:wheelchair": "nan", "note": "nan", "short_name": "nan", "contact:phone": "nan", "contact:website": "nan", "loc_name": "nan", "opening_hours": "nan", "fixme": "nan", "acronym": "nan", "fax": "nan", "source": "Site Institucional", "operator:type": "nan", "contact:email": "nan", "ways": [ 259185263, 417957039, 417957040 ], "type": "multipolygon", "alt_name_2": "nan", "name:en": "nan", "description": "Instituto Federal de Educação, Ciência e Tecnologia do Rio Grande do Sul - Campus Porto Alegre", "internet_access": "nan" }, "geometry": { "type": "MultiPolygon", "coordinates": [ [ [ [ -51.2218237, -30.0261845 ], [ -51.2217479, -30.0261652 ], [ -51.2217623, -30.0261222 ], [ -51.2216276, -30.0260879 ], [ -51.2216127, -30.0261321 ], [ -51.2215759, -30.0261228 ], [ -51.2214863, -30.0263914 ], [ -51.2215296, -30.0264017 ], [ -51.2215253, -30.0264156 ], [ -51.2215456, -30.0264202 ], [ -51.221614, -30.0264365 ], [ -51.2216613, -30.0264482 ], [ -51.2217311, -30.0264691 ], [ -51.221742, -30.0264312 ], [ -51.2218359, -30.0264322 ], [ -51.2218337, -30.0264772 ], [ -51.2220669, -30.0264793 ], [ -51.2220673, -30.0264736 ], [ -51.2220709, -30.0264356 ], [ -51.2220781, -30.0263602 ], [ -51.2220798, -30.0263416 ], [ -51.222084, -30.0262979 ], [ -51.2220856, -30.026281 ], [ -51.2220917, -30.026216 ], [ -51.2220927, -30.0262053 ], [ -51.2218385, -30.0261405 ], [ -51.2218237, -30.0261845 ] ], [ [ -51.2219445, -30.02633 ], [ -51.2217894, -30.0263285 ], [ -51.2217039, -30.0263078 ], [ -51.2217179, -30.0262642 ], [ -51.2219484, -30.0263201 ], [ -51.2219445, -30.02633 ] ] ], [ [ [ -51.2214546, -30.0264801 ], [ -51.2215998, -30.026049 ], [ -51.2212208, -30.0259495 ], [ -51.2210615, -30.0263698 ], [ -51.2210619, -30.0264162 ], [ -51.2210707, -30.0264314 ], [ -51.2210864, -30.0264485 ], [ -51.2211296, -30.0264643 ], [ -51.2211867, -30.0264729 ], [ -51.2214546, -30.0264801 ] ] ] ] } },
{ "type": "Feature", "properties": { "element_type": "relation", "osmid": "9803991", "barrier": "nan", "amenity": "university", "name": "Cesuca Faculdade Inedi", "website": "http://www.cesuca.edu.br", "addr:city": "Cachoeirinha", "addr:housenumber": "160", "addr:postcode": "94940-243", "addr:street": "Rua Silvério Manoel da Silva", "addr:suburb": "Bairro Colinas", "phone": "nan", "nodes": [ [ [ 6622009766, 6622009764, 6622009765 ], [ 6622009765, 6622009767, 6622009768, 6622009766 ] ] ], "alt_ref": "nan", "building": "civic", "building:levels": "nan", "official_name": "nan", "ref": "nan", "height": "nan", "wheelchair": "nan", "wikidata": "nan", "wikipedia": "nan", "alt_name": "nan", "fence_type": "nan", "fee": "nan", "start_date": "nan", "email": "nan", "operator": "nan", "toilets:wheelchair": "nan", "note": "nan", "short_name": "nan", "contact:phone": "nan", "contact:website": "nan", "loc_name": "nan", "opening_hours": "nan", "fixme": "nan", "acronym": "nan", "fax": "nan", "source": "nan", "operator:type": "nan", "contact:email": "nan", "ways": [ 705048096, 705048097 ], "type": "multipolygon", "alt_name_2": "nan", "name:en": "nan", "description": "nan", "internet_access": "yes" }, "geometry": { "type": "Polygon", "coordinates": [ [ [ -51.0820973, -29.9350938 ], [ -51.0819413, -29.9349963 ], [ -51.0815344, -29.935485 ], [ -51.0819505, -29.9357452 ], [ -51.0823639, -29.9352669 ], [ -51.0820973, -29.9350938 ] ] ] } }
]
}
