{
"type": "FeatureCollection",
"crs": { "type": "name", "properties": { "name": "urn:ogc:def:crs:OGC:1.3:CRS84" } },
"features": [
{ "type": "Feature", "properties": { "element_type": "node", "osmid": "476647429", "addr:city": "Porto Alegre", "addr:housenumber": "400", "addr:postcode": "90420-020", "addr:street": "Rua Professor Álvaro Alvim", "addr:suburb": "Rio Branco", "amenity": "hospital", "healthcare": "hospital", "name": "Unidade Álvaro Alvim - HCPA", "operator": "Hospital de Clínicas de Porto Alegre", "ref:CNES": "7145594", "ref:vatin": "BR87020517000201", "emergency": "nan", "phone": "nan", "website": "nan", "name:en": "nan", "alt_name": "nan", "fixme": "nan", "official_name": "nan", "operator:ref:vatin": "nan", "start_date": "nan", "wheelchair": "nan", "wikidata": "nan", "wikipedia": "nan", "short_name": "nan", "barrier": "nan", "opening_hours": "nan", "note": "nan", "nodes": "nan", "building": "nan", "height": "nan", "ref": "nan", "wall": "nan", "healthcare:speciality": "nan", "loc_name": "nan", "contact:facebook": "nan", "contact:instagram": "nan", "toilets:wheelchair": "nan", "contact:phone": "nan", "contact:website": "nan", "building:levels": "nan", "operator:type": "nan", "email": "nan", "description": "nan", "fence_type": "nan", "aeroway": "nan", "ways": "nan", "type": "nan" }, "geometry": { "type": "Point", "coordinates": [ -51.1982455, -30.037137 ] } },
{ "type": "Feature", "properties": { "element_type": "node", "osmid": "1423330153", "addr:city": "nan", "addr:housenumber": "569", "addr:postcode": "90470-340", "addr:street": "Avenida Soledade", "addr:suburb": "Três Figueiras", "amenity": "hospital", "healthcare": "hospital", "name": "MedCenter", "operator": "nan", "ref:CNES": "3019721", "ref:vatin": "BR88625686003849", "emergency": "yes", "phone": "+55 51 3378 9999", "website": "https://www.medcenter.com.br/", "name:en": "nan", "alt_name": "nan", "fixme": "nan", "official_name": "nan", "operator:ref:vatin": "nan", "start_date": "nan", "wheelchair": "nan", "wikidata": "nan", "wikipedia": "nan", "short_name": "nan", "barrier": "nan", "opening_hours": "nan", "note": "nan", "nodes": "nan", "building": "nan", "height": "nan", "ref": "nan", "wall": "nan", "healthcare:speciality": "nan", "loc_name": "nan", "contact:facebook": "nan", "contact:instagram": "nan", "toilets:wheelchair": "nan", "contact:phone": "nan", "contact:website": "nan", "building:levels": "nan", "operator:type": "nan", "email": "nan", "description": "nan", "fence_type": "nan", "aeroway": "nan", "ways": "nan", "type": "nan" }, "geometry": { "type": "Point", "coordinates": [ -51.1781895, -30.0327042 ] } },
{ "type": "Feature", "properties": { "element_type": "node", "osmid": "1655890955", "addr:city": "Gravataí", "addr:housenumber": "1561", "addr:postcode": "nan", "addr:street": "Avenida José Loureiro da Silva", "addr:suburb": "Centro", "amenity": "hospital", "healthcare": "hospital", "name": "Hospital Dom João Becker", "operator": "nan", "ref:CNES": "2232049", "ref:vatin": "BR92815000000834", "emergency": "yes", "phone": "nan", "website": "nan", "name:en": "nan", "alt_name": "nan", "fixme": "nan", "official_name": "nan", "operator:ref:vatin": "nan", "start_date": "nan", "wheelchair": "nan", "wikidata": "nan", "wikipedia": "nan", "short_name": "nan", "barrier": "nan", "opening_hours": "nan", "note": "nan", "nodes": "nan", "building": "nan", "height": "nan", "ref": "nan", "wall": "nan", "healthcare:speciality": "nan", "loc_name": "nan", "contact:facebook": "nan", "contact:instagram": "nan", "toilets:wheelchair": "nan", "contact:phone": "nan", "contact:website": "nan", "building:levels": "nan", "operator:type": "nan", "email": "nan", "description": "nan", "fence_type": "nan", "aeroway": "nan", "ways": "nan", "type": "nan" }, "geometry": { "type": "Point", "coordinates": [ -50.9942116, -29.9405466 ] } },
{ "type": "Feature", "properties": { "element_type": "node", "osmid": "1655891063", "addr:city": "nan", "addr:housenumber": "nan", "addr:postcode": "nan", "addr:street": "nan", "addr:suburb": "nan", "amenity": "hospital", "healthcare": "hospital", "name": "Clínica Solaris", "operator": "nan", "ref:CNES": "nan", "ref:vatin": "nan", "emergency": "yes", "phone": "nan", "website": "nan", "name:en": "nan", "alt_name": "nan", "fixme": "nan", "official_name": "nan", "operator:ref:vatin": "nan", "start_date": "nan", "wheelchair": "nan", "wikidata": "nan", "wikipedia": "nan", "short_name": "nan", "barrier": "nan", "opening_hours": "nan", "note": "nan", "nodes": "nan", "building": "nan", "height": "nan", "ref": "nan", "wall": "nan", "healthcare:speciality": "nan", "loc_name": "nan", "contact:facebook": "nan", "contact:instagram": "nan", "toilets:wheelchair": "nan", "contact:phone": "nan", "contact:website": "nan", "building:levels": "nan", "operator:type": "nan", "email": "nan", "description": "nan", "fence_type": "nan", "aeroway": "nan", "ways": "nan", "type": "nan" }, "geometry": { "type": "Point", "coordinates": [ -50.9951397, -29.9464826 ] } },
{ "type": "Feature", "properties": { "element_type": "node", "osmid": "1799049993", "addr:city": "nan", "addr:housenumber": "nan", "addr:postcode": "nan", "addr:street": "nan", "addr:suburb": "nan", "amenity": "hospital", "healthcare": "nan", "name": "nan", "operator": "nan", "ref:CNES": "nan", "ref:vatin": "nan", "emergency": "nan", "phone": "nan", "website": "nan", "name:en": "nan", "alt_name": "nan", "fixme": "nan", "official_name": "nan", "operator:ref:vatin": "nan", "start_date": "nan", "wheelchair": "nan", "wikidata": "nan", "wikipedia": "nan", "short_name": "nan", "barrier": "nan", "opening_hours": "nan", "note": "nan", "nodes": "nan", "building": "nan", "height": "nan", "ref": "nan", "wall": "nan", "healthcare:speciality": "nan", "loc_name": "nan", "contact:facebook": "nan", "contact:instagram": "nan", "toilets:wheelchair": "nan", "contact:phone": "nan", "contact:website": "nan", "building:levels": "nan", "operator:type": "nan", "email": "nan", "description": "nan", "fence_type": "nan", "aeroway": "nan", "ways": "nan", "type": "nan" }, "geometry": { "type": "Point", "coordinates": [ -51.0196178, -29.932703 ] } },
{ "type": "Feature", "properties": { "element_type": "node", "osmid": "2087827552", "addr:city": "nan", "addr:housenumber": "651", "addr:postcode": "90040-000", "addr:street": "Avenida João Pessoa", "addr:suburb": "nan", "amenity": "hospital", "healthcare": "hospital", "name": "Policlínica Militar de Porto Alegre", "operator": "nan", "ref:CNES": "915742", "ref:vatin": "BR09544774000158", "emergency": "nan", "phone": "nan", "website": "nan", "name:en": "Porto Alegre's Military Policlininc", "alt_name": "nan", "fixme": "nan", "official_name": "nan", "operator:ref:vatin": "nan", "start_date": "nan", "wheelchair": "nan", "wikidata": "nan", "wikipedia": "nan", "short_name": "nan", "barrier": "nan", "opening_hours": "nan", "note": "nan", "nodes": "nan", "building": "nan", "height": "nan", "ref": "nan", "wall": "nan", "healthcare:speciality": "nan", "loc_name": "nan", "contact:facebook": "nan", "contact:instagram": "nan", "toilets:wheelchair": "nan", "contact:phone": "nan", "contact:website": "nan", "building:levels": "nan", "operator:type": "nan", "email": "nan", "description": "nan", "fence_type": "nan", "aeroway": "nan", "ways": "nan", "type": "nan" }, "geometry": { "type": "Point", "coordinates": [ -51.2197265, -30.0380214 ] } },
{ "type": "Feature", "properties": { "element_type": "node", "osmid": "2109202117", "addr:city": "nan", "addr:housenumber": "nan", "addr:postcode": "nan", "addr:street": "nan", "addr:suburb": "nan", "amenity": "hospital", "healthcare": "hospital", "name": "Hospital de Pronto Atendimento", "operator": "nan", "ref:CNES": "nan", "ref:vatin": "nan", "emergency": "yes", "phone": "nan", "website": "nan", "name:en": "nan", "alt_name": "nan", "fixme": "nan", "official_name": "nan", "operator:ref:vatin": "nan", "start_date": "nan", "wheelchair": "nan", "wikidata": "nan", "wikipedia": "nan", "short_name": "nan", "barrier": "nan", "opening_hours": "nan", "note": "nan", "nodes": "nan", "building": "nan", "height": "nan", "ref": "nan", "wall": "nan", "healthcare:speciality": "nan", "loc_name": "nan", "contact:facebook": "nan", "contact:instagram": "nan", "toilets:wheelchair": "nan", "contact:phone": "nan", "contact:website": "nan", "building:levels": "nan", "operator:type": "nan", "email": "nan", "description": "nan", "fence_type": "nan", "aeroway": "nan", "ways": "nan", "type": "nan" }, "geometry": { "type": "Point", "coordinates": [ -51.3311628, -30.1136549 ] } },
{ "type": "Feature", "properties": { "element_type": "node", "osmid": "2274207744", "addr:city": "nan", "addr:housenumber": "155", "addr:postcode": "91900-590", "addr:street": "Rua Doutor Castro de Menezes", "addr:suburb": "Cristal", "amenity": "hospital", "healthcare": "hospital", "name": "Hospital da Brigada Militar de Porto Alegre", "operator": "nan", "ref:CNES": "2237156", "ref:vatin": "nan", "emergency": "nan", "phone": "+55 51 3288-3500", "website": "nan", "name:en": "Military Hospital", "alt_name": "HBM-PA", "fixme": "Detalhar como poligonos.", "official_name": "Hospital da Brigada Militar de Porto Alegre", "operator:ref:vatin": "BR87934675000196", "start_date": "1971", "wheelchair": "yes", "wikidata": "Q10298510", "wikipedia": "pt:Hospital da Brigada Militar de Porto Alegre", "short_name": "nan", "barrier": "nan", "opening_hours": "nan", "note": "nan", "nodes": "nan", "building": "nan", "height": "nan", "ref": "nan", "wall": "nan", "healthcare:speciality": "nan", "loc_name": "nan", "contact:facebook": "nan", "contact:instagram": "nan", "toilets:wheelchair": "nan", "contact:phone": "nan", "contact:website": "nan", "building:levels": "nan", "operator:type": "nan", "email": "nan", "description": "nan", "fence_type": "nan", "aeroway": "nan", "ways": "nan", "type": "nan" }, "geometry": { "type": "Point", "coordinates": [ -51.2508517, -30.0982586 ] } },
{ "type": "Feature", "properties": { "element_type": "node", "osmid": "2453603605", "addr:city": "nan", "addr:housenumber": "nan", "addr:postcode": "nan", "addr:street": "nan", "addr:suburb": "nan", "amenity": "hospital", "healthcare": "hospital", "name": "Hospital Viamão", "operator": "nan", "ref:CNES": "nan", "ref:vatin": "nan", "emergency": "yes", "phone": "nan", "website": "nan", "name:en": "nan", "alt_name": "nan", "fixme": "nan", "official_name": "nan", "operator:ref:vatin": "nan", "start_date": "nan", "wheelchair": "nan", "wikidata": "nan", "wikipedia": "nan", "short_name": "nan", "barrier": "nan", "opening_hours": "nan", "note": "nan", "nodes": "nan", "building": "nan", "height": "nan", "ref": "nan", "wall": "nan", "healthcare:speciality": "nan", "loc_name": "nan", "contact:facebook": "nan", "contact:instagram": "nan", "toilets:wheelchair": "nan", "contact:phone": "nan", "contact:website": "nan", "building:levels": "nan", "operator:type": "nan", "email": "nan", "description": "nan", "fence_type": "nan", "aeroway": "nan", "ways": "nan", "type": "nan" }, "geometry": { "type": "Point", "coordinates": [ -51.030212, -30.0812182 ] } },
{ "type": "Feature", "properties": { "element_type": "node", "osmid": "2505033434", "addr:city": "nan", "addr:housenumber": "470", "addr:postcode": "nan", "addr:street": "Avenida José Garibaldi", "addr:suburb": "nan", "amenity": "hospital", "healthcare": "hospital", "name": "Unidade de Referência Secundária Centro", "operator": "nan", "ref:CNES": "nan", "ref:vatin": "nan", "emergency": "nan", "phone": "nan", "website": "nan", "name:en": "nan", "alt_name": "nan", "fixme": "nan", "official_name": "nan", "operator:ref:vatin": "nan", "start_date": "nan", "wheelchair": "nan", "wikidata": "nan", "wikipedia": "nan", "short_name": "URS Centro", "barrier": "nan", "opening_hours": "nan", "note": "nan", "nodes": "nan", "building": "nan", "height": "nan", "ref": "nan", "wall": "nan", "healthcare:speciality": "nan", "loc_name": "nan", "contact:facebook": "nan", "contact:instagram": "nan", "toilets:wheelchair": "nan", "contact:phone": "nan", "contact:website": "nan", "building:levels": "nan", "operator:type": "nan", "email": "nan", "description": "nan", "fence_type": "nan", "aeroway": "nan", "ways": "nan", "type": "nan" }, "geometry": { "type": "Point", "coordinates": [ -51.0220775, -30.0807837 ] } },
{ "type": "Feature", "properties": { "element_type": "node", "osmid": "5261257045", "addr:city": "nan", "addr:housenumber": "nan", "addr:postcode": "nan", "addr:street": "nan", "addr:suburb": "nan", "amenity": "hospital", "healthcare": "hospital", "name": "HOSPITAL NOSSA SENHORA DO LIVRAMENTO", "operator": "nan", "ref:CNES": "nan", "ref:vatin": "nan", "emergency": "nan", "phone": "nan", "website": "nan", "name:en": "nan", "alt_name": "nan", "fixme": "nan", "official_name": "nan", "operator:ref:vatin": "nan", "start_date": "nan", "wheelchair": "nan", "wikidata": "nan", "wikipedia": "nan", "short_name": "nan", "barrier": "nan", "opening_hours": "nan", "note": "nan", "nodes": "nan", "building": "nan", "height": "nan", "ref": "nan", "wall": "nan", "healthcare:speciality": "nan", "loc_name": "nan", "contact:facebook": "nan", "contact:instagram": "nan", "toilets:wheelchair": "nan", "contact:phone": "nan", "contact:website": "nan", "building:levels": "nan", "operator:type": "nan", "email": "nan", "description": "nan", "fence_type": "nan", "aeroway": "nan", "ways": "nan", "type": "nan" }, "geometry": { "type": "Point", "coordinates": [ -51.3165439, -30.1098798 ] } },
{ "type": "Feature", "properties": { "element_type": "node", "osmid": "5646351921", "addr:city": "nan", "addr:housenumber": "nan", "addr:postcode": "94475-000", "addr:street": "nan", "addr:suburb": "nan", "amenity": "hospital", "healthcare": "nan", "name": "UPA 24Horas", "operator": "nan", "ref:CNES": "nan", "ref:vatin": "nan", "emergency": "nan", "phone": "+55 51 3493-4438", "website": "nan", "name:en": "nan", "alt_name": "nan", "fixme": "nan", "official_name": "nan", "operator:ref:vatin": "nan", "start_date": "nan", "wheelchair": "nan", "wikidata": "nan", "wikipedia": "nan", "short_name": "nan", "barrier": "nan", "opening_hours": "24/7", "note": "nan", "nodes": "nan", "building": "nan", "height": "nan", "ref": "nan", "wall": "nan", "healthcare:speciality": "nan", "loc_name": "nan", "contact:facebook": "nan", "contact:instagram": "nan", "toilets:wheelchair": "nan", "contact:phone": "nan", "contact:website": "nan", "building:levels": "nan", "operator:type": "nan", "email": "nan", "description": "nan", "fence_type": "nan", "aeroway": "nan", "ways": "nan", "type": "nan" }, "geometry": { "type": "Point", "coordinates": [ -51.098629, -30.0820023 ] } },
{ "type": "Feature", "properties": { "element_type": "node", "osmid": "6111929517", "addr:city": "nan", "addr:housenumber": "175", "addr:postcode": "91720-440", "addr:street": "Praça Simões Lopes Neto", "addr:suburb": "Teresópolis", "amenity": "hospital", "healthcare": "hospital", "name": "Hospital Santa Ana", "operator": "Sistema de Saúde Mãe de Deus", "ref:CNES": "6295320", "ref:vatin": "BR88625686000742", "emergency": "yes", "phone": "+55 51 3317-8142", "website": "https://www.maededeus.com.br/", "name:en": "nan", "alt_name": "nan", "fixme": "nan", "official_name": "nan", "operator:ref:vatin": "nan", "start_date": "nan", "wheelchair": "nan", "wikidata": "nan", "wikipedia": "nan", "short_name": "nan", "barrier": "nan", "opening_hours": "nan", "note": "Em área do Hospital Espírita", "nodes": "nan", "building": "nan", "height": "nan", "ref": "nan", "wall": "nan", "healthcare:speciality": "nan", "loc_name": "nan", "contact:facebook": "nan", "contact:instagram": "nan", "toilets:wheelchair": "nan", "contact:phone": "nan", "contact:website": "nan", "building:levels": "nan", "operator:type": "nan", "email": "nan", "description": "nan", "fence_type": "nan", "aeroway": "nan", "ways": "nan", "type": "nan" }, "geometry": { "type": "Point", "coordinates": [ -51.2065358, -30.0870671 ] } },
{ "type": "Feature", "properties": { "element_type": "node", "osmid": "8361046479", "addr:city": "Canoas", "addr:housenumber": "600", "addr:postcode": "92200-352", "addr:street": "Rua Cairú", "addr:suburb": "nan", "amenity": "hospital", "healthcare": "hospital", "name": "UPA24H Rio Branco", "operator": "nan", "ref:CNES": "7054254", "ref:vatin": "nan", "emergency": "nan", "phone": "+55 51 3415 4500", "website": "nan", "name:en": "nan", "alt_name": "nan", "fixme": "nan", "official_name": "nan", "operator:ref:vatin": "BR88577416000118", "start_date": "nan", "wheelchair": "nan", "wikidata": "nan", "wikipedia": "nan", "short_name": "nan", "barrier": "nan", "opening_hours": "nan", "note": "nan", "nodes": "nan", "building": "nan", "height": "nan", "ref": "nan", "wall": "nan", "healthcare:speciality": "nan", "loc_name": "nan", "contact:facebook": "nan", "contact:instagram": "nan", "toilets:wheelchair": "nan", "contact:phone": "nan", "contact:website": "nan", "building:levels": "nan", "operator:type": "nan", "email": "nan", "description": "nan", "fence_type": "nan", "aeroway": "nan", "ways": "nan", "type": "nan" }, "geometry": { "type": "Point", "coordinates": [ -51.1808592, -29.9526632 ] } },
{ "type": "Feature", "properties": { "element_type": "node", "osmid": "11140018705", "addr:city": "nan", "addr:housenumber": "nan", "addr:postcode": "nan", "addr:street": "nan", "addr:suburb": "nan", "amenity": "hospital", "healthcare": "nan", "name": "SAMU", "operator": "nan", "ref:CNES": "nan", "ref:vatin": "nan", "emergency": "nan", "phone": "nan", "website": "nan", "name:en": "nan", "alt_name": "nan", "fixme": "nan", "official_name": "nan", "operator:ref:vatin": "nan", "start_date": "nan", "wheelchair": "nan", "wikidata": "nan", "wikipedia": "nan", "short_name": "nan", "barrier": "nan", "opening_hours": "nan", "note": "nan", "nodes": "nan", "building": "nan", "height": "nan", "ref": "nan", "wall": "nan", "healthcare:speciality": "nan", "loc_name": "nan", "contact:facebook": "nan", "contact:instagram": "nan", "toilets:wheelchair": "nan", "contact:phone": "nan", "contact:website": "nan", "building:levels": "nan", "operator:type": "nan", "email": "nan", "description": "nan", "fence_type": "nan", "aeroway": "nan", "ways": "nan", "type": "nan" }, "geometry": { "type": "Point", "coordinates": [ -51.2318075, -30.0978609 ] } },
{ "type": "Feature", "properties": { "element_type": "way", "osmid": "81032255", "addr:city": "nan", "addr:housenumber": "nan", "addr:postcode": "nan", "addr:street": "nan", "addr:suburb": "nan", "amenity": "hospital", "healthcare": "hospital", "name": "Hospital de Alvorada", "operator": "nan", "ref:CNES": "nan", "ref:vatin": "nan", "emergency": "nan", "phone": "nan", "website": "nan", "name:en": "nan", "alt_name": "nan", "fixme": "nan", "official_name": "nan", "operator:ref:vatin": "nan", "start_date": "nan", "wheelchair": "nan", "wikidata": "nan", "wikipedia": "nan", "short_name": "nan", "barrier": "nan", "opening_hours": "nan", "note": "nan", "nodes": [ 944590272, 944590273, 4122190417, 4122190415, 4122190414, 944590274, 944590275, 944590276, 944590277, 944590272 ], "building": "nan", "height": "nan", "ref": "nan", "wall": "nan", "healthcare:speciality": "nan", "loc_name": "nan", "contact:facebook": "nan", "contact:instagram": "nan", "toilets:wheelchair": "nan", "contact:phone": "nan", "contact:website": "nan", "building:levels": "nan", "operator:type": "nan", "email": "nan", "description": "nan", "fence_type": "nan", "aeroway": "nan", "ways": "nan", "type": "nan" }, "geometry": { "type": "Polygon", "coordinates": [ [ [ -51.0739192, -30.0086721 ], [ -51.0739293, -30.0085249 ], [ -51.0739636, -30.0085272 ], [ -51.0743451, -30.0085511 ], [ -51.0743968, -30.0085546 ], [ -51.0746948, -30.0085791 ], [ -51.0747, -30.0085285 ], [ -51.0748074, -30.0085367 ], [ -51.0747869, -30.0087382 ], [ -51.0739192, -30.0086721 ] ] ] } },
{ "type": "Feature", "properties": { "element_type": "way", "osmid": "126014194", "addr:city": "nan", "addr:housenumber": "nan", "addr:postcode": "nan", "addr:street": "nan", "addr:suburb": "nan", "amenity": "hospital", "healthcare": "hospital", "name": "Santa Casa de Misericórdia", "operator": "nan", "ref:CNES": "nan", "ref:vatin": "nan", "emergency": "yes", "phone": "nan", "website": "https://www.santacasa.org.br/", "name:en": "Santa Casa de Misericordia Hospital", "alt_name": "nan", "fixme": "nan", "official_name": "nan", "operator:ref:vatin": "nan", "start_date": "nan", "wheelchair": "nan", "wikidata": "Q678520", "wikipedia": "en:Santa Casa de Misericordia Hospital", "short_name": "nan", "barrier": "nan", "opening_hours": "nan", "note": "nan", "nodes": [ 1398057117, 2603619963, 2603619962, 7820120389, 7820120390, 7820120391, 7820120392, 7820120393, 7820120394, 7820120395, 3552625299, 7820120398, 7819917153, 3552625301, 1398057070, 7820112374, 7820112373, 1398057106, 1398057053, 1398057039, 2603619926, 1398057043, 1398057081, 1786936180, 3244510680, 9923611132, 1398057097, 3230347511, 3230347510, 1398057111, 1398057117 ], "building": "nan", "height": "nan", "ref": "nan", "wall": "nan", "healthcare:speciality": "nan", "loc_name": "nan", "contact:facebook": "nan", "contact:instagram": "nan", "toilets:wheelchair": "nan", "contact:phone": "nan", "contact:website": "nan", "building:levels": "nan", "operator:type": "nan", "email": "nan", "description": "nan", "fence_type": "nan", "aeroway": "nan", "ways": "nan", "type": "nan" }, "geometry": { "type": "Polygon", "coordinates": [ [ [ -51.222277, -30.0317666 ], [ -51.22053, -30.0321013 ], [ -51.2203995, -30.031931 ], [ -51.2205267, -30.0318693 ], [ -51.2206531, -30.031808 ], [ -51.220827, -30.0317236 ], [ -51.2208639, -30.0317057 ], [ -51.2208942, -30.031691 ], [ -51.2209283, -30.0316745 ], [ -51.220979, -30.0316499 ], [ -51.2210682, -30.0316066 ], [ -51.2214392, -30.0314122 ], [ -51.2215615, -30.0313481 ], [ -51.2214599, -30.0312363 ], [ -51.2210343, -30.0308066 ], [ -51.2205074, -30.0310966 ], [ -51.2202466, -30.0312307 ], [ -51.2200086, -30.0313574 ], [ -51.2194812, -30.0305245 ], [ -51.2195004, -30.0296274 ], [ -51.2209045, -30.0296633 ], [ -51.2215886, -30.0296831 ], [ -51.2232738, -30.0307742 ], [ -51.2232896, -30.0308024 ], [ -51.2233328, -30.0308794 ], [ -51.2233891, -30.0310244 ], [ -51.2233919, -30.0310317 ], [ -51.2234176, -30.031157 ], [ -51.223427, -30.0314016 ], [ -51.2234036, -30.0315451 ], [ -51.222277, -30.0317666 ] ] ] } },
{ "type": "Feature", "properties": { "element_type": "way", "osmid": "126014206", "addr:city": "Porto Alegre", "addr:housenumber": "2350", "addr:postcode": "90035-903", "addr:street": "Rua Ramiro Barcelos", "addr:suburb": "Santa Cecília", "amenity": "hospital", "healthcare": "hospital", "name": "Hospital de Clínicas", "operator": "nan", "ref:CNES": "2237601", "ref:vatin": "BR87020517000120", "emergency": "yes", "phone": "+55 51 3359-8000", "website": "https://www.hcpa.ufrgs.br/", "name:en": "nan", "alt_name": "nan", "fixme": "nan", "official_name": "Hospital de Clínicas de Porto Alegre", "operator:ref:vatin": "nan", "start_date": "nan", "wheelchair": "limited", "wikidata": "nan", "wikipedia": "nan", "short_name": "HCPA", "barrier": "nan", "opening_hours": "24/7", "note": "nan", "nodes": [ 1398058311, 9923644663, 9923644664, 1398058461, 1398058555, 1398058551, 9923644665, 9923644662, 7733123961, 7733123960, 1398058610, 1398058585, 1398058565, 1398058537, 1398058311 ], "building": "hospital", "height": "12", "ref": "21110", "wall": "nan", "healthcare:speciality": "nan", "loc_name": "nan", "contact:facebook": "nan", "contact:instagram": "nan", "toilets:wheelchair": "nan", "contact:phone": "nan", "contact:website": "nan", "building:levels": "nan", "operator:type": "nan", "email": "nan", "description": "nan", "fence_type": "nan", "aeroway": "nan", "ways": "nan", "type": "nan" }, "geometry": { "type": "Polygon", "coordinates": [ [ [ -51.2065089, -30.0377975 ], [ -51.2071031, -30.0381342 ], [ -51.2073014, -30.0382418 ], [ -51.2076271, -30.0384312 ], [ -51.2070194, -30.0392153 ], [ -51.2067033, -30.0390391 ], [ -51.2064253, -30.0393789 ], [ -51.2064164, -30.0393899 ], [ -51.2063675, -30.0394496 ], [ -51.2063192, -30.0394217 ], [ -51.2061232, -30.0396655 ], [ -51.2059445, -30.0395549 ], [ -51.2061983, -30.0392585 ], [ -51.205619, -30.0389256 ], [ -51.2065089, -30.0377975 ] ] ] } },
{ "type": "Feature", "properties": { "element_type": "way", "osmid": "132023531", "addr:city": "nan", "addr:housenumber": "450", "addr:postcode": "90440-190", "addr:street": "Avenida Mariland", "addr:suburb": "nan", "amenity": "hospital", "healthcare": "hospital", "name": "Hospital Militar de Área de Porto Alegre", "operator": "nan", "ref:CNES": "7989954", "ref:vatin": "BR10360293000252", "emergency": "nan", "phone": "+55 51 2111-8570", "website": "http://www.hmapa.eb.mil.br/", "name:en": "nan", "alt_name": "nan", "fixme": "nan", "official_name": "nan", "operator:ref:vatin": "BR10360293000171", "start_date": "nan", "wheelchair": "nan", "wikidata": "nan", "wikipedia": "nan", "short_name": "nan", "barrier": "nan", "opening_hours": "nan", "note": "nan", "nodes": [ 1452678752, 1452678746, 1452678747, 1452678749, 1452678750, 1452678752 ], "building": "nan", "height": "nan", "ref": "nan", "wall": "brick", "healthcare:speciality": "nan", "loc_name": "nan", "contact:facebook": "nan", "contact:instagram": "nan", "toilets:wheelchair": "nan", "contact:phone": "nan", "contact:website": "nan", "building:levels": "nan", "operator:type": "nan", "email": "nan", "description": "nan", "fence_type": "nan", "aeroway": "nan", "ways": "nan", "type": "nan" }, "geometry": { "type": "Polygon", "coordinates": [ [ [ -51.194205, -30.0178625 ], [ -51.191516, -30.0177803 ], [ -51.1913618, -30.0191122 ], [ -51.1940389, -30.0194101 ], [ -51.1941102, -30.0185433 ], [ -51.194205, -30.0178625 ] ] ] } },
{ "type": "Feature", "properties": { "element_type": "way", "osmid": "214487562", "addr:city": "nan", "addr:housenumber": "nan", "addr:postcode": "nan", "addr:street": "nan", "addr:suburb": "nan", "amenity": "hospital", "healthcare": "hospital", "name": "Instituto de Cardiologia", "operator": "nan", "ref:CNES": "nan", "ref:vatin": "nan", "emergency": "no", "phone": "nan", "website": "nan", "name:en": "nan", "alt_name": "nan", "fixme": "nan", "official_name": "nan", "operator:ref:vatin": "nan", "start_date": "nan", "wheelchair": "nan", "wikidata": "nan", "wikipedia": "nan", "short_name": "nan", "barrier": "nan", "opening_hours": "nan", "note": "nan", "nodes": [ 2240268414, 2240268424, 2240268422, 2240268416, 2240268421, 2240268414 ], "building": "nan", "height": "nan", "ref": "nan", "wall": "nan", "healthcare:speciality": "cardiology", "loc_name": "Instituto do Coração", "contact:facebook": "nan", "contact:instagram": "nan", "toilets:wheelchair": "nan", "contact:phone": "nan", "contact:website": "nan", "building:levels": "nan", "operator:type": "nan", "email": "nan", "description": "nan", "fence_type": "nan", "aeroway": "nan", "ways": "nan", "type": "nan" }, "geometry": { "type": "Polygon", "coordinates": [ [ [ -51.2089197, -30.048896 ], [ -51.2095417, -30.0492602 ], [ -51.2092898, -30.0495865 ], [ -51.2085146, -30.0495099 ], [ -51.2084969, -30.0494203 ], [ -51.2089197, -30.048896 ] ] ] } },
{ "type": "Feature", "properties": { "element_type": "way", "osmid": "233635165", "addr:city": "Porto Alegre", "addr:housenumber": "286", "addr:postcode": "90880-480", "addr:street": "Rua José de Alencar", "addr:suburb": "Menino Deus", "amenity": "hospital", "healthcare": "hospital", "name": "Hospital Mãe de Deus", "operator": "nan", "ref:CNES": "3007847", "ref:vatin": "BR88625686002443", "emergency": "yes", "phone": "+55 51 3230-6000", "website": "https://www.maededeus.com.br/", "name:en": "nan", "alt_name": "nan", "fixme": "nan", "official_name": "nan", "operator:ref:vatin": "nan", "start_date": "nan", "wheelchair": "yes", "wikidata": "nan", "wikipedia": "pt:Hospital Mãe de Deus", "short_name": "nan", "barrier": "nan", "opening_hours": "24/7", "note": "nan", "nodes": [ 2419887653, 2419887595, 2419887592, 2419887604, 2419887602, 2419887666, 2419887623, 2419887641, 9908924895, 9908924896, 9908924912, 2419887650, 2419887598, 2419887610, 2419887608, 2419887606, 2419887629, 9908924913, 9908924914, 9908924915, 9908924916, 9908977117, 2419887639, 2419887648, 2419887589, 2419887565, 2419887622, 9908977118, 9908924905, 7730769418, 7730769413, 7730769415, 7730769416, 9908924897, 2419887637, 2419887653 ], "building": "hospital", "height": "10", "ref": "nan", "wall": "nan", "healthcare:speciality": "nan", "loc_name": "nan", "contact:facebook": "HospitalMaedeDeus", "contact:instagram": "hospitalmaededeus", "toilets:wheelchair": "yes", "contact:phone": "nan", "contact:website": "nan", "building:levels": "nan", "operator:type": "nan", "email": "nan", "description": "nan", "fence_type": "nan", "aeroway": "nan", "ways": "nan", "type": "nan" }, "geometry": { "type": "Polygon", "coordinates": [ [ [ -51.2287223, -30.0594841 ], [ -51.2286298, -30.05914 ], [ -51.2285272, -30.0591597 ], [ -51.2284736, -30.0589949 ], [ -51.2283978, -30.0590088 ], [ -51.2283448, -30.058694 ], [ -51.2285319, -30.0586554 ], [ -51.2285466, -30.0587111 ], [ -51.2285994, -30.0586997 ], [ -51.228731, -30.0586712 ], [ -51.2290215, -30.0586082 ], [ -51.2290931, -30.0585927 ], [ -51.2291005, -30.0586142 ], [ -51.2291887, -30.058593 ], [ -51.2291978, -30.0586223 ], [ -51.2292504, -30.0586142 ], [ -51.2292598, -30.0586577 ], [ -51.2292818, -30.0586549 ], [ -51.2293019, -30.0586589 ], [ -51.2293151, -30.0586694 ], [ -51.2293233, -30.0586923 ], [ -51.2293395, -30.0586923 ], [ -51.2293513, -30.0586461 ], [ -51.2293439, -30.058588 ], [ -51.2295109, -30.0585724 ], [ -51.2295417, -30.0588231 ], [ -51.2293808, -30.058851 ], [ -51.2293977, -30.0589199 ], [ -51.2294076, -30.0589601 ], [ -51.2294361, -30.0590542 ], [ -51.2293603, -30.0590731 ], [ -51.2293875, -30.059158 ], [ -51.229348, -30.0591655 ], [ -51.2293755, -30.059256 ], [ -51.2293996, -30.0593356 ], [ -51.2287223, -30.0594841 ] ] ] } },
{ "type": "Feature", "properties": { "element_type": "way", "osmid": "233791059", "addr:city": "nan", "addr:housenumber": "55", "addr:postcode": "90040-341", "addr:street": "Rua Jeronimo de Ornellas", "addr:suburb": "Santana", "amenity": "hospital", "healthcare": "hospital", "name": "Centro de Saúde Modelo", "operator": "nan", "ref:CNES": "2264390", "ref:vatin": "nan", "emergency": "nan", "phone": "+55 51 3289-2558", "website": "nan", "name:en": "nan", "alt_name": "nan", "fixme": "nan", "official_name": "nan", "operator:ref:vatin": "BR92963560000160", "start_date": "nan", "wheelchair": "yes", "wikidata": "nan", "wikipedia": "nan", "short_name": "nan", "barrier": "nan", "opening_hours": "Mo-Fr 07:00-22:00", "note": "nan", "nodes": [ 2421258897, 2421258885, 2421258884, 2421258901, 2421258897 ], "building": "nan", "height": "nan", "ref": "nan", "wall": "nan", "healthcare:speciality": "nan", "loc_name": "nan", "contact:facebook": "nan", "contact:instagram": "nan", "toilets:wheelchair": "nan", "contact:phone": "nan", "contact:website": "nan", "building:levels": "nan", "operator:type": "nan", "email": "nan", "description": "nan", "fence_type": "nan", "aeroway": "nan", "ways": "nan", "type": "nan" }, "geometry": { "type": "Polygon", "coordinates": [ [ [ -51.2144019, -30.0434409 ], [ -51.2142328, -30.043665 ], [ -51.2134439, -30.0432187 ], [ -51.213613, -30.0429947 ], [ -51.2144019, -30.0434409 ] ] ] } },
{ "type": "Feature", "properties": { "element_type": "way", "osmid": "233806011", "addr:city": "nan", "addr:housenumber": "nan", "addr:postcode": "nan", "addr:street": "nan", "addr:suburb": "nan", "amenity": "hospital", "healthcare": "hospital", "name": "Hospital Porto Alegre", "operator": "nan", "ref:CNES": "nan", "ref:vatin": "nan", "emergency": "nan", "phone": "+55 51 3228-9344", "website": "http://www.hpa.org.br", "name:en": "nan", "alt_name": "nan", "fixme": "nan", "official_name": "nan", "operator:ref:vatin": "nan", "start_date": "nan", "wheelchair": "nan", "wikidata": "nan", "wikipedia": "nan", "short_name": "nan", "barrier": "nan", "opening_hours": "nan", "note": "nan", "nodes": [ 2421355162, 2421355160, 2421355157, 2421355159, 2421355162 ], "building": "nan", "height": "nan", "ref": "nan", "wall": "nan", "healthcare:speciality": "nan", "loc_name": "nan", "contact:facebook": "nan", "contact:instagram": "nan", "toilets:wheelchair": "nan", "contact:phone": "nan", "contact:website": "nan", "building:levels": "nan", "operator:type": "nan", "email": "nan", "description": "nan", "fence_type": "nan", "aeroway": "nan", "ways": "nan", "type": "nan" }, "geometry": { "type": "Polygon", "coordinates": [ [ [ -51.2171969, -30.0457394 ], [ -51.2164029, -30.045289 ], [ -51.2167994, -30.0447528 ], [ -51.2175754, -30.0452395 ], [ -51.2171969, -30.0457394 ] ] ] } },
{ "type": "Feature", "properties": { "element_type": "way", "osmid": "234811935", "addr:city": "nan", "addr:housenumber": "285", "addr:postcode": "nan", "addr:street": "Rua Engenheiro Walter Boehl", "addr:suburb": "nan", "amenity": "hospital", "healthcare": "hospital", "name": "Hospital Banco de Olhos", "operator": "nan", "ref:CNES": "nan", "ref:vatin": "nan", "emergency": "yes", "phone": "nan", "website": "nan", "name:en": "nan", "alt_name": "nan", "fixme": "nan", "official_name": "nan", "operator:ref:vatin": "nan", "start_date": "nan", "wheelchair": "nan", "wikidata": "nan", "wikipedia": "nan", "short_name": "nan", "barrier": "nan", "opening_hours": "nan", "note": "nan", "nodes": [ 2429429203, 2429429194, 2429429177, 2429429187, 2429429179, 2429429178, 2429429203 ], "building": "nan", "height": "nan", "ref": "nan", "wall": "nan", "healthcare:speciality": "nan", "loc_name": "nan", "contact:facebook": "nan", "contact:instagram": "nan", "toilets:wheelchair": "nan", "contact:phone": "+55 51 3018-3131", "contact:website": "http://www.hospitalbancodeolhos.org.br", "building:levels": "nan", "operator:type": "nan", "email": "nan", "description": "nan", "fence_type": "nan", "aeroway": "nan", "ways": "nan", "type": "nan" }, "geometry": { "type": "Polygon", "coordinates": [ [ [ -51.1544674, -30.0227697 ], [ -51.153719, -30.0227006 ], [ -51.1538523, -30.0216186 ], [ -51.154276, -30.0216577 ], [ -51.1543017, -30.0214493 ], [ -51.1546264, -30.0214793 ], [ -51.1544674, -30.0227697 ] ] ] } },
{ "type": "Feature", "properties": { "element_type": "way", "osmid": "235379352", "addr:city": "nan", "addr:housenumber": "151", "addr:postcode": "90850-530", "addr:street": "Rua Professor Manoel Lobato", "addr:suburb": "nan", "amenity": "hospital", "healthcare": "hospital", "name": "Pronto Atendimento Cruzeiro do Sul", "operator": "nan", "ref:CNES": "2237148", "ref:vatin": "nan", "emergency": "yes", "phone": "+55 51 3289-4016", "website": "http://www2.portoalegre.rs.gov.br/sms/default.php?reg=25&p_secao=837", "name:en": "nan", "alt_name": "nan", "fixme": "nan", "official_name": "nan", "operator:ref:vatin": "BR92963560000160", "start_date": "nan", "wheelchair": "nan", "wikidata": "nan", "wikipedia": "nan", "short_name": "nan", "barrier": "nan", "opening_hours": "nan", "note": "nan", "nodes": [ 2434456929, 2434456944, 2434456926, 2434456906, 2434456897, 2434456883, 2434456881, 2434456884, 2434456877, 2434456929 ], "building": "nan", "height": "nan", "ref": "nan", "wall": "nan", "healthcare:speciality": "nan", "loc_name": "Postão da Vila Cruzeiro", "contact:facebook": "nan", "contact:instagram": "nan", "toilets:wheelchair": "nan", "contact:phone": "nan", "contact:website": "nan", "building:levels": "nan", "operator:type": "nan", "email": "nan", "description": "nan", "fence_type": "nan", "aeroway": "nan", "ways": "nan", "type": "nan" }, "geometry": { "type": "Polygon", "coordinates": [ [ [ -51.2172763, -30.070048 ], [ -51.2167949, -30.0703773 ], [ -51.2164797, -30.0700322 ], [ -51.2161418, -30.0696622 ], [ -51.2157505, -30.0693777 ], [ -51.2160417, -30.0688687 ], [ -51.216129, -30.0688432 ], [ -51.2163115, -30.0689342 ], [ -51.2166063, -30.0692745 ], [ -51.2172763, -30.070048 ] ] ] } },
{ "type": "Feature", "properties": { "element_type": "way", "osmid": "235503027", "addr:city": "nan", "addr:housenumber": "20", "addr:postcode": "91040-000", "addr:street": "Rua Domingos Rubbo", "addr:suburb": "nan", "amenity": "hospital", "healthcare": "hospital", "name": "Hospital Cristo Redentor", "operator": "Grupo Hospitalar Conceição", "ref:CNES": "2265060", "ref:vatin": "BR92787118000391", "emergency": "yes", "phone": "+55 51 3357-4100", "website": "https://www.ghc.com.br/default.asp?idMenu=unidades&idSubMenu=4", "name:en": "nan", "alt_name": "nan", "fixme": "nan", "official_name": "nan", "operator:ref:vatin": "nan", "start_date": "nan", "wheelchair": "yes", "wikidata": "nan", "wikipedia": "nan", "short_name": "nan", "barrier": "nan", "opening_hours": "nan", "note": "nan", "nodes": [ 2435546749, 2435546764, 2435546761, 2435546760, 2435546759, 2435546767, 2435546771, 4240446599, 4240448512, 2435546753, 2435546752, 2435546747, 2435546749 ], "building": "nan", "height": "nan", "ref": "nan", "wall": "nan", "healthcare:speciality": "nan", "loc_name": "nan", "contact:facebook": "nan", "contact:instagram": "nan", "toilets:wheelchair": "nan", "contact:phone": "nan", "contact:website": "nan", "building:levels": "nan", "operator:type": "nan", "email": "nan", "description": "nan", "fence_type": "nan", "aeroway": "nan", "ways": "nan", "type": "nan" }, "geometry": { "type": "Polygon", "coordinates": [ [ [ -51.1593795, -30.0104793 ], [ -51.1597972, -30.0105313 ], [ -51.1598555, -30.0099747 ], [ -51.1600778, -30.0099931 ], [ -51.1601126, -30.009687 ], [ -51.1596386, -30.0096596 ], [ -51.1595204, -30.0096218 ], [ -51.158971, -30.0097766 ], [ -51.1589653, -30.0097681 ], [ -51.1588769, -30.0097905 ], [ -51.1590855, -30.0099926 ], [ -51.1591663, -30.0101052 ], [ -51.1593795, -30.0104793 ] ] ] } },
{ "type": "Feature", "properties": { "element_type": "way", "osmid": "237709751", "addr:city": "nan", "addr:housenumber": "596", "addr:postcode": "91350-200", "addr:street": "Avenida Francisco Trein", "addr:suburb": "nan", "amenity": "hospital", "healthcare": "hospital", "name": "Hospital Nossa Senhora da Conceição", "operator": "Grupo Hospitalar Conceição", "ref:CNES": "2237571", "ref:vatin": "BR92787118000120", "emergency": "yes", "phone": "+55 51 3357-2000", "website": "https://www.ghc.com.br/default.asp?idMenu=unidades&idSubMenu=1", "name:en": "nan", "alt_name": "nan", "fixme": "nan", "official_name": "nan", "operator:ref:vatin": "nan", "start_date": "nan", "wheelchair": "nan", "wikidata": "nan", "wikipedia": "nan", "short_name": "nan", "barrier": "nan", "opening_hours": "nan", "note": "nan", "nodes": [ 2455882436, 2455882437, 2455882438, 2455882439, 2501317528, 2501317529, 2455882444, 2455882445, 2455882450, 2455882451, 2455882452, 2455882453, 2455882454, 7595900397, 7595900398, 2455882455, 2455882436 ], "building": "hospital", "height": "nan", "ref": "nan", "wall": "nan", "healthcare:speciality": "nan", "loc_name": "nan", "contact:facebook": "nan", "contact:instagram": "nan", "toilets:wheelchair": "nan", "contact:phone": "nan", "contact:website": "nan", "building:levels": "8", "operator:type": "public", "email": "nan", "description": "nan", "fence_type": "nan", "aeroway": "nan", "ways": "nan", "type": "nan" }, "geometry": { "type": "Polygon", "coordinates": [ [ [ -51.1588285, -30.0168467 ], [ -51.1586915, -30.0168317 ], [ -51.1587099, -30.016705 ], [ -51.1581183, -30.0166403 ], [ -51.1581937, -30.0161239 ], [ -51.1582822, -30.0161336 ], [ -51.1583198, -30.0158755 ], [ -51.1580572, -30.0158468 ], [ -51.1581041, -30.0155252 ], [ -51.1588819, -30.0156102 ], [ -51.1589258, -30.0153092 ], [ -51.1584627, -30.0152585 ], [ -51.1585101, -30.0149201 ], [ -51.1592746, -30.0149977 ], [ -51.1592385, -30.0152531 ], [ -51.1590613, -30.0152298 ], [ -51.1588285, -30.0168467 ] ] ] } },
{ "type": "Feature", "properties": { "element_type": "way", "osmid": "237709752", "addr:city": "nan", "addr:housenumber": "nan", "addr:postcode": "nan", "addr:street": "nan", "addr:suburb": "nan", "amenity": "hospital", "healthcare": "hospital", "name": "nan", "operator": "nan", "ref:CNES": "nan", "ref:vatin": "nan", "emergency": "nan", "phone": "nan", "website": "nan", "name:en": "nan", "alt_name": "nan", "fixme": "O que é isto?", "official_name": "nan", "operator:ref:vatin": "nan", "start_date": "nan", "wheelchair": "nan", "wikidata": "nan", "wikipedia": "nan", "short_name": "nan", "barrier": "nan", "opening_hours": "nan", "note": "nan", "nodes": [ 2455882464, 2455882465, 2455882466, 2455882467, 2455882468, 2455882469, 2455882470, 2455882471, 2455882464 ], "building": "yes", "height": "nan", "ref": "nan", "wall": "nan", "healthcare:speciality": "nan", "loc_name": "nan", "contact:facebook": "nan", "contact:instagram": "nan", "toilets:wheelchair": "nan", "contact:phone": "nan", "contact:website": "nan", "building:levels": "nan", "operator:type": "nan", "email": "nan", "description": "nan", "fence_type": "nan", "aeroway": "nan", "ways": "nan", "type": "nan" }, "geometry": { "type": "Polygon", "coordinates": [ [ [ -51.1583404, -30.0151612 ], [ -51.158328, -30.0152534 ], [ -51.1581128, -30.0152318 ], [ -51.1580999, -30.0153281 ], [ -51.1579984, -30.0153178 ], [ -51.1580113, -30.0152215 ], [ -51.1578952, -30.0152098 ], [ -51.1579076, -30.0151176 ], [ -51.1583404, -30.0151612 ] ] ] } },
{ "type": "Feature", "properties": { "element_type": "way", "osmid": "237709753", "addr:city": "nan", "addr:housenumber": "565", "addr:postcode": "nan", "addr:street": "Rua Álvares Cabral", "addr:suburb": "nan", "amenity": "hospital", "healthcare": "hospital", "name": "Hospital da Criança Conceição", "operator": "Grupo Hospitalar Conceição", "ref:CNES": "nan", "ref:vatin": "nan", "emergency": "nan", "phone": "+55 51 3357-2000", "website": "https://www.ghc.com.br/default.asp?idMenu=unidades&idSubMenu=3", "name:en": "nan", "alt_name": "Hospital da Criança", "fixme": "nan", "official_name": "nan", "operator:ref:vatin": "nan", "start_date": "nan", "wheelchair": "nan", "wikidata": "nan", "wikipedia": "nan", "short_name": "HCC", "barrier": "nan", "opening_hours": "nan", "note": "nan", "nodes": [ 2455882474, 2455882475, 2455882476, 2455882477, 2455882478, 2455882479, 2455882480, 2455882481, 2455882482, 2455882483, 2455882485, 2455882474 ], "building": "hospital", "height": "nan", "ref": "nan", "wall": "nan", "healthcare:speciality": "nan", "loc_name": "nan", "contact:facebook": "nan", "contact:instagram": "nan", "toilets:wheelchair": "nan", "contact:phone": "nan", "contact:website": "nan", "building:levels": "nan", "operator:type": "nan", "email": "nan", "description": "nan", "fence_type": "nan", "aeroway": "nan", "ways": "nan", "type": "nan" }, "geometry": { "type": "Polygon", "coordinates": [ [ [ -51.1573248, -30.0158861 ], [ -51.1574475, -30.0157693 ], [ -51.1574804, -30.0155824 ], [ -51.1575413, -30.0155905 ], [ -51.1575623, -30.0154712 ], [ -51.1575125, -30.0154646 ], [ -51.1575493, -30.0152551 ], [ -51.1577406, -30.0152804 ], [ -51.1576866, -30.0155867 ], [ -51.1578363, -30.0156065 ], [ -51.1577766, -30.0159457 ], [ -51.1573248, -30.0158861 ] ] ] } },
{ "type": "Feature", "properties": { "element_type": "way", "osmid": "239664213", "addr:city": "Porto Alegre", "addr:housenumber": "171", "addr:postcode": "91360-000", "addr:street": "Avenida do Forte", "addr:suburb": "nan", "amenity": "hospital", "healthcare": "hospital", "name": "Centro Clínico Gaúcho", "operator": "nan", "ref:CNES": "9791639", "ref:vatin": "BR00773639001181", "emergency": "nan", "phone": "nan", "website": "nan", "name:en": "nan", "alt_name": "nan", "fixme": "nan", "official_name": "nan", "operator:ref:vatin": "nan", "start_date": "nan", "wheelchair": "nan", "wikidata": "nan", "wikipedia": "nan", "short_name": "nan", "barrier": "nan", "opening_hours": "nan", "note": "nan", "nodes": [ 2474406520, 2474406526, 2474389232, 2474389234, 2474389245, 2474406530, 2474406537, 2474406520 ], "building": "yes", "height": "nan", "ref": "nan", "wall": "nan", "healthcare:speciality": "nan", "loc_name": "nan", "contact:facebook": "nan", "contact:instagram": "nan", "toilets:wheelchair": "nan", "contact:phone": "nan", "contact:website": "nan", "building:levels": "nan", "operator:type": "nan", "email": "nan", "description": "nan", "fence_type": "nan", "aeroway": "nan", "ways": "nan", "type": "nan" }, "geometry": { "type": "Polygon", "coordinates": [ [ [ -51.1532512, -30.0123472 ], [ -51.1533034, -30.0119889 ], [ -51.1538883, -30.0120106 ], [ -51.1543355, -30.0120272 ], [ -51.1543296, -30.0120731 ], [ -51.1542987, -30.0123851 ], [ -51.1542032, -30.0123816 ], [ -51.1532512, -30.0123472 ] ] ] } },
{ "type": "Feature", "properties": { "element_type": "way", "osmid": "240718773", "addr:city": "nan", "addr:housenumber": "2460", "addr:postcode": "90650-001", "addr:street": "Avenida Bento Gonçalves", "addr:suburb": "nan", "amenity": "hospital", "healthcare": "hospital", "name": "Hospital Psiquiátrico São Pedro", "operator": "nan", "ref:CNES": "2237806", "ref:vatin": "BR87958625000220", "emergency": "nan", "phone": "+55 51 3339-2111", "website": "nan", "name:en": "nan", "alt_name": "nan", "fixme": "nan", "official_name": "nan", "operator:ref:vatin": "BR87958625000149", "start_date": "nan", "wheelchair": "nan", "wikidata": "nan", "wikipedia": "pt:Hospital Psiquiátrico São Pedro", "short_name": "nan", "barrier": "nan", "opening_hours": "nan", "note": "nan", "nodes": [ 2484260142, 2484260138, 2484260137, 2484260136, 2484260133, 2484260127, 2484260103, 2484260108, 2484260116, 2484260118, 2484260129, 2484260131, 2204806775, 2204806778, 2484260132, 2204806783, 2484260135, 2484260139, 2484260134, 2484260142 ], "building": "nan", "height": "nan", "ref": "nan", "wall": "nan", "healthcare:speciality": "nan", "loc_name": "nan", "contact:facebook": "nan", "contact:instagram": "nan", "toilets:wheelchair": "nan", "contact:phone": "nan", "contact:website": "nan", "building:levels": "nan", "operator:type": "nan", "email": "hpsp@saude.rs.gov.br", "description": "nan", "fence_type": "nan", "aeroway": "nan", "ways": "nan", "type": "nan" }, "geometry": { "type": "Polygon", "coordinates": [ [ [ -51.1875341, -30.0622322 ], [ -51.1895057, -30.0612783 ], [ -51.1896316, -30.0612153 ], [ -51.18985, -30.061098 ], [ -51.1907711, -30.0605326 ], [ -51.1894623, -30.0584206 ], [ -51.189101, -30.0577415 ], [ -51.1886756, -30.0577601 ], [ -51.1886776, -30.0578417 ], [ -51.1875612, -30.0578963 ], [ -51.1875919, -30.0584313 ], [ -51.1858256, -30.0592652 ], [ -51.1868345, -30.0595089 ], [ -51.1861512, -30.0598366 ], [ -51.1859667, -30.0599969 ], [ -51.1849773, -30.0607285 ], [ -51.1849848, -30.0608406 ], [ -51.1853625, -30.0614143 ], [ -51.1866302, -30.0608261 ], [ -51.1875341, -30.0622322 ] ] ] } },
{ "type": "Feature", "properties": { "element_type": "way", "osmid": "243044110", "addr:city": "nan", "addr:housenumber": "nan", "addr:postcode": "nan", "addr:street": "nan", "addr:suburb": "nan", "amenity": "hospital", "healthcare": "nan", "name": "Futuras instalações do Complexo Hospitalar São Miguel (antigo Hospital Parque Belém)", "operator": "nan", "ref:CNES": "nan", "ref:vatin": "nan", "emergency": "nan", "phone": "nan", "website": "nan", "name:en": "nan", "alt_name": "nan", "fixme": "nan", "official_name": "nan", "operator:ref:vatin": "nan", "start_date": "nan", "wheelchair": "nan", "wikidata": "Q10298443", "wikipedia": "pt:Hospital Parque Belém", "short_name": "nan", "barrier": "nan", "opening_hours": "nan", "note": "nan", "nodes": [ 2504847703, 2506669718, 2504847704, 2506669717, 3250302921, 3250302925, 2506669716, 3250302922, 2506669715, 3250302923, 3250302924, 2504847718, 3250302926, 2504847721, 2504847722, 2504847723, 2504847724, 2504847726, 2504847727, 2504847728, 2504847729, 2504847731, 2504847732, 2504847733, 2504847734, 2504847736, 2504847737, 2504847738, 2504847739, 2504847741, 2504847742, 2504847743, 2504847744, 2504847746, 2504847747, 2504847703 ], "building": "hospital", "height": "nan", "ref": "nan", "wall": "nan", "healthcare:speciality": "nan", "loc_name": "nan", "contact:facebook": "nan", "contact:instagram": "nan", "toilets:wheelchair": "nan", "contact:phone": "nan", "contact:website": "nan", "building:levels": "nan", "operator:type": "nan", "email": "nan", "description": "Hospital Parque Belém fechado em maio de 2017. Em julho de 2018, a Associação São Miguel aluga o prédio para as futuras instalações do Complexo Hospitalar São Miguel.\n\n", "fence_type": "nan", "aeroway": "nan", "ways": "nan", "type": "nan" }, "geometry": { "type": "Polygon", "coordinates": [ [ [ -51.1726186, -30.1068308 ], [ -51.1722265, -30.106783 ], [ -51.1720925, -30.1067666 ], [ -51.1721009, -30.1066806 ], [ -51.1720915, -30.1066301 ], [ -51.1720495, -30.1065816 ], [ -51.1719865, -30.1065372 ], [ -51.1718837, -30.1065109 ], [ -51.1718067, -30.1065069 ], [ -51.1717249, -30.1065129 ], [ -51.1716386, -30.1065533 ], [ -51.1715989, -30.1065856 ], [ -51.1715787, -30.1066228 ], [ -51.1715648, -30.1067163 ], [ -51.1710128, -30.1066624 ], [ -51.1710305, -30.1065572 ], [ -51.1714541, -30.1065957 ], [ -51.1714954, -30.1065053 ], [ -51.1712391, -30.1062519 ], [ -51.1713163, -30.1061935 ], [ -51.1715802, -30.1064564 ], [ -51.1716946, -30.1064139 ], [ -51.1716309, -30.1060855 ], [ -51.1717432, -30.1060694 ], [ -51.1718137, -30.1063937 ], [ -51.1719267, -30.106408 ], [ -51.172065, -30.1060953 ], [ -51.1721691, -30.1061297 ], [ -51.1720312, -30.1064418 ], [ -51.1721289, -30.1064995 ], [ -51.1724167, -30.1062922 ], [ -51.1724895, -30.1063677 ], [ -51.1722083, -30.1065755 ], [ -51.1722293, -30.1066765 ], [ -51.1726333, -30.106725 ], [ -51.1726186, -30.1068308 ] ] ] } },
{ "type": "Feature", "properties": { "element_type": "way", "osmid": "243238223", "addr:city": "nan", "addr:housenumber": "nan", "addr:postcode": "nan", "addr:street": "Rua Álvaro Difini", "addr:suburb": "nan", "amenity": "hospital", "healthcare": "nan", "name": "Pronto-Atendimento Saúde Restinga", "operator": "Hospital Moinhos de Vento", "ref:CNES": "nan", "ref:vatin": "nan", "emergency": "yes", "phone": "+55 51 3250-1411", "website": "nan", "name:en": "nan", "alt_name": "nan", "fixme": "nan", "official_name": "nan", "operator:ref:vatin": "nan", "start_date": "2004", "wheelchair": "nan", "wikidata": "nan", "wikipedia": "nan", "short_name": "nan", "barrier": "fence", "opening_hours": "24/7", "note": "nan", "nodes": [ 2506433366, 2506559490, 2506559492, 2506433368, 2506433366 ], "building": "nan", "height": "nan", "ref": "nan", "wall": "nan", "healthcare:speciality": "nan", "loc_name": "nan", "contact:facebook": "nan", "contact:instagram": "nan", "toilets:wheelchair": "nan", "contact:phone": "nan", "contact:website": "nan", "building:levels": "nan", "operator:type": "nan", "email": "saude.restinga@hmv.org.br", "description": "nan", "fence_type": "chain_link", "aeroway": "nan", "ways": "nan", "type": "nan" }, "geometry": { "type": "Polygon", "coordinates": [ [ [ -51.1456383, -30.148667 ], [ -51.1461096, -30.1484676 ], [ -51.1463888, -30.1489612 ], [ -51.1459174, -30.1491605 ], [ -51.1456383, -30.148667 ] ] ] } },
{ "type": "Feature", "properties": { "element_type": "way", "osmid": "244644162", "addr:city": "nan", "addr:housenumber": "nan", "addr:postcode": "nan", "addr:street": "Largo Teodoro Herzl", "addr:suburb": "nan", "amenity": "hospital", "healthcare": "hospital", "name": "Hospital de Pronto Socorro", "operator": "nan", "ref:CNES": "nan", "ref:vatin": "nan", "emergency": "yes", "phone": "+55 51 3289-7999", "website": "https://prefeitura.poa.br/carta-de-servicos/urgencia-e-emergencia-hospital-de-pronto-socorro", "name:en": "nan", "alt_name": "HPS", "fixme": "nan", "official_name": "nan", "operator:ref:vatin": "nan", "start_date": "1944", "wheelchair": "yes", "wikidata": "Q10298542", "wikipedia": "pt:Hospital de Pronto Socorro de Porto Alegre", "short_name": "HPS", "barrier": "nan", "opening_hours": "24/7", "note": "nan", "nodes": [ 2519380179, 1398058059, 1398058011, 1398057994, 1398058015, 2519374379, 2519374383, 1398058130, 1398058202, 2519380185, 2519380184, 2519380180, 2519380178, 2519380179 ], "building": "nan", "height": "nan", "ref": "nan", "wall": "nan", "healthcare:speciality": "nan", "loc_name": "nan", "contact:facebook": "nan", "contact:instagram": "nan", "toilets:wheelchair": "nan", "contact:phone": "nan", "contact:website": "nan", "building:levels": "nan", "operator:type": "nan", "email": "nan", "description": "nan", "fence_type": "nan", "aeroway": "nan", "ways": "nan", "type": "nan" }, "geometry": { "type": "Polygon", "coordinates": [ [ [ -51.2099969, -30.0368241 ], [ -51.2099598, -30.0368086 ], [ -51.2099177, -30.0366534 ], [ -51.2098377, -30.0365406 ], [ -51.2095254, -30.0367022 ], [ -51.2094173, -30.0367581 ], [ -51.2094151, -30.0369755 ], [ -51.2095205, -30.0370358 ], [ -51.2098103, -30.0372014 ], [ -51.2099405, -30.0372759 ], [ -51.210149, -30.0370025 ], [ -51.210234, -30.0368911 ], [ -51.2100333, -30.0367764 ], [ -51.2099969, -30.0368241 ] ] ] } },
{ "type": "Feature", "properties": { "element_type": "way", "osmid": "248405681", "addr:city": "nan", "addr:housenumber": "6690", "addr:postcode": "90610-000", "addr:street": "Avenida Ipiranga", "addr:suburb": "nan", "amenity": "hospital", "healthcare": "hospital", "name": "Hospital São Lucas da PUCRS", "operator": "nan", "ref:CNES": "nan", "ref:vatin": "nan", "emergency": "yes", "phone": "+55 51 33203000;+55 51 33203200", "website": "https://hospitalsaolucas.pucrs.br/", "name:en": "PUCRS St. Luke Hospital", "alt_name": "nan", "fixme": "nan", "official_name": "nan", "operator:ref:vatin": "nan", "start_date": "nan", "wheelchair": "nan", "wikidata": "nan", "wikipedia": "nan", "short_name": "nan", "barrier": "nan", "opening_hours": "24/7", "note": "nan", "nodes": [ 2551951895, 2551951899, 2551951893, 2551951896, 2551951891, 2551951889, 2551951880, 2551951875, 2551951858, 2551951849, 2551951834, 2551951827, 2551951831, 2551951824, 2551951843, 2551951839, 2551951825, 2551951822, 4123814217, 4123814218, 2551951866, 2551951888, 2551951890, 2551951898, 2551951879, 2551951886, 2551951874, 2551951878, 2551951895 ], "building": "hospital", "height": "nan", "ref": "nan", "wall": "nan", "healthcare:speciality": "nan", "loc_name": "nan", "contact:facebook": "SaoLucasdaPUCRS", "contact:instagram": "hslpucrs", "toilets:wheelchair": "nan", "contact:phone": "nan", "contact:website": "nan", "building:levels": "nan", "operator:type": "nan", "email": "nan", "description": "nan", "fence_type": "nan", "aeroway": "nan", "ways": "nan", "type": "nan" }, "geometry": { "type": "Polygon", "coordinates": [ [ [ -51.1760401, -30.0554878 ], [ -51.1762621, -30.0555894 ], [ -51.1763514, -30.0554432 ], [ -51.1764933, -30.0555081 ], [ -51.1765539, -30.0554088 ], [ -51.1765186, -30.0553926 ], [ -51.1765906, -30.0552749 ], [ -51.1764819, -30.0552251 ], [ -51.1765723, -30.0550772 ], [ -51.1763495, -30.0549752 ], [ -51.17648, -30.0547616 ], [ -51.1762003, -30.0546334 ], [ -51.1761469, -30.0547208 ], [ -51.1758883, -30.0546024 ], [ -51.1756718, -30.0549566 ], [ -51.1755024, -30.054879 ], [ -51.1756661, -30.0546111 ], [ -51.1754219, -30.0544993 ], [ -51.1751845, -30.0548878 ], [ -51.1751522, -30.0549407 ], [ -51.1750102, -30.0551729 ], [ -51.1754276, -30.055364 ], [ -51.1753994, -30.0554101 ], [ -51.1757188, -30.0555563 ], [ -51.1758975, -30.0552639 ], [ -51.1760368, -30.0553276 ], [ -51.1761008, -30.0552228 ], [ -51.17618, -30.055259 ], [ -51.1760401, -30.0554878 ] ] ] } },
{ "type": "Feature", "properties": { "element_type": "way", "osmid": "248405682", "addr:city": "nan", "addr:housenumber": "nan", "addr:postcode": "nan", "addr:street": "nan", "addr:suburb": "nan", "amenity": "hospital", "healthcare": "hospital", "name": "Instituto do Cérebro", "operator": "nan", "ref:CNES": "nan", "ref:vatin": "nan", "emergency": "nan", "phone": "nan", "website": "nan", "name:en": "nan", "alt_name": "nan", "fixme": "nan", "official_name": "nan", "operator:ref:vatin": "nan", "start_date": "nan", "wheelchair": "nan", "wikidata": "nan", "wikipedia": "nan", "short_name": "nan", "barrier": "nan", "opening_hours": "nan", "note": "nan", "nodes": [ 2551951892, 2551951884, 2551951867, 2551951868, 2551951860, 2551951856, 2551951851, 2551951862, 2551951892 ], "building": "yes", "height": "nan", "ref": "nan", "wall": "nan", "healthcare:speciality": "nan", "loc_name": "nan", "contact:facebook": "nan", "contact:instagram": "nan", "toilets:wheelchair": "nan", "contact:phone": "nan", "contact:website": "nan", "building:levels": "nan", "operator:type": "nan", "email": "nan", "description": "nan", "fence_type": "nan", "aeroway": "nan", "ways": "nan", "type": "nan" }, "geometry": { "type": "Polygon", "coordinates": [ [ [ -51.1738913, -30.0554278 ], [ -51.1736344, -30.055323 ], [ -51.1737145, -30.0551758 ], [ -51.1737464, -30.0551888 ], [ -51.173795, -30.0550997 ], [ -51.1737116, -30.0550656 ], [ -51.1737548, -30.0549861 ], [ -51.1740632, -30.0551119 ], [ -51.1738913, -30.0554278 ] ] ] } },
{ "type": "Feature", "properties": { "element_type": "way", "osmid": "254219042", "addr:city": "nan", "addr:housenumber": "450", "addr:postcode": "91430-000", "addr:street": "Avenida Antônio de Carvalho", "addr:suburb": "Jardim Carvalho", "amenity": "hospital", "healthcare": "hospital", "name": "Hospital Independência", "operator": "Sociedade Sulina Divina Providência", "ref:CNES": "7092571", "ref:vatin": "BR87317764000606", "emergency": "nan", "phone": "+55 51 3383-5600", "website": "https://divinaprovidencia.org.br/", "name:en": "nan", "alt_name": "nan", "fixme": "nan", "official_name": "nan", "operator:ref:vatin": "nan", "start_date": "nan", "wheelchair": "nan", "wikidata": "nan", "wikipedia": "pt:Hospital Independência", "short_name": "nan", "barrier": "nan", "opening_hours": "nan", "note": "nan", "nodes": [ 2600201437, 2600201439, 2600201432, 4974338924, 2600201435, 2600201437 ], "building": "nan", "height": "nan", "ref": "nan", "wall": "nan", "healthcare:speciality": "nan", "loc_name": "nan", "contact:facebook": "nan", "contact:instagram": "nan", "toilets:wheelchair": "nan", "contact:phone": "nan", "contact:website": "nan", "building:levels": "nan", "operator:type": "nan", "email": "hospitalindependencia@divinaprovidencia.org.br", "description": "nan", "fence_type": "nan", "aeroway": "nan", "ways": "nan", "type": "nan" }, "geometry": { "type": "Polygon", "coordinates": [ [ [ -51.1501001, -30.060888 ], [ -51.1496937, -30.0607511 ], [ -51.1489025, -30.0605654 ], [ -51.1490634, -30.0616274 ], [ -51.1496656, -30.0616344 ], [ -51.1501001, -30.060888 ] ] ] } },
{ "type": "Feature", "properties": { "element_type": "way", "osmid": "269745016", "addr:city": "nan", "addr:housenumber": "5412", "addr:postcode": "nan", "addr:street": "Rodovia Tapir Rocha", "addr:suburb": "nan", "amenity": "hospital", "healthcare": "nan", "name": "Pronto Atendimento Municipal", "operator": "nan", "ref:CNES": "nan", "ref:vatin": "nan", "emergency": "yes", "phone": "+55 51 3054-7526", "website": "nan", "name:en": "nan", "alt_name": "nan", "fixme": "nan", "official_name": "nan", "operator:ref:vatin": "nan", "start_date": "nan", "wheelchair": "nan", "wikidata": "nan", "wikipedia": "nan", "short_name": "nan", "barrier": "nan", "opening_hours": "nan", "note": "nan", "nodes": [ 2748827238, 2748827240, 2748827226, 2748827221, 2748827198, 2748827231, 2748827234, 2748827232, 2748827235, 2748827238 ], "building": "nan", "height": "nan", "ref": "nan", "wall": "nan", "healthcare:speciality": "nan", "loc_name": "nan", "contact:facebook": "nan", "contact:instagram": "nan", "toilets:wheelchair": "nan", "contact:phone": "nan", "contact:website": "nan", "building:levels": "nan", "operator:type": "nan", "email": "nan", "description": "nan", "fence_type": "nan", "aeroway": "nan", "ways": "nan", "type": "nan" }, "geometry": { "type": "Polygon", "coordinates": [ [ [ -51.0705308, -30.0922975 ], [ -51.0703191, -30.0923431 ], [ -51.0702949, -30.0922758 ], [ -51.0701313, -30.0923129 ], [ -51.0698711, -30.0923292 ], [ -51.0698819, -30.0926355 ], [ -51.0701447, -30.0926169 ], [ -51.0704467, -30.092584 ], [ -51.0707294, -30.0925659 ], [ -51.0705308, -30.0922975 ] ] ] } },
{ "type": "Feature", "properties": { "element_type": "way", "osmid": "299874647", "addr:city": "nan", "addr:housenumber": "3722", "addr:postcode": "90650-001", "addr:street": "Avenida Bento Gonçalves", "addr:suburb": "Partenon", "amenity": "hospital", "healthcare": "hospital", "name": "Hospital Sanatório Partenon", "operator": "nan", "ref:CNES": "2237121", "ref:vatin": "BR87958625000904", "emergency": "nan", "phone": "nan", "website": "nan", "name:en": "nan", "alt_name": "nan", "fixme": "nan", "official_name": "nan", "operator:ref:vatin": "BR87958625000149", "start_date": "nan", "wheelchair": "nan", "wikidata": "nan", "wikipedia": "nan", "short_name": "nan", "barrier": "nan", "opening_hours": "nan", "note": "nan", "nodes": [ 3039621266, 3039621268, 2483801872, 2483801994, 2483801985, 2483801981, 2483801978, 2483801976, 2483801974, 2483801971, 2483801968, 2483801965, 2483801966, 2483801963, 2483801959, 2483801962, 2483801960, 2483801945, 2483801948, 2483801952, 2483801950, 3039621257, 3039621263, 4286871374, 4245397359, 4245398464, 4245398481, 3039621266 ], "building": "nan", "height": "nan", "ref": "nan", "wall": "nan", "healthcare:speciality": "nan", "loc_name": "nan", "contact:facebook": "nan", "contact:instagram": "nan", "toilets:wheelchair": "nan", "contact:phone": "nan", "contact:website": "nan", "building:levels": "nan", "operator:type": "nan", "email": "fathsp@saude.rs.gov.br", "description": "nan", "fence_type": "nan", "aeroway": "nan", "ways": "nan", "type": "nan" }, "geometry": { "type": "Polygon", "coordinates": [ [ [ -51.177987, -30.0625168 ], [ -51.1781955, -30.0626785 ], [ -51.1784547, -30.0629184 ], [ -51.1789639, -30.0635161 ], [ -51.1793674, -30.0630122 ], [ -51.1797308, -30.0623692 ], [ -51.1801301, -30.0618791 ], [ -51.1799108, -30.0617079 ], [ -51.1800242, -30.0616385 ], [ -51.1797387, -30.0613115 ], [ -51.1795452, -30.0612437 ], [ -51.1794388, -30.0611453 ], [ -51.1793546, -30.0611824 ], [ -51.1791508, -30.0610162 ], [ -51.1789352, -30.0609203 ], [ -51.1788022, -30.0609829 ], [ -51.178529, -30.0609267 ], [ -51.1781952, -30.0607183 ], [ -51.1779543, -30.0607749 ], [ -51.1779395, -30.0608262 ], [ -51.1775691, -30.0607676 ], [ -51.1774578, -30.0608003 ], [ -51.1781211, -30.0617631 ], [ -51.1783345, -30.0621457 ], [ -51.1780976, -30.0622686 ], [ -51.1781779, -30.0623588 ], [ -51.1781214, -30.0623969 ], [ -51.177987, -30.0625168 ] ] ] } },
{ "type": "Feature", "properties": { "element_type": "way", "osmid": "307781802", "addr:city": "nan", "addr:housenumber": "nan", "addr:postcode": "nan", "addr:street": "Rua Batori José Rodrigues dos Santos", "addr:suburb": "nan", "amenity": "hospital", "healthcare": "hospital", "name": "nan", "operator": "nan", "ref:CNES": "nan", "ref:vatin": "nan", "emergency": "nan", "phone": "nan", "website": "nan", "name:en": "nan", "alt_name": "nan", "fixme": "nan", "official_name": "nan", "operator:ref:vatin": "nan", "start_date": "nan", "wheelchair": "nan", "wikidata": "nan", "wikipedia": "nan", "short_name": "nan", "barrier": "nan", "opening_hours": "nan", "note": "nan", "nodes": [ 3129901054, 3129901055, 3129901056, 3129901057, 3129901054 ], "building": "nan", "height": "nan", "ref": "nan", "wall": "nan", "healthcare:speciality": "nan", "loc_name": "nan", "contact:facebook": "nan", "contact:instagram": "nan", "toilets:wheelchair": "nan", "contact:phone": "nan", "contact:website": "nan", "building:levels": "nan", "operator:type": "nan", "email": "nan", "description": "nan", "fence_type": "nan", "aeroway": "nan", "ways": "nan", "type": "nan" }, "geometry": { "type": "Polygon", "coordinates": [ [ [ -51.3055008, -29.9999703 ], [ -51.3054155, -29.999502 ], [ -51.3049154, -29.9995795 ], [ -51.3050049, -30.0000478 ], [ -51.3055008, -29.9999703 ] ] ] } },
{ "type": "Feature", "properties": { "element_type": "way", "osmid": "316976828", "addr:city": "nan", "addr:housenumber": "90", "addr:postcode": "90520-200", "addr:street": "Rua 3 de Abril", "addr:suburb": "nan", "amenity": "hospital", "healthcare": "hospital", "name": "Centro de Saúde IAPI", "operator": "nan", "ref:CNES": "809527", "ref:vatin": "nan", "emergency": "nan", "phone": "+55 51 3289-3400", "website": "http://www2.portoalegre.rs.gov.br/sms/default.php?p_secao=335", "name:en": "nan", "alt_name": "Unidade de Saúde IAPI", "fixme": "nan", "official_name": "nan", "operator:ref:vatin": "BR92963560000160", "start_date": "nan", "wheelchair": "nan", "wikidata": "nan", "wikipedia": "nan", "short_name": "nan", "barrier": "nan", "opening_hours": "Mo-Sa 07:00-18:00", "note": "nan", "nodes": [ 3231707381, 3231707380, 3231707382, 3231707383, 3231707381 ], "building": "nan", "height": "nan", "ref": "nan", "wall": "nan", "healthcare:speciality": "nan", "loc_name": "Posto de Saúde do IAPI", "contact:facebook": "nan", "contact:instagram": "nan", "toilets:wheelchair": "nan", "contact:phone": "nan", "contact:website": "nan", "building:levels": "nan", "operator:type": "nan", "email": "nan", "description": "nan", "fence_type": "nan", "aeroway": "nan", "ways": "nan", "type": "nan" }, "geometry": { "type": "Polygon", "coordinates": [ [ [ -51.1783712, -30.0138222 ], [ -51.1775772, -30.0137826 ], [ -51.1773439, -30.0150741 ], [ -51.1780693, -30.0151686 ], [ -51.1783712, -30.0138222 ] ] ] } },
{ "type": "Feature", "properties": { "element_type": "way", "osmid": "316976832", "addr:city": "nan", "addr:housenumber": "155", "addr:postcode": "91750-040", "addr:street": "Rua Catarino Andreatta", "addr:suburb": "nan", "amenity": "hospital", "healthcare": "hospital", "name": "Associação Hospitalar Vila Nova", "operator": "nan", "ref:CNES": "2693801", "ref:vatin": "BR04994418000112", "emergency": "nan", "phone": "nan", "website": "nan", "name:en": "nan", "alt_name": "Hospital Vila Nova", "fixme": "nan", "official_name": "nan", "operator:ref:vatin": "nan", "start_date": "nan", "wheelchair": "nan", "wikidata": "nan", "wikipedia": "nan", "short_name": "nan", "barrier": "nan", "opening_hours": "24/7", "note": "nan", "nodes": [ 3231707434, 3231707436, 9030292467, 3231707435, 1772989536, 3231707432, 3231707433, 3231707434 ], "building": "nan", "height": "nan", "ref": "nan", "wall": "nan", "healthcare:speciality": "nan", "loc_name": "nan", "contact:facebook": "ahvnpoa", "contact:instagram": "ahvnoficial", "toilets:wheelchair": "nan", "contact:phone": "+55 51 3245-8900", "contact:website": "nan", "building:levels": "nan", "operator:type": "nan", "email": "nan", "description": "nan", "fence_type": "nan", "aeroway": "nan", "ways": "nan", "type": "nan" }, "geometry": { "type": "Polygon", "coordinates": [ [ [ -51.2084643, -30.1189809 ], [ -51.208279, -30.1200775 ], [ -51.207304, -30.1199541 ], [ -51.2070631, -30.1199236 ], [ -51.2072818, -30.1186827 ], [ -51.2077303, -30.1187885 ], [ -51.2077192, -30.1188558 ], [ -51.2084643, -30.1189809 ] ] ] } },
{ "type": "Feature", "properties": { "element_type": "way", "osmid": "318661243", "addr:city": "nan", "addr:housenumber": "nan", "addr:postcode": "nan", "addr:street": "nan", "addr:suburb": "nan", "amenity": "hospital", "healthcare": "nan", "name": "nan", "operator": "nan", "ref:CNES": "nan", "ref:vatin": "nan", "emergency": "nan", "phone": "nan", "website": "nan", "name:en": "nan", "alt_name": "nan", "fixme": "nan", "official_name": "nan", "operator:ref:vatin": "nan", "start_date": "nan", "wheelchair": "nan", "wikidata": "nan", "wikipedia": "nan", "short_name": "nan", "barrier": "nan", "opening_hours": "nan", "note": "nan", "nodes": [ 3250302912, 3250302919, 3250302913, 3250302914, 3250302915, 3250302916, 3250302920, 3250302917, 3250302918, 3250302912 ], "building": "nan", "height": "nan", "ref": "nan", "wall": "nan", "healthcare:speciality": "nan", "loc_name": "nan", "contact:facebook": "nan", "contact:instagram": "nan", "toilets:wheelchair": "nan", "contact:phone": "nan", "contact:website": "nan", "building:levels": "nan", "operator:type": "nan", "email": "nan", "description": "nan", "fence_type": "nan", "aeroway": "nan", "ways": "nan", "type": "nan" }, "geometry": { "type": "Polygon", "coordinates": [ [ [ -51.1730156, -30.106301 ], [ -51.1730317, -30.1067976 ], [ -51.1731106, -30.1073888 ], [ -51.1722094, -30.1080525 ], [ -51.1704728, -30.1065609 ], [ -51.1714037, -30.1057216 ], [ -51.171527, -30.1056782 ], [ -51.1726939, -30.1052669 ], [ -51.1728922, -30.1057116 ], [ -51.1730156, -30.106301 ] ] ] } },
{ "type": "Feature", "properties": { "element_type": "way", "osmid": "335995481", "addr:city": "nan", "addr:housenumber": "175", "addr:postcode": "91720-440", "addr:street": "Praça Simões Lopes Neto", "addr:suburb": "Teresópolis", "amenity": "hospital", "healthcare": "hospital", "name": "Hospital Espírita de Porto Alegre", "operator": "nan", "ref:CNES": "2237180", "ref:vatin": "BR92697291000137", "emergency": "nan", "phone": "+55 51 3320-5700", "website": "https://www.hepa.org.br/", "name:en": "nan", "alt_name": "nan", "fixme": "nan", "official_name": "nan", "operator:ref:vatin": "nan", "start_date": "nan", "wheelchair": "nan", "wikidata": "nan", "wikipedia": "nan", "short_name": "nan", "barrier": "nan", "opening_hours": "nan", "note": "nan", "nodes": [ 3430818417, 3430818418, 3430818419, 3430818420, 3430818417 ], "building": "nan", "height": "nan", "ref": "nan", "wall": "nan", "healthcare:speciality": "nan", "loc_name": "nan", "contact:facebook": "nan", "contact:instagram": "nan", "toilets:wheelchair": "nan", "contact:phone": "nan", "contact:website": "nan", "building:levels": "nan", "operator:type": "nan", "email": "nan", "description": "nan", "fence_type": "nan", "aeroway": "nan", "ways": "nan", "type": "nan" }, "geometry": { "type": "Polygon", "coordinates": [ [ [ -51.2072019, -30.0863604 ], [ -51.2079884, -30.0871421 ], [ -51.2051586, -30.0889193 ], [ -51.2049953, -30.0878277 ], [ -51.2072019, -30.0863604 ] ] ] } },
{ "type": "Feature", "properties": { "element_type": "way", "osmid": "347702342", "addr:city": "nan", "addr:housenumber": "1801", "addr:postcode": "90160-092", "addr:street": "Avenida Ipiranga", "addr:suburb": "nan", "amenity": "hospital", "healthcare": "hospital", "name": "Hospital Ernesto Dornelles", "operator": "nan", "ref:CNES": "nan", "ref:vatin": "nan", "emergency": "yes", "phone": "+55 51 3217-2002", "website": "https://www.hed.com.br/", "name:en": "nan", "alt_name": "nan", "fixme": "nan", "official_name": "nan", "operator:ref:vatin": "nan", "start_date": "nan", "wheelchair": "nan", "wikidata": "nan", "wikipedia": "nan", "short_name": "nan", "barrier": "nan", "opening_hours": "24/7", "note": "nan", "nodes": [ 3539571033, 8424508943, 3539571034, 3539571035, 3539571036, 3539571037, 3539571038, 4231111714, 3539571033 ], "building": "nan", "height": "nan", "ref": "nan", "wall": "nan", "healthcare:speciality": "nan", "loc_name": "nan", "contact:facebook": "https://facebook.com/pages/Hospital-Ernesto-Dornelles/206166946073346", "contact:instagram": "nan", "toilets:wheelchair": "nan", "contact:phone": "nan", "contact:website": "nan", "building:levels": "nan", "operator:type": "nan", "email": "nan", "description": "nan", "fence_type": "nan", "aeroway": "nan", "ways": "nan", "type": "nan" }, "geometry": { "type": "Polygon", "coordinates": [ [ [ -51.2134204, -30.0478488 ], [ -51.2133349, -30.0483894 ], [ -51.2132988, -30.0484394 ], [ -51.21307, -30.0485809 ], [ -51.2114799, -30.0477663 ], [ -51.2118235, -30.0472927 ], [ -51.2125055, -30.0476491 ], [ -51.2128378, -30.0477393 ], [ -51.2134204, -30.0478488 ] ] ] } },
{ "type": "Feature", "properties": { "element_type": "way", "osmid": "353491145", "addr:city": "Porto Alegre", "addr:housenumber": "910", "addr:postcode": "90035-000", "addr:street": "Rua Ramiro Barcelos", "addr:suburb": "Moinhos de Vento", "amenity": "hospital", "healthcare": "hospital", "name": "Hospital Moinhos de Vento", "operator": "nan", "ref:CNES": "3006522", "ref:vatin": "BR92685833000151", "emergency": "yes", "phone": "+55 51 3314-3434;+55 51 3314-3300", "website": "https://www.hospitalmoinhos.org.br", "name:en": "nan", "alt_name": "nan", "fixme": "nan", "official_name": "nan", "operator:ref:vatin": "nan", "start_date": "nan", "wheelchair": "nan", "wikidata": "nan", "wikipedia": "nan", "short_name": "nan", "barrier": "nan", "opening_hours": "24/7", "note": "nan", "nodes": [ 3592833293, 3592833294, 3592833295, 3592833296, 4200407198, 3592833297, 3592833298, 4200407197, 3592833300, 3592833301, 3592833302, 5640567441, 5640567438, 3592833303, 3592833304, 3592833293 ], "building": "nan", "height": "nan", "ref": "nan", "wall": "nan", "healthcare:speciality": "nan", "loc_name": "nan", "contact:facebook": "HospitalMoinhos", "contact:instagram": "hospitalmoinhosdevento", "toilets:wheelchair": "nan", "contact:phone": "nan", "contact:website": "nan", "building:levels": "nan", "operator:type": "nan", "email": "nan", "description": "nan", "fence_type": "nan", "aeroway": "nan", "ways": "nan", "type": "nan" }, "geometry": { "type": "Polygon", "coordinates": [ [ [ -51.2093392, -30.0263394 ], [ -51.2090871, -30.0269526 ], [ -51.2080451, -30.0260985 ], [ -51.207919, -30.0261868 ], [ -51.2076669, -30.0261357 ], [ -51.2077098, -30.025976 ], [ -51.2073477, -30.0257398 ], [ -51.2070218, -30.0255517 ], [ -51.2076086, -30.0242947 ], [ -51.2078406, -30.0245119 ], [ -51.2080726, -30.0243226 ], [ -51.2086535, -30.0248679 ], [ -51.2087095, -30.0249205 ], [ -51.2091534, -30.0253373 ], [ -51.2087004, -30.0257012 ], [ -51.2093392, -30.0263394 ] ] ] } },
{ "type": "Feature", "properties": { "element_type": "way", "osmid": "372535694", "addr:city": "Porto Alegre", "addr:housenumber": "3330", "addr:postcode": "91796-000", "addr:street": "Avenida João Antônio da Silveira", "addr:suburb": "Restinga", "amenity": "hospital", "healthcare": "hospital", "name": "Hospital Restinga e Extremo-Sul", "operator": "Hospital Moinhos", "ref:CNES": "7513151", "ref:vatin": "BR04994418000384", "emergency": "yes", "phone": "+55 51 3250-1411", "website": "http://www.hres.org.br/", "name:en": "nan", "alt_name": "nan", "fixme": "nan", "official_name": "nan", "operator:ref:vatin": "nan", "start_date": "nan", "wheelchair": "yes", "wikidata": "nan", "wikipedia": "nan", "short_name": "nan", "barrier": "fence", "opening_hours": "nan", "note": "nan", "nodes": [ 3760983957, 4670398058, 4670398081, 8746049928, 8746049927, 4670398096, 6784035001, 3760983959, 3760983960, 3760983961, 4670398098, 3760983962, 4670398046, 3760983964, 2506559405, 4670396570, 4670396561, 3760983966, 4670396573, 4670396583, 4670398033, 4670398041, 3760983957 ], "building": "nan", "height": "nan", "ref": "nan", "wall": "nan", "healthcare:speciality": "nan", "loc_name": "nan", "contact:facebook": "nan", "contact:instagram": "nan", "toilets:wheelchair": "nan", "contact:phone": "nan", "contact:website": "nan", "building:levels": "nan", "operator:type": "nan", "email": "faleconosco@hres.org.br", "description": "nan", "fence_type": "concrete", "aeroway": "nan", "ways": "nan", "type": "nan" }, "geometry": { "type": "Polygon", "coordinates": [ [ [ -51.1300211, -30.1424844 ], [ -51.1298228, -30.1427641 ], [ -51.1295, -30.1432119 ], [ -51.1294984, -30.1432138 ], [ -51.1294149, -30.1433134 ], [ -51.1292609, -30.1434626 ], [ -51.1289269, -30.1436996 ], [ -51.1288261, -30.1437711 ], [ -51.128407, -30.1434649 ], [ -51.128218, -30.1436294 ], [ -51.1281604, -30.1435661 ], [ -51.1277723, -30.1431884 ], [ -51.1277339, -30.1424959 ], [ -51.1278004, -30.1418882 ], [ -51.1279446, -30.1415032 ], [ -51.1281206, -30.1412914 ], [ -51.1282021, -30.1411933 ], [ -51.1282859, -30.1411896 ], [ -51.1285163, -30.1413081 ], [ -51.1287089, -30.1414439 ], [ -51.1298647, -30.1422588 ], [ -51.1300078, -30.1423961 ], [ -51.1300211, -30.1424844 ] ] ] } },
{ "type": "Feature", "properties": { "element_type": "way", "osmid": "404111241", "addr:city": "nan", "addr:housenumber": "17", "addr:postcode": "90430-001", "addr:street": "Rua Mostardeiro", "addr:suburb": "nan", "amenity": "hospital", "healthcare": "hospital", "name": "Hospital Fêmina", "operator": "Grupo Hospitalar Conceição", "ref:CNES": "2265052", "ref:vatin": "BR92787118000200", "emergency": "nan", "phone": "+55 51 3314-5200", "website": "https://www.ghc.com.br/default.asp?idMenu=unidades&idSubMenu=2", "name:en": "nan", "alt_name": "nan", "fixme": "nan", "official_name": "nan", "operator:ref:vatin": "nan", "start_date": "nan", "wheelchair": "nan", "wikidata": "nan", "wikipedia": "nan", "short_name": "nan", "barrier": "nan", "opening_hours": "nan", "note": "nan", "nodes": [ 4063818583, 6584586981, 4063818584, 4063818585, 4063818586, 4063818583 ], "building": "hospital", "height": "nan", "ref": "nan", "wall": "nan", "healthcare:speciality": "nan", "loc_name": "nan", "contact:facebook": "nan", "contact:instagram": "nan", "toilets:wheelchair": "nan", "contact:phone": "nan", "contact:website": "nan", "building:levels": "nan", "operator:type": "private", "email": "nan", "description": "nan", "fence_type": "nan", "aeroway": "nan", "ways": "nan", "type": "nan" }, "geometry": { "type": "Polygon", "coordinates": [ [ [ -51.2071084, -30.0291367 ], [ -51.2070725, -30.029136 ], [ -51.2065803, -30.0291261 ], [ -51.2065765, -30.0292676 ], [ -51.2071046, -30.0292782 ], [ -51.2071084, -30.0291367 ] ] ] } },
{ "type": "Feature", "properties": { "element_type": "way", "osmid": "410386427", "addr:city": "Alvorada", "addr:housenumber": "170", "addr:postcode": "94801-970", "addr:street": "Rua Jaci Zamim", "addr:suburb": "Três Figueiras", "amenity": "hospital", "healthcare": "hospital", "name": "Hospital de Alvorada", "operator": "nan", "ref:CNES": "2232081", "ref:vatin": "BR92898550000279", "emergency": "nan", "phone": "+55 51 3412 1300", "website": "nan", "name:en": "nan", "alt_name": "nan", "fixme": "nan", "official_name": "nan", "operator:ref:vatin": "nan", "start_date": "nan", "wheelchair": "nan", "wikidata": "nan", "wikipedia": "nan", "short_name": "nan", "barrier": "nan", "opening_hours": "nan", "note": "nan", "nodes": [ 4122190411, 4122190412, 4122190413, 4122190414, 4122190415, 7313112185, 4122190416, 4122190417, 944590273, 4122190418, 4122190411 ], "building": "nan", "height": "nan", "ref": "nan", "wall": "nan", "healthcare:speciality": "nan", "loc_name": "nan", "contact:facebook": "nan", "contact:instagram": "nan", "toilets:wheelchair": "nan", "contact:phone": "nan", "contact:website": "nan", "building:levels": "nan", "operator:type": "nan", "email": "nan", "description": "nan", "fence_type": "nan", "aeroway": "nan", "ways": "nan", "type": "nan" }, "geometry": { "type": "Polygon", "coordinates": [ [ [ -51.0745978, -30.0081684 ], [ -51.0745688, -30.0084862 ], [ -51.0744041, -30.0084749 ], [ -51.0743968, -30.0085546 ], [ -51.0743451, -30.0085511 ], [ -51.0743509, -30.0084883 ], [ -51.0739695, -30.0084622 ], [ -51.0739636, -30.0085272 ], [ -51.0739293, -30.0085249 ], [ -51.0739658, -30.0081251 ], [ -51.0745978, -30.0081684 ] ] ] } },
{ "type": "Feature", "properties": { "element_type": "way", "osmid": "419347194", "addr:city": "nan", "addr:housenumber": "233", "addr:postcode": "90430-001", "addr:street": "Rua Mostardeiro", "addr:suburb": "nan", "amenity": "hospital", "healthcare": "hospital", "name": "Pronto Socorro Cruz Azul", "operator": "nan", "ref:CNES": "5289327", "ref:vatin": "BR94235447000193", "emergency": "nan", "phone": "+55 51 3222-7777", "website": "https://www.prontosocorrocruzazul.com.br/", "name:en": "nan", "alt_name": "Pronto Socorro Traumazul", "fixme": "nan", "official_name": "nan", "operator:ref:vatin": "nan", "start_date": "nan", "wheelchair": "nan", "wikidata": "nan", "wikipedia": "nan", "short_name": "nan", "barrier": "nan", "opening_hours": "nan", "note": "nan", "nodes": [ 4194271473, 4194270989, 4194270987, 4194270528, 4194270529, 4194270505, 4194268385, 4194270324, 4194270300, 4194270289, 4194269682, 4194269677, 4194269675, 4194269679, 4194269686, 4194270293, 4194270319, 4194268375, 4194270521, 4194270508, 4194271468, 4194271469, 4194271527, 4194271526, 4194271740, 4194272307, 4194272309, 4194272065, 4194270277, 4194270285, 4194270286, 4194270287, 4194270280, 4194270261, 4194272056, 4194272037, 4194272024, 4194272007, 4194272006, 4194271472, 4194271473 ], "building": "yes", "height": "nan", "ref": "nan", "wall": "nan", "healthcare:speciality": "nan", "loc_name": "nan", "contact:facebook": "nan", "contact:instagram": "nan", "toilets:wheelchair": "nan", "contact:phone": "nan", "contact:website": "nan", "building:levels": "nan", "operator:type": "nan", "email": "nan", "description": "nan", "fence_type": "nan", "aeroway": "nan", "ways": "nan", "type": "nan" }, "geometry": { "type": "Polygon", "coordinates": [ [ [ -51.2049463, -30.0290259 ], [ -51.2049476, -30.0289751 ], [ -51.2049099, -30.0289743 ], [ -51.2049115, -30.0289137 ], [ -51.2049026, -30.0289138 ], [ -51.2049019, -30.0289111 ], [ -51.2049009, -30.0289087 ], [ -51.2048976, -30.0289041 ], [ -51.2048939, -30.0289005 ], [ -51.2048905, -30.0288979 ], [ -51.2048867, -30.0288961 ], [ -51.2048819, -30.028895 ], [ -51.2048759, -30.0288947 ], [ -51.2048701, -30.0288952 ], [ -51.2048655, -30.0288969 ], [ -51.2048614, -30.0288995 ], [ -51.2048575, -30.0289034 ], [ -51.2048552, -30.0289075 ], [ -51.2048535, -30.0289127 ], [ -51.2048071, -30.0289115 ], [ -51.2048041, -30.0290243 ], [ -51.204807, -30.0290244 ], [ -51.2048067, -30.0290366 ], [ -51.2048038, -30.0290365 ], [ -51.2048031, -30.0290636 ], [ -51.2048011, -30.0291367 ], [ -51.204843, -30.0291376 ], [ -51.2048433, -30.0291242 ], [ -51.2048544, -30.0291284 ], [ -51.204859, -30.0291297 ], [ -51.2048641, -30.0291304 ], [ -51.2048797, -30.0291304 ], [ -51.2048868, -30.0291286 ], [ -51.2048942, -30.0291252 ], [ -51.2049, -30.0291216 ], [ -51.2049043, -30.0291168 ], [ -51.2049066, -30.0291113 ], [ -51.2049071, -30.0291057 ], [ -51.2049089, -30.0291056 ], [ -51.2049101, -30.0290251 ], [ -51.2049463, -30.0290259 ] ] ] } },
{ "type": "Feature", "properties": { "element_type": "way", "osmid": "425565073", "addr:city": "nan", "addr:housenumber": "145", "addr:postcode": "nan", "addr:street": "Rua da Gruta", "addr:suburb": "Cascata", "amenity": "hospital", "healthcare": "hospital", "name": "Hospital Divina Providência", "operator": "nan", "ref:CNES": "2237598", "ref:vatin": "BR87317764001084", "emergency": "yes", "phone": "nan", "website": "nan", "name:en": "nan", "alt_name": "nan", "fixme": "nan", "official_name": "nan", "operator:ref:vatin": "BR87317764000193", "start_date": "nan", "wheelchair": "nan", "wikidata": "nan", "wikipedia": "nan", "short_name": "nan", "barrier": "nan", "opening_hours": "nan", "note": "nan", "nodes": [ 4248610605, 3231707376, 4248612766, 4248615196, 4248615189, 4248613708, 4248612235, 4248611002, 4248610111, 4248610304, 4248609878, 4248608212, 4248610605 ], "building": "nan", "height": "nan", "ref": "nan", "wall": "nan", "healthcare:speciality": "nan", "loc_name": "nan", "contact:facebook": "nan", "contact:instagram": "nan", "toilets:wheelchair": "nan", "contact:phone": "+55 51 3320-6000", "contact:website": "http://www.divinaprovidencia.org.br", "building:levels": "nan", "operator:type": "nan", "email": "nan", "description": "nan", "fence_type": "nan", "aeroway": "nan", "ways": "nan", "type": "nan" }, "geometry": { "type": "Polygon", "coordinates": [ [ [ -51.1890721, -30.0845195 ], [ -51.1891934, -30.085007 ], [ -51.1883345, -30.0851392 ], [ -51.187224, -30.0855291 ], [ -51.1870899, -30.0855267 ], [ -51.1867815, -30.0853504 ], [ -51.1867922, -30.0849372 ], [ -51.1862879, -30.084668 ], [ -51.1864837, -30.0843686 ], [ -51.1870336, -30.0844383 ], [ -51.1879375, -30.0843431 ], [ -51.1886657, -30.0845821 ], [ -51.1890721, -30.0845195 ] ] ] } },
{ "type": "Feature", "properties": { "element_type": "way", "osmid": "442584818", "addr:city": "nan", "addr:housenumber": "nan", "addr:postcode": "nan", "addr:street": "nan", "addr:suburb": "nan", "amenity": "hospital", "healthcare": "hospital", "name": "Hospital Beneficência Portuguesa", "operator": "nan", "ref:CNES": "nan", "ref:vatin": "nan", "emergency": "nan", "phone": "+55 51 3023-9000", "website": "http://www.beneficenciars.org.br/", "name:en": "nan", "alt_name": "nan", "fixme": "nan", "official_name": "nan", "operator:ref:vatin": "nan", "start_date": "nan", "wheelchair": "nan", "wikidata": "nan", "wikipedia": "pt:Beneficência Portuguesa de Porto Alegre", "short_name": "nan", "barrier": "nan", "opening_hours": "nan", "note": "nan", "nodes": [ 4402604867, 7710134020, 7710134019, 4402604865, 4402604873, 7710134021, 7710134022, 7710134023, 7710134024, 7710134025, 7710134026, 4402604874, 4194273891, 4194273562, 4279189814, 4194273520, 4194273418, 4279189811, 4194271507, 7710134018, 4402604872, 7710134027, 4402604868, 7710134029, 7710134028, 4402604867 ], "building": "nan", "height": "nan", "ref": "nan", "wall": "nan", "healthcare:speciality": "nan", "loc_name": "nan", "contact:facebook": "nan", "contact:instagram": "nan", "toilets:wheelchair": "nan", "contact:phone": "nan", "contact:website": "nan", "building:levels": "nan", "operator:type": "nan", "email": "nan", "description": "nan", "fence_type": "nan", "aeroway": "nan", "ways": "nan", "type": "nan" }, "geometry": { "type": "Polygon", "coordinates": [ [ [ -51.2192877, -30.0284848 ], [ -51.2190141, -30.028472 ], [ -51.2190127, -30.0285092 ], [ -51.2183113, -30.0284848 ], [ -51.2182681, -30.0292926 ], [ -51.2187345, -30.0293097 ], [ -51.2187338, -30.0293225 ], [ -51.2188176, -30.0293295 ], [ -51.218821, -30.029315 ], [ -51.2189001, -30.0293173 ], [ -51.2189014, -30.0293254 ], [ -51.219057, -30.0293306 ], [ -51.2190575, -30.0293166 ], [ -51.2190605, -30.0292786 ], [ -51.2190607, -30.0292767 ], [ -51.2190612, -30.02927 ], [ -51.2190628, -30.0292495 ], [ -51.2190779, -30.0290602 ], [ -51.21908, -30.0290333 ], [ -51.2192447, -30.0290357 ], [ -51.2192441, -30.0290642 ], [ -51.2193574, -30.0290688 ], [ -51.2193815, -30.028825 ], [ -51.2193668, -30.028681 ], [ -51.2193333, -30.0285765 ], [ -51.2192877, -30.0284848 ] ] ] } },
{ "type": "Feature", "properties": { "element_type": "way", "osmid": "479605730", "addr:city": "nan", "addr:housenumber": "nan", "addr:postcode": "nan", "addr:street": "nan", "addr:suburb": "nan", "amenity": "hospital", "healthcare": "hospital", "name": "Hospital Padre Jeremias", "operator": "nan", "ref:CNES": "nan", "ref:vatin": "nan", "emergency": "nan", "phone": "nan", "website": "nan", "name:en": "nan", "alt_name": "nan", "fixme": "nan", "official_name": "nan", "operator:ref:vatin": "nan", "start_date": "nan", "wheelchair": "nan", "wikidata": "nan", "wikipedia": "nan", "short_name": "nan", "barrier": "nan", "opening_hours": "nan", "note": "nan", "nodes": [ 5152910131, 5152910130, 5152910132, 5152910135, 5152910131 ], "building": "nan", "height": "nan", "ref": "nan", "wall": "nan", "healthcare:speciality": "nan", "loc_name": "nan", "contact:facebook": "nan", "contact:instagram": "nan", "toilets:wheelchair": "nan", "contact:phone": "nan", "contact:website": "nan", "building:levels": "nan", "operator:type": "nan", "email": "nan", "description": "nan", "fence_type": "nan", "aeroway": "nan", "ways": "nan", "type": "nan" }, "geometry": { "type": "Polygon", "coordinates": [ [ [ -51.0812421, -29.9401985 ], [ -51.0799513, -29.9393916 ], [ -51.0790373, -29.9404895 ], [ -51.0803282, -29.9412964 ], [ -51.0812421, -29.9401985 ] ] ] } },
{ "type": "Feature", "properties": { "element_type": "way", "osmid": "543874290", "addr:city": "nan", "addr:housenumber": "nan", "addr:postcode": "nan", "addr:street": "nan", "addr:suburb": "nan", "amenity": "hospital", "healthcare": "hospital", "name": "Hospital da Aeronáutica de Canoas - HACO", "operator": "nan", "ref:CNES": "nan", "ref:vatin": "nan", "emergency": "nan", "phone": "nan", "website": "nan", "name:en": "nan", "alt_name": "nan", "fixme": "nan", "official_name": "nan", "operator:ref:vatin": "nan", "start_date": "nan", "wheelchair": "nan", "wikidata": "nan", "wikipedia": "nan", "short_name": "nan", "barrier": "nan", "opening_hours": "nan", "note": "nan", "nodes": [ 5214677941, 5257554931, 5257554932, 5257554933, 5257554934, 5257554935, 5257554936, 5257554937, 5214677941 ], "building": "nan", "height": "nan", "ref": "nan", "wall": "nan", "healthcare:speciality": "nan", "loc_name": "nan", "contact:facebook": "nan", "contact:instagram": "nan", "toilets:wheelchair": "nan", "contact:phone": "nan", "contact:website": "nan", "building:levels": "nan", "operator:type": "nan", "email": "nan", "description": "nan", "fence_type": "nan", "aeroway": "nan", "ways": "nan", "type": "nan" }, "geometry": { "type": "Polygon", "coordinates": [ [ [ -51.1830164, -29.9295444 ], [ -51.1829189, -29.9296396 ], [ -51.1828863, -29.9296349 ], [ -51.182738, -29.9297793 ], [ -51.1827644, -29.9297969 ], [ -51.1824778, -29.930077 ], [ -51.1827725, -29.930306 ], [ -51.1833071, -29.9297546 ], [ -51.1830164, -29.9295444 ] ] ] } },
{ "type": "Feature", "properties": { "element_type": "way", "osmid": "545052381", "addr:city": "nan", "addr:housenumber": "nan", "addr:postcode": "nan", "addr:street": "nan", "addr:suburb": "nan", "amenity": "hospital", "healthcare": "hospital", "name": "Hospital Unimed", "operator": "nan", "ref:CNES": "nan", "ref:vatin": "nan", "emergency": "yes", "phone": "nan", "website": "nan", "name:en": "nan", "alt_name": "nan", "fixme": "nan", "official_name": "nan", "operator:ref:vatin": "nan", "start_date": "nan", "wheelchair": "nan", "wikidata": "nan", "wikipedia": "nan", "short_name": "nan", "barrier": "nan", "opening_hours": "nan", "note": "nan", "nodes": [ 5268290659, 7716547583, 5268290660, 7716547584, 5268290664, 5268290665, 5268290666, 5268290667, 7716577085, 5268290668, 5268290669, 5268290670, 5268290671, 7716547582, 5268290672, 5268290673, 5268290674, 5268290675, 5268290676, 5268290677, 5268290678, 5268290679, 5268290659 ], "building": "nan", "height": "nan", "ref": "nan", "wall": "nan", "healthcare:speciality": "nan", "loc_name": "nan", "contact:facebook": "nan", "contact:instagram": "nan", "toilets:wheelchair": "nan", "contact:phone": "nan", "contact:website": "nan", "building:levels": "nan", "operator:type": "nan", "email": "nan", "description": "nan", "fence_type": "nan", "aeroway": "no", "ways": "nan", "type": "nan" }, "geometry": { "type": "Polygon", "coordinates": [ [ [ -51.3145638, -30.1065448 ], [ -51.3148239, -30.1065424 ], [ -51.3150653, -30.1065494 ], [ -51.3152973, -30.1065506 ], [ -51.3154355, -30.106554 ], [ -51.3155347, -30.1065482 ], [ -51.3154985, -30.1064322 ], [ -51.3154636, -30.1063185 ], [ -51.3156366, -30.1062617 ], [ -51.3156004, -30.1061909 ], [ -51.3157493, -30.1061294 ], [ -51.3157158, -30.106076 ], [ -51.3156769, -30.1060169 ], [ -51.3153107, -30.1060215 ], [ -51.3153077, -30.105984 ], [ -51.3152321, -30.1059912 ], [ -51.3151818, -30.1058047 ], [ -51.3151535, -30.1056913 ], [ -51.3149492, -30.1057496 ], [ -51.314714, -30.1058055 ], [ -51.3147354, -30.1058811 ], [ -51.3144819, -30.1059322 ], [ -51.3145638, -30.1065448 ] ] ] } },
{ "type": "Feature", "properties": { "element_type": "way", "osmid": "546876869", "addr:city": "nan", "addr:housenumber": "800", "addr:postcode": "92704-305", "addr:street": "Rua São Paulo", "addr:suburb": "Centro", "amenity": "hospital", "healthcare": "hospital", "name": "Hospital Regional Nelson Cornetet", "operator": "nan", "ref:CNES": "181927", "ref:vatin": "BR04994418000546", "emergency": "nan", "phone": "nan", "website": "nan", "name:en": "nan", "alt_name": "nan", "fixme": "nan", "official_name": "nan", "operator:ref:vatin": "nan", "start_date": "nan", "wheelchair": "nan", "wikidata": "nan", "wikipedia": "nan", "short_name": "nan", "barrier": "nan", "opening_hours": "nan", "note": "nan", "nodes": [ 5284415664, 5284415678, 5284415679, 5284415680, 5284415681, 5284415682, 5284415683, 5284415684, 5284415685, 5284415686, 5284415687, 5284415688, 5284415664 ], "building": "nan", "height": "nan", "ref": "nan", "wall": "nan", "healthcare:speciality": "nan", "loc_name": "nan", "contact:facebook": "nan", "contact:instagram": "nan", "toilets:wheelchair": "nan", "contact:phone": "nan", "contact:website": "nan", "building:levels": "nan", "operator:type": "nan", "email": "nan", "description": "nan", "fence_type": "nan", "aeroway": "nan", "ways": "nan", "type": "nan" }, "geometry": { "type": "Polygon", "coordinates": [ [ [ -51.3320265, -30.1121943 ], [ -51.3318632, -30.1122067 ], [ -51.3311883, -30.1124775 ], [ -51.3311436, -30.1124142 ], [ -51.3308387, -30.1125654 ], [ -51.3304809, -30.1121153 ], [ -51.3298548, -30.112467 ], [ -51.3306313, -30.1132688 ], [ -51.3307248, -30.1133884 ], [ -51.3307939, -30.1135712 ], [ -51.3308387, -30.1141093 ], [ -51.3322814, -30.1140034 ], [ -51.3320265, -30.1121943 ] ] ] } },
{ "type": "Feature", "properties": { "element_type": "way", "osmid": "647798564", "addr:city": "nan", "addr:housenumber": "nan", "addr:postcode": "nan", "addr:street": "nan", "addr:suburb": "nan", "amenity": "hospital", "healthcare": "hospital", "name": "Unidade de Pronto Atendimento", "operator": "Municipio", "ref:CNES": "nan", "ref:vatin": "nan", "emergency": "yes", "phone": "nan", "website": "nan", "name:en": "nan", "alt_name": "nan", "fixme": "nan", "official_name": "nan", "operator:ref:vatin": "nan", "start_date": "nan", "wheelchair": "nan", "wikidata": "nan", "wikipedia": "nan", "short_name": "nan", "barrier": "nan", "opening_hours": "nan", "note": "nan", "nodes": [ 6082935914, 6082935915, 3793210432, 6082933669, 6082933670, 6082935916, 6082935914 ], "building": "nan", "height": "nan", "ref": "nan", "wall": "nan", "healthcare:speciality": "emergency", "loc_name": "nan", "contact:facebook": "nan", "contact:instagram": "nan", "toilets:wheelchair": "nan", "contact:phone": "nan", "contact:website": "nan", "building:levels": "nan", "operator:type": "nan", "email": "nan", "description": "nan", "fence_type": "nan", "aeroway": "nan", "ways": "nan", "type": "nan" }, "geometry": { "type": "Polygon", "coordinates": [ [ [ -51.0701417, -30.0929392 ], [ -51.0695781, -30.0929627 ], [ -51.0695405, -30.0933233 ], [ -51.0698615, -30.0933476 ], [ -51.0698829, -30.0934596 ], [ -51.0701454, -30.0933976 ], [ -51.0701417, -30.0929392 ] ] ] } },
{ "type": "Feature", "properties": { "element_type": "way", "osmid": "1066302991", "addr:city": "nan", "addr:housenumber": "542", "addr:postcode": "nan", "addr:street": "Rua Fernandes Vieira, 542 - Bom Fim, Porto Alegre - RS, 90035-090", "addr:suburb": "nan", "amenity": "hospital", "healthcare": "hospital", "name": "Suksteris - Núcleo de Medicina", "operator": "nan", "ref:CNES": "nan", "ref:vatin": "nan", "emergency": "nan", "phone": "+55 51 3019-1440", "website": "https://nucleosuksteris.com.br/", "name:en": "nan", "alt_name": "nan", "fixme": "nan", "official_name": "nan", "operator:ref:vatin": "nan", "start_date": "nan", "wheelchair": "nan", "wikidata": "nan", "wikipedia": "nan", "short_name": "nan", "barrier": "nan", "opening_hours": "nan", "note": "nan", "nodes": [ 4194315140, 4194315137, 4194315122, 4194314584, 4194314689, 4194314690, 4194314693, 4194314696, 4194314699, 4194314700, 9791719147, 7180165695, 9791719146, 4194315140 ], "building": "nan", "height": "nan", "ref": "nan", "wall": "nan", "healthcare:speciality": "nan", "loc_name": "nan", "contact:facebook": "nan", "contact:instagram": "nan", "toilets:wheelchair": "nan", "contact:phone": "nan", "contact:website": "nan", "building:levels": "nan", "operator:type": "nan", "email": "nan", "description": "nan", "fence_type": "nan", "aeroway": "nan", "ways": "nan", "type": "nan" }, "geometry": { "type": "Polygon", "coordinates": [ [ [ -51.2108482, -30.0342712 ], [ -51.2108153, -30.0342709 ], [ -51.2104279, -30.0342675 ], [ -51.2104285, -30.034209 ], [ -51.2105702, -30.0342103 ], [ -51.2106205, -30.0342107 ], [ -51.2107276, -30.0342116 ], [ -51.2107732, -30.034212 ], [ -51.210843, -30.0342127 ], [ -51.2108541, -30.0342127 ], [ -51.2108863, -30.034213 ], [ -51.210886, -30.034241 ], [ -51.2108856, -30.0342715 ], [ -51.2108482, -30.0342712 ] ] ] } },
{ "type": "Feature", "properties": { "element_type": "way", "osmid": "1070603549", "addr:city": "nan", "addr:housenumber": "2040", "addr:postcode": "nan", "addr:street": "Rua Coronel Lucas de Oliveira", "addr:suburb": "nan", "amenity": "hospital", "healthcare": "hospital", "name": "Hospital Petrópolis", "operator": "nan", "ref:CNES": "nan", "ref:vatin": "nan", "emergency": "nan", "phone": "nan", "website": "nan", "name:en": "nan", "alt_name": "nan", "fixme": "nan", "official_name": "nan", "operator:ref:vatin": "nan", "start_date": "nan", "wheelchair": "nan", "wikidata": "nan", "wikipedia": "nan", "short_name": "nan", "barrier": "nan", "opening_hours": "nan", "note": "nan", "nodes": [ 9825173480, 4237526818, 4237526847, 4237526549, 4237526564, 4237526542, 4237525679, 4237526268, 4237525357, 4237525362, 4237524583, 4237525084, 9825173478, 9825173477, 440760740, 9825173480 ], "building": "nan", "height": "nan", "ref": "nan", "wall": "nan", "healthcare:speciality": "nan", "loc_name": "nan", "contact:facebook": "nan", "contact:instagram": "nan", "toilets:wheelchair": "nan", "contact:phone": "+55 51 3331-6700", "contact:website": "http://www.hospitalpetropolis.com.br", "building:levels": "nan", "operator:type": "nan", "email": "nan", "description": "nan", "fence_type": "nan", "aeroway": "nan", "ways": "nan", "type": "nan" }, "geometry": { "type": "Polygon", "coordinates": [ [ [ -51.1945255, -30.0412166 ], [ -51.1943351, -30.0412465 ], [ -51.1941393, -30.0412803 ], [ -51.1940202, -30.0413009 ], [ -51.1939355, -30.0413155 ], [ -51.1939305, -30.0412934 ], [ -51.1939077, -30.0411916 ], [ -51.1938819, -30.041077 ], [ -51.1938551, -30.0409575 ], [ -51.1937826, -30.040971 ], [ -51.1937426, -30.040762 ], [ -51.1937282, -30.0406901 ], [ -51.1937105, -30.0405882 ], [ -51.1943612, -30.0405722 ], [ -51.1944464, -30.0408938 ], [ -51.1945255, -30.0412166 ] ] ] } },
{ "type": "Feature", "properties": { "element_type": "way", "osmid": "1186451658", "addr:city": "Canoas", "addr:housenumber": "1864", "addr:postcode": "92030-300", "addr:street": "Avenida Santos Ferreira", "addr:suburb": "Mal. Rondon", "amenity": "hospital", "healthcare": "hospital", "name": "Hospital Nossa Senhora das Graças", "operator": "Associação Beneficente de Canoas", "ref:CNES": "nan", "ref:vatin": "nan", "emergency": "yes", "phone": "nan", "website": "nan", "name:en": "nan", "alt_name": "nan", "fixme": "nan", "official_name": "nan", "operator:ref:vatin": "nan", "start_date": "nan", "wheelchair": "nan", "wikidata": "nan", "wikipedia": "nan", "short_name": "nan", "barrier": "nan", "opening_hours": "nan", "note": "nan", "nodes": [ 11019620248, 11019620249, 11019620250, 11019620251, 11019620252, 11019620253, 11019620248 ], "building": "nan", "height": "nan", "ref": "nan", "wall": "nan", "healthcare:speciality": "nan", "loc_name": "nan", "contact:facebook": "nan", "contact:instagram": "nan", "toilets:wheelchair": "nan", "contact:phone": "nan", "contact:website": "nan", "building:levels": "nan", "operator:type": "private_non_profit", "email": "nan", "description": "nan", "fence_type": "nan", "aeroway": "nan", "ways": "nan", "type": "nan" }, "geometry": { "type": "Polygon", "coordinates": [ [ [ -51.1622348, -29.9272333 ], [ -51.1617995, -29.9266402 ], [ -51.1609096, -29.927116 ], [ -51.1613352, -29.9277258 ], [ -51.1614368, -29.9276797 ], [ -51.1614174, -29.9276609 ], [ -51.1622348, -29.9272333 ] ] ] } },
{ "type": "Feature", "properties": { "element_type": "relation", "osmid": "6232100", "addr:city": "Porto Alegre", "addr:housenumber": "661", "addr:postcode": "90035-052", "addr:street": "Avenida Independência", "addr:suburb": "Bom Fim", "amenity": "hospital", "healthcare": "hospital", "name": "Hospital Presidente Vargas", "operator": "nan", "ref:CNES": "2237822", "ref:vatin": "nan", "emergency": "nan", "phone": "nan", "website": "nan", "name:en": "nan", "alt_name": "nan", "fixme": "nan", "official_name": "nan", "operator:ref:vatin": "BR92963560000160", "start_date": "nan", "wheelchair": "nan", "wikidata": "nan", "wikipedia": "nan", "short_name": "nan", "barrier": "nan", "opening_hours": "nan", "note": "nan", "nodes": [ [ [ 4194274165, 4194274538, 4194274547, 4194275071, 4194275612, 4194275749, 4194275745, 4194275810, 4194275791, 4194275719, 4194275716, 4194275715, 4194274497, 4194274503, 4194274130, 4194274165 ] ] ], "building": "hospital", "height": "nan", "ref": "nan", "wall": "nan", "healthcare:speciality": "nan", "loc_name": "nan", "contact:facebook": "nan", "contact:instagram": "nan", "toilets:wheelchair": "nan", "contact:phone": "nan", "contact:website": "nan", "building:levels": "8", "operator:type": "nan", "email": "nan", "description": "nan", "fence_type": "nan", "aeroway": "nan", "ways": [ 419339463 ], "type": "multipolygon" }, "geometry": { "type": "Polygon", "coordinates": [ [ [ -51.214543, -30.0294514 ], [ -51.2145444, -30.0294826 ], [ -51.2145092, -30.0294837 ], [ -51.2145104, -30.0295129 ], [ -51.214513, -30.0295726 ], [ -51.214515, -30.0296199 ], [ -51.2145552, -30.0296187 ], [ -51.2145566, -30.0296513 ], [ -51.2149179, -30.0296397 ], [ -51.2149166, -30.0296088 ], [ -51.2149469, -30.0296078 ], [ -51.2149502, -30.0296077 ], [ -51.2149443, -30.0294705 ], [ -51.2149081, -30.0294716 ], [ -51.2149067, -30.0294397 ], [ -51.214543, -30.0294514 ] ] ] } },
{ "type": "Feature", "properties": { "element_type": "relation", "osmid": "12348441", "addr:city": "Canoas", "addr:housenumber": "534", "addr:postcode": "92120-220", "addr:street": "Rua 1º de Maio", "addr:suburb": "nan", "amenity": "hospital", "healthcare": "hospital", "name": "UPA16h Nitéroi", "operator": "nan", "ref:CNES": "2230216", "ref:vatin": "nan", "emergency": "yes", "phone": "+55 51 3475 2026", "website": "nan", "name:en": "nan", "alt_name": "nan", "fixme": "nan", "official_name": "nan", "operator:ref:vatin": "BR88577416000118", "start_date": "nan", "wheelchair": "nan", "wikidata": "nan", "wikipedia": "nan", "short_name": "nan", "barrier": "nan", "opening_hours": "nan", "note": "nan", "nodes": [ [ [ 8445990490, 8445990494, 8445990495, 8445990491 ], [ 8445990490, 8445990491 ] ] ], "building": "nan", "height": "nan", "ref": "nan", "wall": "nan", "healthcare:speciality": "nan", "loc_name": "nan", "contact:facebook": "nan", "contact:instagram": "nan", "toilets:wheelchair": "nan", "contact:phone": "nan", "contact:website": "nan", "building:levels": "nan", "operator:type": "nan", "email": "nan", "description": "nan", "fence_type": "nan", "aeroway": "nan", "ways": [ 909648389, 909648390 ], "type": "multipolygon" }, "geometry": { "type": "Polygon", "coordinates": [ [ [ -51.1704936, -29.9512855 ], [ -51.170488, -29.9516985 ], [ -51.1709426, -29.9517096 ], [ -51.1709496, -29.9512974 ], [ -51.1704936, -29.9512855 ] ] ] } }
]
}
