{
"type": "FeatureCollection",
"crs": { "type": "name", "properties": { "name": "urn:ogc:def:crs:OGC:1.3:CRS84" } },
"features": [
{ "type": "Feature", "properties": { "element_type": "way", "osmid": "70069343", "barrier": "nan", "nodes": [ 836916917, 836916918, 836916919, 836916920, 836916917 ], "addr:housenumber": "2105", "addr:street": "Avenida Santos Ferreira", "landuse": "cemetery", "name": "Cemitério Municipal Chácara Barreto", "religion": "nan", "source": "nan", "addr:postcode": "nan", "artist_name": "nan", "denomination": "nan", "fixme": "nan", "official_name": "nan", "phone": "nan", "start_date": "nan", "website": "nan", "fence_type": "nan", "opening_hours": "nan", "operator": "nan", "wikipedia": "nan", "alt_name": "nan", "email": "nan", "name:es": "nan", "old_name": "nan", "wheelchair": "nan", "addr:city": "nan", "addr:suburb": "nan", "ways": "nan", "type": "nan" }, "geometry": { "type": "Polygon", "coordinates": [ [ [ -51.1608213, -29.928231 ], [ -51.1608642, -29.9290957 ], [ -51.1591261, -29.9293654 ], [ -51.1591691, -29.9284263 ], [ -51.1608213, -29.928231 ] ] ] } },
{ "type": "Feature", "properties": { "element_type": "way", "osmid": "70104938", "barrier": "nan", "nodes": [ 837369096, 837369097, 3236864920, 3236864921, 837369100, 837369101, 3236864919, 3236864918, 3236864917, 3236864916, 837369096 ], "addr:housenumber": "186", "addr:street": "Alameda Luiz Carlos Muller", "landuse": "cemetery", "name": "Cemitério Municipal Santo Antônio", "religion": "nan", "source": "nan", "addr:postcode": "nan", "artist_name": "nan", "denomination": "nan", "fixme": "nan", "official_name": "nan", "phone": "nan", "start_date": "nan", "website": "nan", "fence_type": "nan", "opening_hours": "nan", "operator": "nan", "wikipedia": "nan", "alt_name": "nan", "email": "nan", "name:es": "nan", "old_name": "nan", "wheelchair": "nan", "addr:city": "nan", "addr:suburb": "nan", "ways": "nan", "type": "nan" }, "geometry": { "type": "Polygon", "coordinates": [ [ [ -51.1487522, -29.9278928 ], [ -51.149566, -29.928155 ], [ -51.1497952, -29.9304114 ], [ -51.1499582, -29.9324212 ], [ -51.1499498, -29.9326891 ], [ -51.1491212, -29.9326069 ], [ -51.1488523, -29.9300944 ], [ -51.1487694, -29.9298319 ], [ -51.1488924, -29.9298211 ], [ -51.1488011, -29.9288836 ], [ -51.1487522, -29.9278928 ] ] ] } },
{ "type": "Feature", "properties": { "element_type": "way", "osmid": "70802959", "barrier": "nan", "nodes": [ 844324382, 8971262389, 844324390, 8969188143, 8969188142, 8969188141, 8969188140, 844324405, 844324407, 844324382 ], "addr:housenumber": "3721", "addr:street": "Avenida Santos Ferreira", "landuse": "cemetery", "name": "Cemitério Parque Jardim São Vicente", "religion": "nan", "source": "nan", "addr:postcode": "nan", "artist_name": "nan", "denomination": "nan", "fixme": "nan", "official_name": "nan", "phone": "nan", "start_date": "nan", "website": "nan", "fence_type": "nan", "opening_hours": "nan", "operator": "nan", "wikipedia": "nan", "alt_name": "nan", "email": "nan", "name:es": "nan", "old_name": "nan", "wheelchair": "nan", "addr:city": "nan", "addr:suburb": "nan", "ways": "nan", "type": "nan" }, "geometry": { "type": "Polygon", "coordinates": [ [ [ -51.1437127, -29.9255085 ], [ -51.1436481, -29.9275959 ], [ -51.1415935, -29.927712 ], [ -51.1415184, -29.9261127 ], [ -51.1414218, -29.9256943 ], [ -51.141218, -29.9252852 ], [ -51.1406601, -29.9246343 ], [ -51.1411429, -29.9246808 ], [ -51.1430097, -29.9251922 ], [ -51.1437127, -29.9255085 ] ] ] } },
{ "type": "Feature", "properties": { "element_type": "way", "osmid": "71335861", "barrier": "nan", "nodes": [ 848865439, 848865443, 848865445, 848865446, 848865439 ], "addr:housenumber": "nan", "addr:street": "Avenida do Nazário", "landuse": "cemetery", "name": "Cemitério Luterano São Paulo", "religion": "nan", "source": "nan", "addr:postcode": "nan", "artist_name": "nan", "denomination": "nan", "fixme": "nan", "official_name": "nan", "phone": "nan", "start_date": "nan", "website": "nan", "fence_type": "nan", "opening_hours": "nan", "operator": "nan", "wikipedia": "nan", "alt_name": "nan", "email": "nan", "name:es": "nan", "old_name": "nan", "wheelchair": "nan", "addr:city": "nan", "addr:suburb": "nan", "ways": "nan", "type": "nan" }, "geometry": { "type": "Polygon", "coordinates": [ [ [ -51.1334616, -29.9257123 ], [ -51.1339412, -29.9257369 ], [ -51.1337208, -29.9252992 ], [ -51.1332918, -29.9252913 ], [ -51.1334616, -29.9257123 ] ] ] } },
{ "type": "Feature", "properties": { "element_type": "way", "osmid": "80797842", "barrier": "nan", "nodes": [ 942243849, 942243851, 942243852, 942243853, 942243862, 942243863, 942243849 ], "addr:housenumber": "nan", "addr:street": "nan", "landuse": "cemetery", "name": "Cemitério Municipal São José Operário", "religion": "none", "source": "streetlevel imagery;local knowledge;https://www.alvorada.rs.gov.br/cemiterios-de-alvorada-se-preparam-para-o-dia-de-finados/", "addr:postcode": "nan", "artist_name": "nan", "denomination": "nan", "fixme": "nan", "official_name": "nan", "phone": "nan", "start_date": "nan", "website": "nan", "fence_type": "nan", "opening_hours": "nan", "operator": "nan", "wikipedia": "nan", "alt_name": "nan", "email": "nan", "name:es": "nan", "old_name": "nan", "wheelchair": "nan", "addr:city": "nan", "addr:suburb": "nan", "ways": "nan", "type": "nan" }, "geometry": { "type": "Polygon", "coordinates": [ [ [ -51.0667415, -30.0094367 ], [ -51.0663298, -30.0095401 ], [ -51.0662909, -30.0090837 ], [ -51.0662909, -30.0087678 ], [ -51.0662909, -30.0081732 ], [ -51.0667415, -30.0081639 ], [ -51.0667415, -30.0094367 ] ] ] } },
{ "type": "Feature", "properties": { "element_type": "way", "osmid": "89181715", "barrier": "nan", "nodes": [ 1034664417, 1034664448, 1034664435, 1034664428, 1034664417 ], "addr:housenumber": "nan", "addr:street": "nan", "landuse": "cemetery", "name": "nan", "religion": "nan", "source": "nan", "addr:postcode": "nan", "artist_name": "nan", "denomination": "nan", "fixme": "nan", "official_name": "nan", "phone": "nan", "start_date": "nan", "website": "nan", "fence_type": "nan", "opening_hours": "nan", "operator": "nan", "wikipedia": "nan", "alt_name": "nan", "email": "nan", "name:es": "nan", "old_name": "nan", "wheelchair": "nan", "addr:city": "nan", "addr:suburb": "nan", "ways": "nan", "type": "nan" }, "geometry": { "type": "Polygon", "coordinates": [ [ [ -51.176543, -30.2027315 ], [ -51.1772269, -30.2040651 ], [ -51.1757198, -30.2045662 ], [ -51.1750656, -30.2034033 ], [ -51.176543, -30.2027315 ] ] ] } },
{ "type": "Feature", "properties": { "element_type": "way", "osmid": "101572448", "barrier": "wall", "nodes": [ 1172849015, 1172849008, 1172849019, 2515244441, 8502805414, 8424508960, 1172849006, 1172849005, 1172849025, 1201655371, 1172849014, 1172849011, 1172849015 ], "addr:housenumber": "400", "addr:street": "Avenida Oscar Pereira", "landuse": "cemetery", "name": "Cemitério São Miguel e Almas", "religion": "christian", "source": "nan", "addr:postcode": "90640-070", "artist_name": "Armando Boni", "denomination": "catholic", "fixme": "Há muitas obras de arte no interior que deveriam constar no mapa.", "official_name": "Cemitério Irmandade de São Miguel e Almas", "phone": "+55 51 3021-8350", "start_date": "1773", "website": "http://www.cemiteriosaomiguel.org.br/", "fence_type": "nan", "opening_hours": "nan", "operator": "nan", "wikipedia": "nan", "alt_name": "nan", "email": "nan", "name:es": "nan", "old_name": "nan", "wheelchair": "nan", "addr:city": "nan", "addr:suburb": "nan", "ways": "nan", "type": "nan" }, "geometry": { "type": "Polygon", "coordinates": [ [ [ -51.2086561, -30.05464 ], [ -51.2093751, -30.0568959 ], [ -51.2098772, -30.0569821 ], [ -51.2100784, -30.0566513 ], [ -51.2102367, -30.0563269 ], [ -51.2111226, -30.0545147 ], [ -51.2112418, -30.0542726 ], [ -51.2107041, -30.0540814 ], [ -51.2106038, -30.0542626 ], [ -51.2102353, -30.0541492 ], [ -51.2099529, -30.0541783 ], [ -51.2098241, -30.0543848 ], [ -51.2086561, -30.05464 ] ] ] } },
{ "type": "Feature", "properties": { "element_type": "way", "osmid": "169287906", "barrier": "fence", "nodes": [ 1804541046, 8599515640, 8599515645, 8599515647, 1804541044, 1804541058, 1804541047, 8599515646, 1804541046 ], "addr:housenumber": "297", "addr:street": "Rua Ari Marinho", "landuse": "cemetery", "name": "Cemitério Municipal São João", "religion": "nan", "source": "nan", "addr:postcode": "nan", "artist_name": "nan", "denomination": "nan", "fixme": "nan", "official_name": "nan", "phone": "+55 51 3325-2451", "start_date": "1936", "website": "nan", "fence_type": "concrete", "opening_hours": "Su-Sa 09:00-17:30", "operator": "SMAM", "wikipedia": "pt:Cemitério Municipal São João", "alt_name": "nan", "email": "nan", "name:es": "nan", "old_name": "nan", "wheelchair": "nan", "addr:city": "nan", "addr:suburb": "nan", "ways": "nan", "type": "nan" }, "geometry": { "type": "Polygon", "coordinates": [ [ [ -51.1784851, -30.0181528 ], [ -51.1784054, -30.0181238 ], [ -51.1783384, -30.0180901 ], [ -51.1782853, -30.0180575 ], [ -51.1787024, -30.0132626 ], [ -51.1804412, -30.0133126 ], [ -51.1803415, -30.0170033 ], [ -51.1786141, -30.0181632 ], [ -51.1784851, -30.0181528 ] ] ] } },
{ "type": "Feature", "properties": { "element_type": "way", "osmid": "224121291", "barrier": "nan", "nodes": [ 2329506314, 2329506321, 2329506315, 2329506325, 2329506318, 2329506319, 2329506323, 2329506317, 2329506316, 2329506327, 2329506314 ], "addr:housenumber": "nan", "addr:street": "nan", "landuse": "cemetery", "name": "Cemitério Rui Coelho Gonçalves", "religion": "nan", "source": "nan", "addr:postcode": "nan", "artist_name": "nan", "denomination": "nan", "fixme": "nan", "official_name": "nan", "phone": "nan", "start_date": "nan", "website": "nan", "fence_type": "nan", "opening_hours": "nan", "operator": "nan", "wikipedia": "nan", "alt_name": "nan", "email": "nan", "name:es": "nan", "old_name": "nan", "wheelchair": "nan", "addr:city": "nan", "addr:suburb": "nan", "ways": "nan", "type": "nan" }, "geometry": { "type": "Polygon", "coordinates": [ [ [ -51.3269449, -30.1148351 ], [ -51.3266231, -30.1150624 ], [ -51.3264057, -30.1151873 ], [ -51.3261723, -30.1149297 ], [ -51.3257298, -30.1151501 ], [ -51.3265533, -30.1162156 ], [ -51.3272775, -30.1159534 ], [ -51.3281412, -30.1158791 ], [ -51.3280527, -30.1152202 ], [ -51.3275832, -30.1152731 ], [ -51.3269449, -30.1148351 ] ] ] } },
{ "type": "Feature", "properties": { "element_type": "way", "osmid": "244178634", "barrier": "wall", "nodes": [ 2515244448, 2515244453, 2515244480, 1172849024, 2515244470, 2515244452, 2515244448 ], "addr:housenumber": "408", "addr:street": "Avenida Porto Alegre", "landuse": "cemetery", "name": "Cemitério Batista", "religion": "christian", "source": "nan", "addr:postcode": "nan", "artist_name": "nan", "denomination": "nan", "fixme": "nan", "official_name": "nan", "phone": "+55 51 3223-8689", "start_date": "nan", "website": "nan", "fence_type": "nan", "opening_hours": "Su-Sa 08:00-12:00,14:00-18:00", "operator": "nan", "wikipedia": "nan", "alt_name": "nan", "email": "nan", "name:es": "nan", "old_name": "nan", "wheelchair": "nan", "addr:city": "nan", "addr:suburb": "nan", "ways": "nan", "type": "nan" }, "geometry": { "type": "Polygon", "coordinates": [ [ [ -51.2101843, -30.05844 ], [ -51.2102205, -30.0586413 ], [ -51.2095223, -30.0594937 ], [ -51.209243, -30.0595431 ], [ -51.2089904, -30.0593281 ], [ -51.2095462, -30.0586067 ], [ -51.2101843, -30.05844 ] ] ] } },
{ "type": "Feature", "properties": { "element_type": "way", "osmid": "244178635", "barrier": "wall", "nodes": [ 2515244503, 2515244484, 2515244483, 2515244490, 9009199252, 2515244494, 2515244500, 2515244507, 9009489183, 2515244515, 2515244514, 2515244503 ], "addr:housenumber": "60", "addr:street": "Avenida Natal", "landuse": "cemetery", "name": "Cemitério Ecumênico João XXIII", "religion": "nan", "source": "nan", "addr:postcode": "90880-110", "artist_name": "nan", "denomination": "nan", "fixme": "nan", "official_name": "Cemitério Ecumênico João Vinte e Três", "phone": "+55 51 3217-5577", "start_date": "1972", "website": "http://www.cejxxiii.com.br/", "fence_type": "nan", "opening_hours": "nan", "operator": "ACM-RS", "wikipedia": "pt:Cemitério Ecumênico João XXIII", "alt_name": "Cemitério Ecumênico João 23", "email": "cej@acm-rs.com.br", "name:es": "nan", "old_name": "nan", "wheelchair": "nan", "addr:city": "nan", "addr:suburb": "nan", "ways": "nan", "type": "nan" }, "geometry": { "type": "Polygon", "coordinates": [ [ [ -51.2082512, -30.0610393 ], [ -51.209156, -30.059655 ], [ -51.2095657, -30.0596506 ], [ -51.2098903, -30.0597753 ], [ -51.2099438, -30.0598535 ], [ -51.2101981, -30.0602257 ], [ -51.2096426, -30.0610024 ], [ -51.2096606, -30.0610914 ], [ -51.2095517, -30.0612562 ], [ -51.2094826, -30.0613607 ], [ -51.2090244, -30.0613388 ], [ -51.2082512, -30.0610393 ] ] ] } },
{ "type": "Feature", "properties": { "element_type": "way", "osmid": "244178636", "barrier": "wall", "nodes": [ 2515244453, 2515244480, 2515244477, 2515244456, 2515244453 ], "addr:housenumber": "nan", "addr:street": "nan", "landuse": "cemetery", "name": "Cemitério Espanhol", "religion": "nan", "source": "nan", "addr:postcode": "nan", "artist_name": "nan", "denomination": "nan", "fixme": "nan", "official_name": "nan", "phone": "nan", "start_date": "nan", "website": "nan", "fence_type": "nan", "opening_hours": "nan", "operator": "nan", "wikipedia": "nan", "alt_name": "nan", "email": "nan", "name:es": "Cementério Español", "old_name": "nan", "wheelchair": "nan", "addr:city": "nan", "addr:suburb": "nan", "ways": "nan", "type": "nan" }, "geometry": { "type": "Polygon", "coordinates": [ [ [ -51.2102205, -30.0586413 ], [ -51.2095223, -30.0594937 ], [ -51.2097534, -30.0594553 ], [ -51.2102604, -30.058863 ], [ -51.2102205, -30.0586413 ] ] ] } },
{ "type": "Feature", "properties": { "element_type": "way", "osmid": "244178637", "barrier": "wall", "nodes": [ 2515244541, 2515244554, 2515244547, 2515244538, 2515244541 ], "addr:housenumber": "nan", "addr:street": "nan", "landuse": "cemetery", "name": "Cemitério Israelita", "religion": "jewish", "source": "nan", "addr:postcode": "nan", "artist_name": "nan", "denomination": "nan", "fixme": "nan", "official_name": "nan", "phone": "nan", "start_date": "1932", "website": "nan", "fence_type": "nan", "opening_hours": "nan", "operator": "nan", "wikipedia": "nan", "alt_name": "nan", "email": "nan", "name:es": "nan", "old_name": "nan", "wheelchair": "nan", "addr:city": "nan", "addr:suburb": "nan", "ways": "nan", "type": "nan" }, "geometry": { "type": "Polygon", "coordinates": [ [ [ -51.2520704, -30.1178228 ], [ -51.2517329, -30.1185362 ], [ -51.25162, -30.1184963 ], [ -51.2519575, -30.1177828 ], [ -51.2520704, -30.1178228 ] ] ] } },
{ "type": "Feature", "properties": { "element_type": "way", "osmid": "244178639", "barrier": "wall", "nodes": [ 2515244528, 2515244526, 2515244530, 2515244536, 2515244534, 2515244528 ], "addr:housenumber": "5025", "addr:street": "Rua Nossa Senhora do Rosário", "landuse": "cemetery", "name": "Cemitério Municipal Belém Velho", "religion": "nan", "source": "nan", "addr:postcode": "nan", "artist_name": "nan", "denomination": "nan", "fixme": "nan", "official_name": "nan", "phone": "+55 51 3325-2451", "start_date": "nan", "website": "nan", "fence_type": "nan", "opening_hours": "nan", "operator": "SMAM", "wikipedia": "pt:Cemitério Belém Velho", "alt_name": "nan", "email": "nan", "name:es": "nan", "old_name": "nan", "wheelchair": "nan", "addr:city": "nan", "addr:suburb": "nan", "ways": "nan", "type": "nan" }, "geometry": { "type": "Polygon", "coordinates": [ [ [ -51.1813881, -30.116724 ], [ -51.1809762, -30.1166007 ], [ -51.180539, -30.1167624 ], [ -51.1809422, -30.1175396 ], [ -51.1811969, -30.1174402 ], [ -51.1813881, -30.116724 ] ] ] } },
{ "type": "Feature", "properties": { "element_type": "way", "osmid": "244178640", "barrier": "wall", "nodes": [ 2515244541, 2515244543, 2515244556, 2515244555, 2515244554, 2515244541 ], "addr:housenumber": "19", "addr:street": "Rua Liberal", "landuse": "cemetery", "name": "Cemitério Municipal do Bairro Tristeza", "religion": "nan", "source": "nan", "addr:postcode": "nan", "artist_name": "nan", "denomination": "nan", "fixme": "nan", "official_name": "nan", "phone": "+55 51 3325-2451", "start_date": "nan", "website": "nan", "fence_type": "nan", "opening_hours": "nan", "operator": "SMAM", "wikipedia": "pt:Cemitério Tristeza", "alt_name": "nan", "email": "nan", "name:es": "nan", "old_name": "Cemitério da Cavalhada", "wheelchair": "nan", "addr:city": "nan", "addr:suburb": "nan", "ways": "nan", "type": "nan" }, "geometry": { "type": "Polygon", "coordinates": [ [ [ -51.2520704, -30.1178228 ], [ -51.2525012, -30.1179752 ], [ -51.2521404, -30.1187378 ], [ -51.2517097, -30.1185854 ], [ -51.2517329, -30.1185362 ], [ -51.2520704, -30.1178228 ] ] ] } },
{ "type": "Feature", "properties": { "element_type": "way", "osmid": "244178641", "barrier": "wall", "nodes": [ 2515244444, 2515244448, 2515244447, 2515244443, 2515244444 ], "addr:housenumber": "410", "addr:street": "Avenida Oscar Pereira", "landuse": "cemetery", "name": "Cemitério São José", "religion": "christian", "source": "nan", "addr:postcode": "nan", "artist_name": "nan", "denomination": "catholic", "fixme": "nan", "official_name": "nan", "phone": "+55 51 3252-5000", "start_date": "nan", "website": "https://www.cortel.com.br/cemsaojose", "fence_type": "nan", "opening_hours": "nan", "operator": "Cortel", "wikipedia": "pt:Cemitério São José", "alt_name": "nan", "email": "nan", "name:es": "nan", "old_name": "nan", "wheelchair": "nan", "addr:city": "nan", "addr:suburb": "nan", "ways": "nan", "type": "nan" }, "geometry": { "type": "Polygon", "coordinates": [ [ [ -51.2099449, -30.0572649 ], [ -51.2101843, -30.05844 ], [ -51.2106901, -30.0573602 ], [ -51.2100571, -30.0571187 ], [ -51.2099449, -30.0572649 ] ] ] } },
{ "type": "Feature", "properties": { "element_type": "way", "osmid": "244181479", "barrier": "wall", "nodes": [ 2202592768, 4281886475, 2515278434, 4281890241, 2515278435, 2515278436, 2202592768 ], "addr:housenumber": "810", "addr:street": "Avenida Monte Cristo", "landuse": "cemetery", "name": "Cemitério Vila Nova", "religion": "nan", "source": "nan", "addr:postcode": "91750-000", "artist_name": "nan", "denomination": "nan", "fixme": "nan", "official_name": "Sociedade Cemitério São José Vila Nova", "phone": "+55 51 3263-4325", "start_date": "1922", "website": "nan", "fence_type": "nan", "opening_hours": "Su-Sa 08:00-18:00", "operator": "nan", "wikipedia": "nan", "alt_name": "nan", "email": "nan", "name:es": "nan", "old_name": "nan", "wheelchair": "yes", "addr:city": "nan", "addr:suburb": "nan", "ways": "nan", "type": "nan" }, "geometry": { "type": "Polygon", "coordinates": [ [ [ -51.2192971, -30.1223577 ], [ -51.2190145, -30.1222438 ], [ -51.2186846, -30.1221042 ], [ -51.218215, -30.1232119 ], [ -51.2178861, -30.1239877 ], [ -51.2185168, -30.1241948 ], [ -51.2192971, -30.1223577 ] ] ] } },
{ "type": "Feature", "properties": { "element_type": "way", "osmid": "288644746", "barrier": "nan", "nodes": [ 2921971321, 2921971322, 2921971323, 2921971324, 2921971321 ], "addr:housenumber": "nan", "addr:street": "nan", "landuse": "cemetery", "name": "Cemitério Municipal de Cachoeirinha", "religion": "nan", "source": "nan", "addr:postcode": "nan", "artist_name": "nan", "denomination": "nan", "fixme": "nan", "official_name": "nan", "phone": "nan", "start_date": "nan", "website": "nan", "fence_type": "nan", "opening_hours": "nan", "operator": "nan", "wikipedia": "nan", "alt_name": "nan", "email": "nan", "name:es": "nan", "old_name": "nan", "wheelchair": "nan", "addr:city": "nan", "addr:suburb": "nan", "ways": "nan", "type": "nan" }, "geometry": { "type": "Polygon", "coordinates": [ [ [ -51.1036536, -29.9397277 ], [ -51.1026564, -29.9398311 ], [ -51.1028292, -29.9410826 ], [ -51.1038264, -29.9409792 ], [ -51.1036536, -29.9397277 ] ] ] } },
{ "type": "Feature", "properties": { "element_type": "way", "osmid": "330967818", "barrier": "wall", "nodes": [ 3380094325, 3380094324, 3380094323, 3380094326, 3380094327, 3380094329, 3380094328, 3380094325 ], "addr:housenumber": "nan", "addr:street": "nan", "landuse": "cemetery", "name": "Cemitério Municipal Dois de Novembro", "religion": "none", "source": "local knowledge;streetlevel imagery", "addr:postcode": "nan", "artist_name": "nan", "denomination": "nan", "fixme": "nan", "official_name": "nan", "phone": "nan", "start_date": "nan", "website": "nan", "fence_type": "nan", "opening_hours": "nan", "operator": "nan", "wikipedia": "nan", "alt_name": "nan", "email": "nan", "name:es": "nan", "old_name": "nan", "wheelchair": "nan", "addr:city": "nan", "addr:suburb": "nan", "ways": "nan", "type": "nan" }, "geometry": { "type": "Polygon", "coordinates": [ [ [ -51.0297642, -30.0786525 ], [ -51.0298367, -30.0794462 ], [ -51.0293432, -30.0794416 ], [ -51.0293394, -30.0794868 ], [ -51.0286045, -30.0794404 ], [ -51.0281593, -30.079278 ], [ -51.0286682, -30.0782489 ], [ -51.0297642, -30.0786525 ] ] ] } },
{ "type": "Feature", "properties": { "element_type": "way", "osmid": "334535963", "barrier": "nan", "nodes": [ 3416110582, 3416110583, 3416110584, 3416110585, 3416110586, 3416110587, 3416110588, 3416110589, 3416110590, 3416110591, 3416110592, 3416111393, 3416110582 ], "addr:housenumber": "267", "addr:street": "Avenida Mendanha", "landuse": "cemetery", "name": "Cemitério Municipal Nossa Senhora da Conceição", "religion": "none", "source": "nan", "addr:postcode": "nan", "artist_name": "nan", "denomination": "nan", "fixme": "nan", "official_name": "nan", "phone": "nan", "start_date": "nan", "website": "nan", "fence_type": "nan", "opening_hours": "nan", "operator": "nan", "wikipedia": "nan", "alt_name": "nan", "email": "nan", "name:es": "nan", "old_name": "nan", "wheelchair": "nan", "addr:city": "Viamão", "addr:suburb": "Centro", "ways": "nan", "type": "nan" }, "geometry": { "type": "Polygon", "coordinates": [ [ [ -51.0363912, -30.0751285 ], [ -51.0361351, -30.075132 ], [ -51.035074, -30.0757723 ], [ -51.0341674, -30.0757512 ], [ -51.0341959, -30.0760045 ], [ -51.0346593, -30.0760995 ], [ -51.0345862, -30.0764724 ], [ -51.0350903, -30.0765674 ], [ -51.0350903, -30.0773168 ], [ -51.0354358, -30.0773133 ], [ -51.0359481, -30.0763669 ], [ -51.0369523, -30.0766096 ], [ -51.0363912, -30.0751285 ] ] ] } },
{ "type": "Feature", "properties": { "element_type": "way", "osmid": "348380484", "barrier": "nan", "nodes": [ 3545080711, 3545080712, 3545080713, 3545080714, 3545080715, 3545080716, 3545080717, 3545080718, 3545080711 ], "addr:housenumber": "154", "addr:street": "Rua Ari Barroso", "landuse": "cemetery", "name": "Cemitério Parque São Jerônimo", "religion": "none", "source": "nan", "addr:postcode": "94818-040", "artist_name": "nan", "denomination": "nan", "fixme": "nan", "official_name": "nan", "phone": "nan", "start_date": "nan", "website": "https://www.saojeronimocp.com.br/", "fence_type": "nan", "opening_hours": "nan", "operator": "nan", "wikipedia": "nan", "alt_name": "nan", "email": "nan", "name:es": "nan", "old_name": "nan", "wheelchair": "nan", "addr:city": "Alvorada", "addr:suburb": "Formoza", "ways": "nan", "type": "nan" }, "geometry": { "type": "Polygon", "coordinates": [ [ [ -51.0631855, -30.0046173 ], [ -51.0628988, -30.0050494 ], [ -51.0628846, -30.0056103 ], [ -51.0615221, -30.0050862 ], [ -51.0617273, -30.0041054 ], [ -51.0622547, -30.003612 ], [ -51.0628634, -30.0040227 ], [ -51.0626546, -30.0042556 ], [ -51.0631855, -30.0046173 ] ] ] } },
{ "type": "Feature", "properties": { "element_type": "way", "osmid": "426624452", "barrier": "nan", "nodes": [ 4258987692, 4258987702, 4258988400, 4258988378, 11223509108, 3670726646, 4258987692 ], "addr:housenumber": "nan", "addr:street": "nan", "landuse": "cemetery", "name": "nan", "religion": "nan", "source": "nan", "addr:postcode": "nan", "artist_name": "nan", "denomination": "nan", "fixme": "nan", "official_name": "nan", "phone": "nan", "start_date": "nan", "website": "nan", "fence_type": "nan", "opening_hours": "nan", "operator": "nan", "wikipedia": "nan", "alt_name": "nan", "email": "nan", "name:es": "nan", "old_name": "nan", "wheelchair": "nan", "addr:city": "nan", "addr:suburb": "nan", "ways": "nan", "type": "nan" }, "geometry": { "type": "Polygon", "coordinates": [ [ [ -51.2653564, -30.0200275 ], [ -51.2650238, -30.0200705 ], [ -51.2651418, -30.0207533 ], [ -51.2655321, -30.0207057 ], [ -51.2655307, -30.0206978 ], [ -51.2654556, -30.0202853 ], [ -51.2653564, -30.0200275 ] ] ] } },
{ "type": "Feature", "properties": { "element_type": "way", "osmid": "545318247", "barrier": "fence", "nodes": [ 5270573027, 5270573026, 5270573025, 5270573024, 5270573023, 5270573022, 5270573027 ], "addr:housenumber": "nan", "addr:street": "nan", "landuse": "cemetery", "name": "Cemitério Municipal Rincão da Madalena", "religion": "none", "source": "nan", "addr:postcode": "nan", "artist_name": "nan", "denomination": "nan", "fixme": "nan", "official_name": "nan", "phone": "nan", "start_date": "nan", "website": "nan", "fence_type": "chain_link", "opening_hours": "nan", "operator": "nan", "wikipedia": "nan", "alt_name": "nan", "email": "nan", "name:es": "nan", "old_name": "nan", "wheelchair": "nan", "addr:city": "nan", "addr:suburb": "nan", "ways": "nan", "type": "nan" }, "geometry": { "type": "Polygon", "coordinates": [ [ [ -50.9794968, -29.9248307 ], [ -50.9807535, -29.9250805 ], [ -50.9813489, -29.9258756 ], [ -50.9771634, -29.9282106 ], [ -50.9767127, -29.9276736 ], [ -50.9763131, -29.9266927 ], [ -50.9794968, -29.9248307 ] ] ] } },
{ "type": "Feature", "properties": { "element_type": "way", "osmid": "793078929", "barrier": "nan", "nodes": [ 7416019834, 7416019835, 7416019836, 7416019837, 7416019834 ], "addr:housenumber": "nan", "addr:street": "nan", "landuse": "cemetery", "name": "Crematório e Cemitério Saint Hilaire", "religion": "nan", "source": "nan", "addr:postcode": "nan", "artist_name": "nan", "denomination": "nan", "fixme": "nan", "official_name": "nan", "phone": "nan", "start_date": "nan", "website": "nan", "fence_type": "nan", "opening_hours": "nan", "operator": "nan", "wikipedia": "nan", "alt_name": "nan", "email": "nan", "name:es": "nan", "old_name": "nan", "wheelchair": "nan", "addr:city": "nan", "addr:suburb": "nan", "ways": "nan", "type": "nan" }, "geometry": { "type": "Polygon", "coordinates": [ [ [ -51.0929717, -30.0864867 ], [ -51.0917085, -30.0877077 ], [ -51.0895579, -30.0850897 ], [ -51.0906979, -30.0844232 ], [ -51.0929717, -30.0864867 ] ] ] } },
{ "type": "Feature", "properties": { "element_type": "relation", "osmid": "7635298", "barrier": "nan", "nodes": [ [ [ 11055847427, 11055847430, 11055847431, 11055847425, 942243821, 942243824, 942243825, 942243826, 942243827, 942243828, 942243831, 942243833, 942243837, 942243840, 11055847429, 11055847428, 11055847426, 11055847427 ] ] ], "addr:housenumber": "1278", "addr:street": "Rua Oscar Schick", "landuse": "cemetery", "name": "Cemitério Municipal São José Operário", "religion": "none", "source": "local knowledge;streetlevel imagery;https://www.alvorada.rs.gov.br/cemiterios-de-alvorada-se-preparam-para-o-dia-de-finados/", "addr:postcode": "94818-290", "artist_name": "nan", "denomination": "nan", "fixme": "nan", "official_name": "nan", "phone": "nan", "start_date": "nan", "website": "nan", "fence_type": "nan", "opening_hours": "nan", "operator": "nan", "wikipedia": "nan", "alt_name": "nan", "email": "nan", "name:es": "nan", "old_name": "nan", "wheelchair": "nan", "addr:city": "Alvorada", "addr:suburb": "Formoza", "ways": [ 80797841 ], "type": "multipolygon" }, "geometry": { "type": "Polygon", "coordinates": [ [ [ -51.0653627, -30.0118848 ], [ -51.0664205, -30.0117582 ], [ -51.0662679, -30.0104615 ], [ -51.0663164, -30.0104483 ], [ -51.0662265, -30.009799 ], [ -51.0662051, -30.0094553 ], [ -51.0661836, -30.0091023 ], [ -51.0661365, -30.008045 ], [ -51.0654433, -30.0080803 ], [ -51.0654433, -30.0086099 ], [ -51.0654541, -30.0091208 ], [ -51.0653575, -30.0093159 ], [ -51.0653253, -30.0095296 ], [ -51.0653682, -30.0100592 ], [ -51.0654285, -30.0107226 ], [ -51.0652455, -30.0107721 ], [ -51.0651063, -30.0109867 ], [ -51.0653627, -30.0118848 ] ] ] } }
]
}
