{
"type": "FeatureCollection",
"crs": { "type": "name", "properties": { "name": "urn:ogc:def:crs:OGC:1.3:CRS84" } },
"features": [
{ "type": "Feature", "properties": { "element_type": "way", "osmid": "98396207", "barrier": "fence", "name": "Usiminas", "nodes": [ 1138430783, 1138430740, 8530970518, 8530970517, 1138430825, 1138430866, 1138430776, 1138430762, 1138430713, 1138430876, 9023020113, 1138430844, 1138430638, 1138430711, 1138430667, 1138430779, 1138430595, 1138430775, 1138430861, 1138430783 ], "fence_type": "metal", "landuse": "industrial", "official_name": "nan", "website": "nan", "addr:housenumber": "nan", "addr:postcode": "nan", "addr:street": "nan", "phone": "nan", "source": "nan", "loc_name": "nan", "start_date": "nan", "opening_hours": "nan", "old_name": "nan", "man_made": "nan", "industrial": "nan", "depot": "nan", "addr:city": "nan", "addr:suburb": "nan", "operator": "nan", "source:name": "nan", "alt_name": "nan", "email": "nan", "fixme": "nan", "ways": "nan", "harbour": "nan", "type": "nan", "wikidata": "nan", "wikipedia": "nan", "short_name": "nan" }, "geometry": { "type": "Polygon", "coordinates": [ [ [ -51.1784517, -29.9742587 ], [ -51.1788454, -29.9754372 ], [ -51.1807846, -29.9756135 ], [ -51.1809817, -29.9756312 ], [ -51.1816797, -29.975696 ], [ -51.1818941, -29.975713 ], [ -51.1821658, -29.975737 ], [ -51.1824013, -29.9757014 ], [ -51.1825778, -29.9755776 ], [ -51.1826846, -29.9753698 ], [ -51.182741, -29.9749101 ], [ -51.1828566, -29.973967 ], [ -51.1828686, -29.9738209 ], [ -51.182847, -29.9737227 ], [ -51.1827834, -29.9736525 ], [ -51.1811863, -29.9734999 ], [ -51.1807469, -29.9734707 ], [ -51.1798473, -29.9734099 ], [ -51.1795194, -29.9740058 ], [ -51.1784517, -29.9742587 ] ] ] } },
{ "type": "Feature", "properties": { "element_type": "way", "osmid": "108399343", "barrier": "nan", "name": "Merlin", "nodes": [ 1243924917, 1243924941, 1243925057, 1243924835, 1243925139, 1243925050, 1243924992, 1243924917 ], "fence_type": "nan", "landuse": "industrial", "official_name": "nan", "website": "nan", "addr:housenumber": "nan", "addr:postcode": "nan", "addr:street": "nan", "phone": "nan", "source": "nan", "loc_name": "nan", "start_date": "nan", "opening_hours": "nan", "old_name": "nan", "man_made": "nan", "industrial": "nan", "depot": "nan", "addr:city": "nan", "addr:suburb": "nan", "operator": "nan", "source:name": "nan", "alt_name": "nan", "email": "nan", "fixme": "nan", "ways": "nan", "harbour": "nan", "type": "nan", "wikidata": "nan", "wikipedia": "nan", "short_name": "nan" }, "geometry": { "type": "Polygon", "coordinates": [ [ [ -51.1906905, -29.9706332 ], [ -51.1919585, -29.9707262 ], [ -51.19265, -29.9707987 ], [ -51.1933379, -29.9709162 ], [ -51.1935293, -29.9693418 ], [ -51.1921411, -29.969213 ], [ -51.1908497, -29.9691148 ], [ -51.1906905, -29.9706332 ] ] ] } },
{ "type": "Feature", "properties": { "element_type": "way", "osmid": "109197376", "barrier": "nan", "name": "Gerdau", "nodes": [ 4194189196, 4194189203, 4579356018, 4579356020, 4579356019, 4579356017, 4579356022, 1250718465, 4194194481, 4579356021, 1250718383, 4194189196 ], "fence_type": "nan", "landuse": "industrial", "official_name": "Siderúrgica Gerdau", "website": "nan", "addr:housenumber": "nan", "addr:postcode": "nan", "addr:street": "nan", "phone": "nan", "source": "nan", "loc_name": "nan", "start_date": "nan", "opening_hours": "nan", "old_name": "nan", "man_made": "nan", "industrial": "nan", "depot": "nan", "addr:city": "nan", "addr:suburb": "nan", "operator": "nan", "source:name": "nan", "alt_name": "nan", "email": "nan", "fixme": "nan", "ways": "nan", "harbour": "nan", "type": "nan", "wikidata": "nan", "wikipedia": "nan", "short_name": "nan" }, "geometry": { "type": "Polygon", "coordinates": [ [ [ -51.2053637, -30.0149931 ], [ -51.2053333, -30.0150003 ], [ -51.2052403, -30.0154153 ], [ -51.205598, -30.0154732 ], [ -51.2055102, -30.01588 ], [ -51.2051492, -30.0158216 ], [ -51.2049928, -30.016519 ], [ -51.2053442, -30.0165759 ], [ -51.2052677, -30.0168859 ], [ -51.205577, -30.0169387 ], [ -51.2068406, -30.0161932 ], [ -51.2053637, -30.0149931 ] ] ] } },
{ "type": "Feature", "properties": { "element_type": "way", "osmid": "114440769", "barrier": "nan", "name": "Geyer Estaqueamento", "nodes": [ 4210683113, 1296397912, 1296397931, 1296397893, 1296397957, 1296397939, 1296397913, 1296397933, 1296397890, 1296397878, 1296397871, 1296397958, 354924721, 330279625, 330279624, 330279623, 330279622, 4210683113 ], "fence_type": "nan", "landuse": "industrial", "official_name": "nan", "website": "https://www.geyer.com.br/", "addr:housenumber": "nan", "addr:postcode": "nan", "addr:street": "nan", "phone": "nan", "source": "nan", "loc_name": "nan", "start_date": "nan", "opening_hours": "nan", "old_name": "nan", "man_made": "nan", "industrial": "nan", "depot": "nan", "addr:city": "nan", "addr:suburb": "nan", "operator": "nan", "source:name": "nan", "alt_name": "nan", "email": "nan", "fixme": "nan", "ways": "nan", "harbour": "nan", "type": "nan", "wikidata": "nan", "wikipedia": "nan", "short_name": "nan" }, "geometry": { "type": "Polygon", "coordinates": [ [ [ -51.1735851, -29.9675525 ], [ -51.1735043, -29.9682191 ], [ -51.1734911, -29.9684637 ], [ -51.1734806, -29.9685351 ], [ -51.1734747, -29.9686321 ], [ -51.1751212, -29.9687082 ], [ -51.1750589, -29.9688609 ], [ -51.1754185, -29.9688742 ], [ -51.1755539, -29.9690171 ], [ -51.1758055, -29.9690753 ], [ -51.1760571, -29.9689403 ], [ -51.1761386, -29.9686269 ], [ -51.176166, -29.9679087 ], [ -51.1757132, -29.967874 ], [ -51.1751824, -29.9678326 ], [ -51.174629, -29.9677122 ], [ -51.173702, -29.9675783 ], [ -51.1735851, -29.9675525 ] ] ] } },
{ "type": "Feature", "properties": { "element_type": "way", "osmid": "114443019", "barrier": "nan", "name": "Fertilizantes Piratini", "nodes": [ 1296418603, 1296418628, 1296418449, 1296418663, 1296418557, 1296418529, 1296418612, 1296418523, 1296418662, 330276658, 330276657, 1296418603 ], "fence_type": "nan", "landuse": "industrial", "official_name": "nan", "website": "http://www.fertipar.com.br/institucional/piratini", "addr:housenumber": "nan", "addr:postcode": "nan", "addr:street": "nan", "phone": "nan", "source": "nan", "loc_name": "nan", "start_date": "nan", "opening_hours": "nan", "old_name": "nan", "man_made": "nan", "industrial": "nan", "depot": "nan", "addr:city": "nan", "addr:suburb": "nan", "operator": "nan", "source:name": "nan", "alt_name": "nan", "email": "nan", "fixme": "nan", "ways": "nan", "harbour": "nan", "type": "nan", "wikidata": "nan", "wikipedia": "nan", "short_name": "nan" }, "geometry": { "type": "Polygon", "coordinates": [ [ [ -51.182997, -29.9691534 ], [ -51.1828935, -29.9699066 ], [ -51.1804967, -29.9696895 ], [ -51.1803356, -29.9696749 ], [ -51.1803397, -29.9696331 ], [ -51.1803791, -29.9693069 ], [ -51.1804382, -29.968818 ], [ -51.1804621, -29.9686203 ], [ -51.1809009, -29.9687291 ], [ -51.1813066, -29.9687829 ], [ -51.1824653, -29.9690506 ], [ -51.182997, -29.9691534 ] ] ] } },
{ "type": "Feature", "properties": { "element_type": "way", "osmid": "114443039", "barrier": "nan", "name": "nan", "nodes": [ 1296418657, 1296435367, 1296435447, 1296418646, 1296418628, 1296418603, 330276656, 1296418657 ], "fence_type": "nan", "landuse": "industrial", "official_name": "nan", "website": "nan", "addr:housenumber": "nan", "addr:postcode": "nan", "addr:street": "nan", "phone": "nan", "source": "nan", "loc_name": "nan", "start_date": "nan", "opening_hours": "nan", "old_name": "nan", "man_made": "nan", "industrial": "nan", "depot": "nan", "addr:city": "nan", "addr:suburb": "nan", "operator": "nan", "source:name": "nan", "alt_name": "nan", "email": "nan", "fixme": "nan", "ways": "nan", "harbour": "nan", "type": "nan", "wikidata": "nan", "wikipedia": "nan", "short_name": "nan" }, "geometry": { "type": "Polygon", "coordinates": [ [ [ -51.1837346, -29.9691946 ], [ -51.1837135, -29.9693726 ], [ -51.1836539, -29.9698774 ], [ -51.1836411, -29.9699855 ], [ -51.1828935, -29.9699066 ], [ -51.182997, -29.9691534 ], [ -51.1833751, -29.9691919 ], [ -51.1837346, -29.9691946 ] ] ] } },
{ "type": "Feature", "properties": { "element_type": "way", "osmid": "114443041", "barrier": "nan", "name": "Unidade Porto Alegre", "nodes": [ 354924722, 1296418568, 1296418516, 1296418663, 1296418557, 1296418529, 1296418612, 1296418523, 330276659, 330276661, 354924722 ], "fence_type": "nan", "landuse": "industrial", "official_name": "nan", "website": "https://www.yarabrasil.com.br", "addr:housenumber": "nan", "addr:postcode": "nan", "addr:street": "nan", "phone": "nan", "source": "nan", "loc_name": "nan", "start_date": "nan", "opening_hours": "nan", "old_name": "nan", "man_made": "nan", "industrial": "nan", "depot": "nan", "addr:city": "nan", "addr:suburb": "nan", "operator": "nan", "source:name": "nan", "alt_name": "nan", "email": "nan", "fixme": "nan", "ways": "nan", "harbour": "nan", "type": "nan", "wikidata": "nan", "wikipedia": "nan", "short_name": "nan" }, "geometry": { "type": "Polygon", "coordinates": [ [ [ -51.1770303, -29.9679843 ], [ -51.1770837, -29.9692969 ], [ -51.1787215, -29.9694837 ], [ -51.1803356, -29.9696749 ], [ -51.1803397, -29.9696331 ], [ -51.1803791, -29.9693069 ], [ -51.1804382, -29.968818 ], [ -51.1804621, -29.9686203 ], [ -51.178663, -29.9682327 ], [ -51.177676, -29.9680393 ], [ -51.1770303, -29.9679843 ] ] ] } },
{ "type": "Feature", "properties": { "element_type": "way", "osmid": "114444202", "barrier": "nan", "name": "Supertex", "nodes": [ 1296435692, 1296435371, 1296435690, 1296435387, 1296435680, 330276652, 330276653, 1296435373, 1296435692 ], "fence_type": "nan", "landuse": "industrial", "official_name": "nan", "website": "http://www.supertex.com.br", "addr:housenumber": "1228", "addr:postcode": "90250-680", "addr:street": "Rua João Moreira Maciel", "phone": "nan", "source": "nan", "loc_name": "nan", "start_date": "nan", "opening_hours": "nan", "old_name": "nan", "man_made": "nan", "industrial": "nan", "depot": "nan", "addr:city": "nan", "addr:suburb": "nan", "operator": "nan", "source:name": "nan", "alt_name": "nan", "email": "nan", "fixme": "nan", "ways": "nan", "harbour": "nan", "type": "nan", "wikidata": "nan", "wikipedia": "nan", "short_name": "nan" }, "geometry": { "type": "Polygon", "coordinates": [ [ [ -51.1854946, -29.9701576 ], [ -51.1861954, -29.9702136 ], [ -51.1865138, -29.9702413 ], [ -51.1866901, -29.9702547 ], [ -51.1869065, -29.9686458 ], [ -51.1863025, -29.9686087 ], [ -51.1858034, -29.9688225 ], [ -51.1856334, -29.9688999 ], [ -51.1854946, -29.9701576 ] ] ] } },
{ "type": "Feature", "properties": { "element_type": "way", "osmid": "114444206", "barrier": "nan", "name": "Transguga", "nodes": [ 1296418646, 1296435662, 330276655, 1296435660, 1296418657, 1296435367, 1296435447, 1296418646 ], "fence_type": "nan", "landuse": "industrial", "official_name": "nan", "website": "nan", "addr:housenumber": "3800", "addr:postcode": "nan", "addr:street": "Rua João Moreira Maciel", "phone": "nan", "source": "nan", "loc_name": "nan", "start_date": "nan", "opening_hours": "nan", "old_name": "nan", "man_made": "nan", "industrial": "nan", "depot": "nan", "addr:city": "nan", "addr:suburb": "nan", "operator": "nan", "source:name": "nan", "alt_name": "nan", "email": "nan", "fixme": "nan", "ways": "nan", "harbour": "nan", "type": "nan", "wikidata": "nan", "wikipedia": "nan", "short_name": "nan" }, "geometry": { "type": "Polygon", "coordinates": [ [ [ -51.1836411, -29.9699855 ], [ -51.1843277, -29.9700394 ], [ -51.1844336, -29.9690988 ], [ -51.1838637, -29.9691565 ], [ -51.1837346, -29.9691946 ], [ -51.1837135, -29.9693726 ], [ -51.1836539, -29.9698774 ], [ -51.1836411, -29.9699855 ] ] ] } },
{ "type": "Feature", "properties": { "element_type": "way", "osmid": "114444211", "barrier": "nan", "name": "Fertilizantes Piratini", "nodes": [ 1296435654, 1296435684, 1296435758, 330276650, 1296435572, 1296435654 ], "fence_type": "nan", "landuse": "industrial", "official_name": "nan", "website": "http://www.fertipar.com.br/institucional/piratini", "addr:housenumber": "nan", "addr:postcode": "nan", "addr:street": "nan", "phone": "nan", "source": "nan", "loc_name": "nan", "start_date": "nan", "opening_hours": "nan", "old_name": "nan", "man_made": "nan", "industrial": "nan", "depot": "nan", "addr:city": "nan", "addr:suburb": "nan", "operator": "nan", "source:name": "nan", "alt_name": "nan", "email": "nan", "fixme": "nan", "ways": "nan", "harbour": "nan", "type": "nan", "wikidata": "nan", "wikipedia": "nan", "short_name": "nan" }, "geometry": { "type": "Polygon", "coordinates": [ [ [ -51.1879187, -29.970362 ], [ -51.1886498, -29.9704175 ], [ -51.1892572, -29.9704543 ], [ -51.1894208, -29.9689451 ], [ -51.1880873, -29.9688201 ], [ -51.1879187, -29.970362 ] ] ] } },
{ "type": "Feature", "properties": { "element_type": "way", "osmid": "114447089", "barrier": "nan", "name": "Supermix Concreto", "nodes": [ 1296461224, 1296461216, 4622849530, 1296461682, 1296461246, 1296461491, 1296461495, 1296461224 ], "fence_type": "nan", "landuse": "industrial", "official_name": "nan", "website": "nan", "addr:housenumber": "920", "addr:postcode": "nan", "addr:street": "Rua João Moreira Maciel", "phone": "nan", "source": "nan", "loc_name": "nan", "start_date": "nan", "opening_hours": "nan", "old_name": "nan", "man_made": "nan", "industrial": "nan", "depot": "nan", "addr:city": "nan", "addr:suburb": "nan", "operator": "nan", "source:name": "nan", "alt_name": "nan", "email": "nan", "fixme": "nan", "ways": "nan", "harbour": "nan", "type": "nan", "wikidata": "nan", "wikipedia": "nan", "short_name": "nan" }, "geometry": { "type": "Polygon", "coordinates": [ [ [ -51.2055484, -29.9892659 ], [ -51.2045418, -29.9895161 ], [ -51.2045609, -29.9895502 ], [ -51.2047005, -29.9900345 ], [ -51.204723, -29.9900339 ], [ -51.2051277, -29.989943 ], [ -51.2057204, -29.9898044 ], [ -51.2055484, -29.9892659 ] ] ] } },
{ "type": "Feature", "properties": { "element_type": "way", "osmid": "114455471", "barrier": "nan", "name": "Concreto Redimix", "nodes": [ 1296563055, 1296562886, 1296563134, 1296563116, 4256682074, 4256682060, 1296563056, 1296563055 ], "fence_type": "nan", "landuse": "industrial", "official_name": "nan", "website": "nan", "addr:housenumber": "200", "addr:postcode": "nan", "addr:street": "Rua João Moreira Maciel", "phone": "nan", "source": "nan", "loc_name": "nan", "start_date": "nan", "opening_hours": "nan", "old_name": "nan", "man_made": "nan", "industrial": "nan", "depot": "nan", "addr:city": "nan", "addr:suburb": "nan", "operator": "nan", "source:name": "nan", "alt_name": "nan", "email": "nan", "fixme": "nan", "ways": "nan", "harbour": "nan", "type": "nan", "wikidata": "nan", "wikipedia": "nan", "short_name": "nan" }, "geometry": { "type": "Polygon", "coordinates": [ [ [ -51.2077126, -29.9974601 ], [ -51.2073299, -29.9974881 ], [ -51.2070777, -29.9975114 ], [ -51.2068737, -29.9967379 ], [ -51.2070648, -29.9967195 ], [ -51.2072687, -29.9966998 ], [ -51.2075976, -29.996668 ], [ -51.2077126, -29.9974601 ] ] ] } },
{ "type": "Feature", "properties": { "element_type": "way", "osmid": "114493688", "barrier": "nan", "name": "Ambev CDD Eldorado", "nodes": [ 1296868575, 1296868599, 8270087128, 8270087130, 6603353917, 8270087129, 1296868610, 8270087127, 1296868596, 1296868575 ], "fence_type": "nan", "landuse": "industrial", "official_name": "nan", "website": "nan", "addr:housenumber": "nan", "addr:postcode": "nan", "addr:street": "nan", "phone": "nan", "source": "nan", "loc_name": "nan", "start_date": "nan", "opening_hours": "nan", "old_name": "nan", "man_made": "nan", "industrial": "nan", "depot": "nan", "addr:city": "nan", "addr:suburb": "nan", "operator": "nan", "source:name": "nan", "alt_name": "nan", "email": "nan", "fixme": "nan", "ways": "nan", "harbour": "nan", "type": "nan", "wikidata": "nan", "wikipedia": "nan", "short_name": "nan" }, "geometry": { "type": "Polygon", "coordinates": [ [ [ -51.3151117, -30.0094583 ], [ -51.3153412, -30.0099543 ], [ -51.3195553, -30.0101703 ], [ -51.3196104, -30.0081264 ], [ -51.318318, -30.008157 ], [ -51.3169375, -30.008203 ], [ -51.316954, -30.0089603 ], [ -51.3166962, -30.0089509 ], [ -51.3159443, -30.0091867 ], [ -51.3151117, -30.0094583 ] ] ] } },
{ "type": "Feature", "properties": { "element_type": "way", "osmid": "114493702", "barrier": "nan", "name": "Ciarroz", "nodes": [ 1296868535, 4708891772, 1296868637, 1296868434, 1296868511, 1296868535 ], "fence_type": "nan", "landuse": "industrial", "official_name": "nan", "website": "nan", "addr:housenumber": "nan", "addr:postcode": "nan", "addr:street": "nan", "phone": "nan", "source": "nan", "loc_name": "nan", "start_date": "nan", "opening_hours": "nan", "old_name": "nan", "man_made": "nan", "industrial": "nan", "depot": "nan", "addr:city": "nan", "addr:suburb": "nan", "operator": "nan", "source:name": "nan", "alt_name": "nan", "email": "nan", "fixme": "nan", "ways": "nan", "harbour": "nan", "type": "nan", "wikidata": "nan", "wikipedia": "nan", "short_name": "nan" }, "geometry": { "type": "Polygon", "coordinates": [ [ [ -51.3216888, -30.0257457 ], [ -51.3222651, -30.0269263 ], [ -51.3223102, -30.0270187 ], [ -51.3204065, -30.0270728 ], [ -51.3201009, -30.0263269 ], [ -51.3216888, -30.0257457 ] ] ] } },
{ "type": "Feature", "properties": { "element_type": "way", "osmid": "115436498", "barrier": "nan", "name": "Postes Mariani", "nodes": [ 1304286819, 1304286628, 1304286684, 1304286492, 1304286727, 1304286617, 1304286819 ], "fence_type": "nan", "landuse": "industrial", "official_name": "nan", "website": "nan", "addr:housenumber": "nan", "addr:postcode": "nan", "addr:street": "nan", "phone": "nan", "source": "nan", "loc_name": "nan", "start_date": "nan", "opening_hours": "nan", "old_name": "nan", "man_made": "nan", "industrial": "nan", "depot": "nan", "addr:city": "nan", "addr:suburb": "nan", "operator": "nan", "source:name": "nan", "alt_name": "nan", "email": "nan", "fixme": "nan", "ways": "nan", "harbour": "nan", "type": "nan", "wikidata": "nan", "wikipedia": "nan", "short_name": "nan" }, "geometry": { "type": "Polygon", "coordinates": [ [ [ -51.3539916, -30.1317984 ], [ -51.3554103, -30.133737 ], [ -51.3567817, -30.1356109 ], [ -51.3567291, -30.134509 ], [ -51.3559456, -30.1333802 ], [ -51.3550583, -30.1322908 ], [ -51.3539916, -30.1317984 ] ] ] } },
{ "type": "Feature", "properties": { "element_type": "way", "osmid": "129118439", "barrier": "nan", "name": "Prometeon", "nodes": [ 8999436271, 1425176250, 2976487400, 8999436282, 8999436281, 9309079065, 8999436280, 8999436279, 8999436278, 8999436277, 8999436276, 8999436275, 8999436274, 8999436273, 8999436272, 8999436271 ], "fence_type": "nan", "landuse": "industrial", "official_name": "Pirelli Pneus SA", "website": "nan", "addr:housenumber": "nan", "addr:postcode": "nan", "addr:street": "nan", "phone": "nan", "source": "nan", "loc_name": "nan", "start_date": "nan", "opening_hours": "nan", "old_name": "nan", "man_made": "nan", "industrial": "nan", "depot": "nan", "addr:city": "nan", "addr:suburb": "nan", "operator": "nan", "source:name": "nan", "alt_name": "nan", "email": "nan", "fixme": "nan", "ways": "nan", "harbour": "nan", "type": "nan", "wikidata": "nan", "wikipedia": "nan", "short_name": "nan" }, "geometry": { "type": "Polygon", "coordinates": [ [ [ -50.9671423, -29.93575 ], [ -50.9670435, -29.9436921 ], [ -50.9668989, -29.944176 ], [ -50.9655769, -29.9436999 ], [ -50.9642954, -29.9434599 ], [ -50.9635001, -29.9434468 ], [ -50.9620256, -29.9436293 ], [ -50.9629107, -29.9390886 ], [ -50.9633775, -29.9389568 ], [ -50.9633871, -29.9376158 ], [ -50.963451, -29.9371123 ], [ -50.9636546, -29.9371052 ], [ -50.9637771, -29.9353056 ], [ -50.9655904, -29.9352862 ], [ -50.9656149, -29.9357665 ], [ -50.9671423, -29.93575 ] ] ] } },
{ "type": "Feature", "properties": { "element_type": "way", "osmid": "192216321", "barrier": "fence", "name": "Termolar", "nodes": [ 2027787347, 2027787325, 2027787329, 2027787323, 2027787321, 2027787316, 2027787335, 2027787346, 2027787348, 2027787352, 2027787353, 10882649101, 10882649099, 10882649097, 10882696210, 10882696209, 2027787347 ], "fence_type": "chain_link", "landuse": "industrial", "official_name": "nan", "website": "https://www.termolar.com.br/", "addr:housenumber": "500", "addr:postcode": "91900-790", "addr:street": "Rua Tamandaré", "phone": "+55 51 2121-8000", "source": "nan", "loc_name": "nan", "start_date": "nan", "opening_hours": "nan", "old_name": "nan", "man_made": "nan", "industrial": "nan", "depot": "nan", "addr:city": "nan", "addr:suburb": "nan", "operator": "nan", "source:name": "nan", "alt_name": "nan", "email": "nan", "fixme": "nan", "ways": "nan", "harbour": "nan", "type": "nan", "wikidata": "nan", "wikipedia": "nan", "short_name": "nan" }, "geometry": { "type": "Polygon", "coordinates": [ [ [ -51.2439056, -30.0970139 ], [ -51.2442176, -30.0960162 ], [ -51.2445472, -30.0961047 ], [ -51.2447, -30.0956687 ], [ -51.2437856, -30.0953693 ], [ -51.2440457, -30.0945829 ], [ -51.2471623, -30.0966863 ], [ -51.2471053, -30.0970078 ], [ -51.2472529, -30.0970305 ], [ -51.2471679, -30.0974564 ], [ -51.2461581, -30.097606 ], [ -51.2447418, -30.0972449 ], [ -51.2444931, -30.0971816 ], [ -51.2443184, -30.097132 ], [ -51.2441454, -30.0970824 ], [ -51.2440009, -30.0970424 ], [ -51.2439056, -30.0970139 ] ] ] } },
{ "type": "Feature", "properties": { "element_type": "way", "osmid": "218328308", "barrier": "nan", "name": "Praça Marcos Rubin", "nodes": [ 2275796661, 2275796658, 2288596051, 2288596052, 2275796668, 2275796673, 2275796677, 2275796670, 4436119734, 2275796666, 2275796661 ], "fence_type": "nan", "landuse": "industrial", "official_name": "nan", "website": "nan", "addr:housenumber": "nan", "addr:postcode": "nan", "addr:street": "nan", "phone": "nan", "source": "nan", "loc_name": "Parque Marcos Rubim", "start_date": "2001", "opening_hours": "nan", "old_name": "nan", "man_made": "nan", "industrial": "nan", "depot": "nan", "addr:city": "nan", "addr:suburb": "nan", "operator": "nan", "source:name": "nan", "alt_name": "nan", "email": "nan", "fixme": "nan", "ways": "nan", "harbour": "nan", "type": "nan", "wikidata": "nan", "wikipedia": "nan", "short_name": "nan" }, "geometry": { "type": "Polygon", "coordinates": [ [ [ -51.1408168, -30.0440281 ], [ -51.138637, -30.0433905 ], [ -51.1382413, -30.0439164 ], [ -51.1379813, -30.0445436 ], [ -51.1378618, -30.0450402 ], [ -51.1389435, -30.0461378 ], [ -51.1404074, -30.0461961 ], [ -51.1408059, -30.0454635 ], [ -51.1408545, -30.0451268 ], [ -51.1408909, -30.0448744 ], [ -51.1408168, -30.0440281 ] ] ] } },
{ "type": "Feature", "properties": { "element_type": "way", "osmid": "219476262", "barrier": "nan", "name": "CD Toyota", "nodes": [ 2286259692, 2286259699, 2286259683, 2286259689, 2286259692 ], "fence_type": "nan", "landuse": "industrial", "official_name": "nan", "website": "nan", "addr:housenumber": "nan", "addr:postcode": "nan", "addr:street": "nan", "phone": "nan", "source": "nan", "loc_name": "nan", "start_date": "nan", "opening_hours": "nan", "old_name": "nan", "man_made": "nan", "industrial": "nan", "depot": "nan", "addr:city": "nan", "addr:suburb": "nan", "operator": "nan", "source:name": "nan", "alt_name": "nan", "email": "nan", "fixme": "nan", "ways": "nan", "harbour": "nan", "type": "nan", "wikidata": "nan", "wikipedia": "nan", "short_name": "nan" }, "geometry": { "type": "Polygon", "coordinates": [ [ [ -51.3204044, -30.0798324 ], [ -51.3224563, -30.0801098 ], [ -51.3218273, -30.0830922 ], [ -51.3199304, -30.0820738 ], [ -51.3204044, -30.0798324 ] ] ] } },
{ "type": "Feature", "properties": { "element_type": "way", "osmid": "223361309", "barrier": "nan", "name": "Vonpar Coca-Cola", "nodes": [ 2322631364, 2322631365, 2322631366, 2322631368, 2322631367, 2322631363, 2322631362, 2322631359, 2322631360, 2322631361, 2322631364 ], "fence_type": "nan", "landuse": "industrial", "official_name": "nan", "website": "http://www.vonpar.com.br", "addr:housenumber": "11200", "addr:postcode": "91140-000", "addr:street": "Avenida Assis Brasil", "phone": "+55 51 3349-8989", "source": "nan", "loc_name": "Coca-Cola", "start_date": "1974", "opening_hours": "Mo-Fr 08:00-18:00", "old_name": "nan", "man_made": "nan", "industrial": "nan", "depot": "nan", "addr:city": "nan", "addr:suburb": "nan", "operator": "nan", "source:name": "nan", "alt_name": "nan", "email": "nan", "fixme": "nan", "ways": "nan", "harbour": "nan", "type": "nan", "wikidata": "nan", "wikipedia": "nan", "short_name": "nan" }, "geometry": { "type": "Polygon", "coordinates": [ [ [ -51.116651, -29.9713946 ], [ -51.1184696, -29.9726203 ], [ -51.1185092, -29.972647 ], [ -51.1179323, -29.9732962 ], [ -51.122409, -29.9726835 ], [ -51.1220315, -29.9705748 ], [ -51.1219428, -29.9703082 ], [ -51.1218253, -29.9685857 ], [ -51.1195667, -29.9687443 ], [ -51.1185791, -29.9692989 ], [ -51.116651, -29.9713946 ] ] ] } },
{ "type": "Feature", "properties": { "element_type": "way", "osmid": "230761439", "barrier": "nan", "name": "nan", "nodes": [ 2392131312, 2392131297, 2392131298, 2392131296, 2392131299, 2392131306, 2392131307, 2392131313, 2392131312 ], "fence_type": "nan", "landuse": "industrial", "official_name": "nan", "website": "nan", "addr:housenumber": "nan", "addr:postcode": "nan", "addr:street": "nan", "phone": "nan", "source": "nan", "loc_name": "nan", "start_date": "nan", "opening_hours": "nan", "old_name": "nan", "man_made": "nan", "industrial": "nan", "depot": "nan", "addr:city": "nan", "addr:suburb": "nan", "operator": "nan", "source:name": "nan", "alt_name": "nan", "email": "nan", "fixme": "nan", "ways": "nan", "harbour": "nan", "type": "nan", "wikidata": "nan", "wikipedia": "nan", "short_name": "nan" }, "geometry": { "type": "Polygon", "coordinates": [ [ [ -51.1356249, -30.2116306 ], [ -51.1353377, -30.2106195 ], [ -51.1348371, -30.2106232 ], [ -51.1345709, -30.2105367 ], [ -51.1338594, -30.2106802 ], [ -51.134086, -30.2110878 ], [ -51.1342441, -30.2111721 ], [ -51.13465, -30.2118029 ], [ -51.1356249, -30.2116306 ] ] ] } },
{ "type": "Feature", "properties": { "element_type": "way", "osmid": "243238222", "barrier": "nan", "name": "Distrito Industrial da Restinga", "nodes": [ 2506559483, 2506559482, 2506559485, 2506559487, 2506559488, 2506559478, 2506559477, 2506559472, 2506559441, 3760983962, 4670398046, 3760983964, 2506559405, 4670396570, 4670396561, 4670396558, 3407901160, 3299063762, 2506559403, 2506559402, 2506559393, 2506559416, 2506559391, 2506559390, 3407901159, 2506559396, 2506559409, 2506559452, 2506559475, 2506559483 ], "fence_type": "nan", "landuse": "industrial", "official_name": "nan", "website": "nan", "addr:housenumber": "nan", "addr:postcode": "nan", "addr:street": "nan", "phone": "nan", "source": "nan", "loc_name": "Loteamento Industrial da Restinga", "start_date": "nan", "opening_hours": "nan", "old_name": "Parque Industrial da Restinga", "man_made": "nan", "industrial": "nan", "depot": "nan", "addr:city": "nan", "addr:suburb": "nan", "operator": "nan", "source:name": "nan", "alt_name": "nan", "email": "nan", "fixme": "nan", "ways": "nan", "harbour": "nan", "type": "nan", "wikidata": "nan", "wikipedia": "nan", "short_name": "nan" }, "geometry": { "type": "Polygon", "coordinates": [ [ [ -51.1373671, -30.1470233 ], [ -51.1363124, -30.1469941 ], [ -51.1351109, -30.1471853 ], [ -51.1329495, -30.147638 ], [ -51.1314879, -30.1481041 ], [ -51.1305031, -30.1461769 ], [ -51.1293848, -30.145384 ], [ -51.1284312, -30.1442769 ], [ -51.1278031, -30.1433054 ], [ -51.1277723, -30.1431884 ], [ -51.1277339, -30.1424959 ], [ -51.1278004, -30.1418882 ], [ -51.1279446, -30.1415032 ], [ -51.1281206, -30.1412914 ], [ -51.1282021, -30.1411933 ], [ -51.1284492, -30.1411066 ], [ -51.1285891, -30.1410552 ], [ -51.1291101, -30.1408638 ], [ -51.1303234, -30.1404176 ], [ -51.1305389, -30.1403388 ], [ -51.131982, -30.140477 ], [ -51.1322747, -30.1403841 ], [ -51.1322201, -30.140189 ], [ -51.1325026, -30.1400747 ], [ -51.1390547, -30.1410741 ], [ -51.1394664, -30.1411369 ], [ -51.1409436, -30.141603 ], [ -51.1421046, -30.1432176 ], [ -51.1395796, -30.1445149 ], [ -51.1373671, -30.1470233 ] ] ] } },
{ "type": "Feature", "properties": { "element_type": "way", "osmid": "245563085", "barrier": "nan", "name": "Hidrosul", "nodes": [ 2527422967, 2527422968, 2527422969, 2527422970, 2527422971, 2527422967 ], "fence_type": "nan", "landuse": "industrial", "official_name": "nan", "website": "nan", "addr:housenumber": "nan", "addr:postcode": "nan", "addr:street": "nan", "phone": "nan", "source": "nan", "loc_name": "nan", "start_date": "nan", "opening_hours": "nan", "old_name": "nan", "man_made": "nan", "industrial": "nan", "depot": "nan", "addr:city": "nan", "addr:suburb": "nan", "operator": "nan", "source:name": "nan", "alt_name": "nan", "email": "nan", "fixme": "nan", "ways": "nan", "harbour": "nan", "type": "nan", "wikidata": "nan", "wikipedia": "nan", "short_name": "nan" }, "geometry": { "type": "Polygon", "coordinates": [ [ [ -51.1935425, -29.9280253 ], [ -51.1934835, -29.9282671 ], [ -51.1941165, -29.9282578 ], [ -51.1940682, -29.9280067 ], [ -51.1938429, -29.9280114 ], [ -51.1935425, -29.9280253 ] ] ] } },
{ "type": "Feature", "properties": { "element_type": "way", "osmid": "245563150", "barrier": "nan", "name": "CONAB", "nodes": [ 2527423448, 2527423449, 2527423450, 2527423451, 3242980669, 2527423452, 2527423453, 2527423448 ], "fence_type": "nan", "landuse": "industrial", "official_name": "nan", "website": "nan", "addr:housenumber": "nan", "addr:postcode": "nan", "addr:street": "nan", "phone": "nan", "source": "nan", "loc_name": "nan", "start_date": "nan", "opening_hours": "nan", "old_name": "nan", "man_made": "nan", "industrial": "nan", "depot": "nan", "addr:city": "nan", "addr:suburb": "nan", "operator": "nan", "source:name": "nan", "alt_name": "nan", "email": "nan", "fixme": "nan", "ways": "nan", "harbour": "nan", "type": "nan", "wikidata": "nan", "wikipedia": "nan", "short_name": "nan" }, "geometry": { "type": "Polygon", "coordinates": [ [ [ -51.1924963, -29.923145 ], [ -51.1945058, -29.9247103 ], [ -51.1940071, -29.926039 ], [ -51.1935071, -29.9261448 ], [ -51.1931317, -29.9258753 ], [ -51.193024, -29.9259442 ], [ -51.1903401, -29.9238527 ], [ -51.1924963, -29.923145 ] ] ] } },
{ "type": "Feature", "properties": { "element_type": "way", "osmid": "250304285", "barrier": "fence", "name": "nan", "nodes": [ 2239753877, 2567888135, 355161896, 355161895, 2239753866, 2239753877 ], "fence_type": "metal", "landuse": "industrial", "official_name": "nan", "website": "nan", "addr:housenumber": "nan", "addr:postcode": "nan", "addr:street": "nan", "phone": "nan", "source": "nan", "loc_name": "nan", "start_date": "nan", "opening_hours": "nan", "old_name": "nan", "man_made": "works", "industrial": "nan", "depot": "nan", "addr:city": "nan", "addr:suburb": "nan", "operator": "nan", "source:name": "nan", "alt_name": "nan", "email": "nan", "fixme": "nan", "ways": "nan", "harbour": "nan", "type": "nan", "wikidata": "nan", "wikipedia": "nan", "short_name": "nan" }, "geometry": { "type": "Polygon", "coordinates": [ [ [ -51.2543124, -30.0959293 ], [ -51.2545315, -30.0958016 ], [ -51.2544987, -30.0957647 ], [ -51.2544081, -30.0957629 ], [ -51.2542697, -30.0958602 ], [ -51.2543124, -30.0959293 ] ] ] } },
{ "type": "Feature", "properties": { "element_type": "way", "osmid": "270765453", "barrier": "nan", "name": "Ceramica Soares", "nodes": [ 2757591315, 2757591306, 2757591305, 2757591299, 2757591298, 2757591297, 2757591316, 2757591313, 2757591300, 2757591312, 2757591310, 2757591311, 2757591307, 2757591315 ], "fence_type": "nan", "landuse": "industrial", "official_name": "nan", "website": "nan", "addr:housenumber": "1200", "addr:postcode": "nan", "addr:street": "Rua Orlando Caetano Chaves", "phone": "nan", "source": "nan", "loc_name": "nan", "start_date": "nan", "opening_hours": "nan", "old_name": "nan", "man_made": "nan", "industrial": "nan", "depot": "nan", "addr:city": "nan", "addr:suburb": "nan", "operator": "nan", "source:name": "nan", "alt_name": "nan", "email": "nan", "fixme": "nan", "ways": "nan", "harbour": "nan", "type": "nan", "wikidata": "nan", "wikipedia": "nan", "short_name": "nan" }, "geometry": { "type": "Polygon", "coordinates": [ [ [ -50.9831126, -30.0815537 ], [ -50.9832977, -30.0817352 ], [ -50.9834372, -30.0818327 ], [ -50.9834882, -30.0824914 ], [ -50.9833058, -30.0825053 ], [ -50.9832843, -30.0826167 ], [ -50.9825655, -30.0826864 ], [ -50.982705, -30.0833223 ], [ -50.982029, -30.0833641 ], [ -50.9819486, -30.0828906 ], [ -50.9815033, -30.0827096 ], [ -50.9814685, -30.0821669 ], [ -50.981506, -30.0815728 ], [ -50.9831126, -30.0815537 ] ] ] } },
{ "type": "Feature", "properties": { "element_type": "way", "osmid": "286524296", "barrier": "nan", "name": "Estaleiro Mabilde", "nodes": [ 355163018, 2902057588, 4258996266, 2902057592, 2902057594, 2902057593, 2902054869, 355163008, 355163010, 355163011, 355163012, 3842857945, 3842857944, 355163013, 355163014, 355163015, 6851402911, 355163016, 6851402912, 355163017, 6851402913, 355163018 ], "fence_type": "nan", "landuse": "industrial", "official_name": "nan", "website": "nan", "addr:housenumber": "nan", "addr:postcode": "nan", "addr:street": "nan", "phone": "nan", "source": "nan", "loc_name": "nan", "start_date": "nan", "opening_hours": "nan", "old_name": "nan", "man_made": "nan", "industrial": "nan", "depot": "nan", "addr:city": "nan", "addr:suburb": "nan", "operator": "nan", "source:name": "nan", "alt_name": "nan", "email": "nan", "fixme": "nan", "ways": "nan", "harbour": "nan", "type": "nan", "wikidata": "nan", "wikipedia": "nan", "short_name": "nan" }, "geometry": { "type": "Polygon", "coordinates": [ [ [ -51.2517571, -30.0289888 ], [ -51.2516585, -30.0291858 ], [ -51.251689, -30.0292693 ], [ -51.2529235, -30.0297135 ], [ -51.2526087, -30.0305558 ], [ -51.2523978, -30.0305127 ], [ -51.2522986, -30.0307724 ], [ -51.2516035, -30.0306997 ], [ -51.2512822, -30.0305494 ], [ -51.2508827, -30.0302593 ], [ -51.2507753, -30.0301147 ], [ -51.2509306, -30.0299488 ], [ -51.2509134, -30.029852 ], [ -51.2509278, -30.029795 ], [ -51.2511787, -30.0298857 ], [ -51.2513445, -30.0294801 ], [ -51.2510383, -30.0293858 ], [ -51.2510201, -30.0293374 ], [ -51.2515855, -30.028717 ], [ -51.2516108, -30.0287158 ], [ -51.2516036, -30.028937 ], [ -51.2517571, -30.0289888 ] ] ] } },
{ "type": "Feature", "properties": { "element_type": "way", "osmid": "288927366", "barrier": "nan", "name": "Parks Comunicações Digitais", "nodes": [ 2924804349, 2924804350, 2924804351, 2924804352, 2924804349 ], "fence_type": "nan", "landuse": "industrial", "official_name": "nan", "website": "nan", "addr:housenumber": "nan", "addr:postcode": "nan", "addr:street": "nan", "phone": "nan", "source": "nan", "loc_name": "nan", "start_date": "nan", "opening_hours": "nan", "old_name": "nan", "man_made": "nan", "industrial": "nan", "depot": "nan", "addr:city": "nan", "addr:suburb": "nan", "operator": "nan", "source:name": "nan", "alt_name": "nan", "email": "nan", "fixme": "nan", "ways": "nan", "harbour": "nan", "type": "nan", "wikidata": "nan", "wikipedia": "nan", "short_name": "nan" }, "geometry": { "type": "Polygon", "coordinates": [ [ [ -51.107474, -29.9270801 ], [ -51.1076533, -29.9286069 ], [ -51.105856, -29.9287655 ], [ -51.1056767, -29.9272387 ], [ -51.107474, -29.9270801 ] ] ] } },
{ "type": "Feature", "properties": { "element_type": "way", "osmid": "289386440", "barrier": "nan", "name": "Parker Hydraulics", "nodes": [ 2929348659, 2929348660, 2929348661, 2929348662, 2929348659 ], "fence_type": "nan", "landuse": "industrial", "official_name": "nan", "website": "nan", "addr:housenumber": "nan", "addr:postcode": "nan", "addr:street": "nan", "phone": "nan", "source": "nan", "loc_name": "nan", "start_date": "nan", "opening_hours": "nan", "old_name": "nan", "man_made": "nan", "industrial": "nan", "depot": "nan", "addr:city": "nan", "addr:suburb": "nan", "operator": "nan", "source:name": "nan", "alt_name": "nan", "email": "nan", "fixme": "nan", "ways": "nan", "harbour": "nan", "type": "nan", "wikidata": "nan", "wikipedia": "nan", "short_name": "nan" }, "geometry": { "type": "Polygon", "coordinates": [ [ [ -51.1031275, -29.9437031 ], [ -51.1062228, -29.9434117 ], [ -51.1059015, -29.9408492 ], [ -51.1028105, -29.9411403 ], [ -51.1031275, -29.9437031 ] ] ] } },
{ "type": "Feature", "properties": { "element_type": "way", "osmid": "306322183", "barrier": "nan", "name": "nan", "nodes": [ 3111915154, 3111915156, 3111915168, 3111915161, 3111915154 ], "fence_type": "nan", "landuse": "industrial", "official_name": "nan", "website": "nan", "addr:housenumber": "nan", "addr:postcode": "nan", "addr:street": "nan", "phone": "nan", "source": "Bing", "loc_name": "nan", "start_date": "nan", "opening_hours": "nan", "old_name": "nan", "man_made": "nan", "industrial": "nan", "depot": "nan", "addr:city": "nan", "addr:suburb": "nan", "operator": "nan", "source:name": "nan", "alt_name": "nan", "email": "nan", "fixme": "nan", "ways": "nan", "harbour": "nan", "type": "nan", "wikidata": "nan", "wikipedia": "nan", "short_name": "nan" }, "geometry": { "type": "Polygon", "coordinates": [ [ [ -51.1428971, -29.9908323 ], [ -51.1402203, -29.9907719 ], [ -51.1401613, -29.9920961 ], [ -51.1428274, -29.9921983 ], [ -51.1428971, -29.9908323 ] ] ] } },
{ "type": "Feature", "properties": { "element_type": "way", "osmid": "306322184", "barrier": "nan", "name": "nan", "nodes": [ 3111915163, 3111915165, 3111915164, 4453522845, 2202630926, 2202630927, 2202630949, 3111915163 ], "fence_type": "nan", "landuse": "industrial", "official_name": "nan", "website": "nan", "addr:housenumber": "nan", "addr:postcode": "nan", "addr:street": "nan", "phone": "nan", "source": "Bing", "loc_name": "nan", "start_date": "nan", "opening_hours": "nan", "old_name": "nan", "man_made": "nan", "industrial": "nan", "depot": "nan", "addr:city": "nan", "addr:suburb": "nan", "operator": "nan", "source:name": "nan", "alt_name": "nan", "email": "nan", "fixme": "nan", "ways": "nan", "harbour": "nan", "type": "nan", "wikidata": "nan", "wikipedia": "nan", "short_name": "nan" }, "geometry": { "type": "Polygon", "coordinates": [ [ [ -51.1427845, -29.9976759 ], [ -51.1430744, -29.9908091 ], [ -51.1453536, -29.9909299 ], [ -51.145274, -29.9920631 ], [ -51.145089, -29.9945859 ], [ -51.1462393, -29.994642 ], [ -51.146077, -29.9977791 ], [ -51.1427845, -29.9976759 ] ] ] } },
{ "type": "Feature", "properties": { "element_type": "way", "osmid": "316793984", "barrier": "nan", "name": "D'Agostini Indústria de Concreto", "nodes": [ 3229741603, 3229741604, 4309382252, 4309382251, 4309382250, 4309382253, 4309382254, 3229741605, 3229741606, 3229741607, 3229741603 ], "fence_type": "nan", "landuse": "industrial", "official_name": "nan", "website": "nan", "addr:housenumber": "3098", "addr:postcode": "nan", "addr:street": "Estrada Martim Félix Berta", "phone": "nan", "source": "nan", "loc_name": "nan", "start_date": "nan", "opening_hours": "nan", "old_name": "nan", "man_made": "nan", "industrial": "nan", "depot": "nan", "addr:city": "nan", "addr:suburb": "nan", "operator": "nan", "source:name": "nan", "alt_name": "nan", "email": "nan", "fixme": "nan", "ways": "nan", "harbour": "nan", "type": "nan", "wikidata": "nan", "wikipedia": "nan", "short_name": "nan" }, "geometry": { "type": "Polygon", "coordinates": [ [ [ -51.1115491, -30.0336738 ], [ -51.1126489, -30.0335923 ], [ -51.1126695, -30.0342635 ], [ -51.1136019, -30.034259 ], [ -51.1136225, -30.0342546 ], [ -51.113674, -30.0349056 ], [ -51.1126824, -30.0349391 ], [ -51.1127306, -30.0362158 ], [ -51.1124789, -30.0363499 ], [ -51.1117582, -30.0363698 ], [ -51.1115491, -30.0336738 ] ] ] } },
{ "type": "Feature", "properties": { "element_type": "way", "osmid": "318715498", "barrier": "nan", "name": "nan", "nodes": [ 3250875667, 3250875670, 3250875671, 3250875666, 3250875667 ], "fence_type": "nan", "landuse": "industrial", "official_name": "nan", "website": "nan", "addr:housenumber": "nan", "addr:postcode": "nan", "addr:street": "nan", "phone": "nan", "source": "nan", "loc_name": "nan", "start_date": "nan", "opening_hours": "nan", "old_name": "nan", "man_made": "nan", "industrial": "nan", "depot": "nan", "addr:city": "nan", "addr:suburb": "nan", "operator": "nan", "source:name": "nan", "alt_name": "nan", "email": "nan", "fixme": "nan", "ways": "nan", "harbour": "nan", "type": "nan", "wikidata": "nan", "wikipedia": "nan", "short_name": "nan" }, "geometry": { "type": "Polygon", "coordinates": [ [ [ -51.10061, -30.0793205 ], [ -51.1001023, -30.0793289 ], [ -51.1002908, -30.0805531 ], [ -51.1007932, -30.0805261 ], [ -51.10061, -30.0793205 ] ] ] } },
{ "type": "Feature", "properties": { "element_type": "way", "osmid": "332099301", "barrier": "nan", "name": "nan", "nodes": [ 3392177345, 3392177346, 3392177347, 3392177348, 3392177345 ], "fence_type": "nan", "landuse": "industrial", "official_name": "nan", "website": "nan", "addr:housenumber": "nan", "addr:postcode": "nan", "addr:street": "nan", "phone": "nan", "source": "nan", "loc_name": "nan", "start_date": "nan", "opening_hours": "nan", "old_name": "nan", "man_made": "nan", "industrial": "nan", "depot": "nan", "addr:city": "nan", "addr:suburb": "nan", "operator": "nan", "source:name": "nan", "alt_name": "nan", "email": "nan", "fixme": "nan", "ways": "nan", "harbour": "nan", "type": "nan", "wikidata": "nan", "wikipedia": "nan", "short_name": "nan" }, "geometry": { "type": "Polygon", "coordinates": [ [ [ -51.1877051, -30.1813723 ], [ -51.1870872, -30.1823352 ], [ -51.1859163, -30.1818151 ], [ -51.1864367, -30.18081 ], [ -51.1877051, -30.1813723 ] ] ] } },
{ "type": "Feature", "properties": { "element_type": "way", "osmid": "339828675", "barrier": "nan", "name": "Ferramentas Gerais", "nodes": [ 3470366591, 3470366702, 3470366703, 8696249093, 8129944428, 3470366699, 3470366697, 3470366695, 3470366588, 3470366591 ], "fence_type": "nan", "landuse": "industrial", "official_name": "nan", "website": "nan", "addr:housenumber": "nan", "addr:postcode": "nan", "addr:street": "nan", "phone": "nan", "source": "nan", "loc_name": "nan", "start_date": "nan", "opening_hours": "nan", "old_name": "nan", "man_made": "nan", "industrial": "nan", "depot": "nan", "addr:city": "nan", "addr:suburb": "nan", "operator": "nan", "source:name": "nan", "alt_name": "nan", "email": "nan", "fixme": "nan", "ways": "nan", "harbour": "nan", "type": "nan", "wikidata": "nan", "wikipedia": "nan", "short_name": "nan" }, "geometry": { "type": "Polygon", "coordinates": [ [ [ -50.9928509, -30.008008 ], [ -50.9929243, -30.0113389 ], [ -50.9889298, -30.0113359 ], [ -50.9887075, -30.0107347 ], [ -50.9885546, -30.0103584 ], [ -50.9882407, -30.0098101 ], [ -50.9874769, -30.0090803 ], [ -50.9893842, -30.0086145 ], [ -50.991696, -30.0078692 ], [ -50.9928509, -30.008008 ] ] ] } },
{ "type": "Feature", "properties": { "element_type": "way", "osmid": "361645169", "barrier": "nan", "name": "nan", "nodes": [ 3661010181, 3661010182, 3661010183, 3661010179, 3661010180, 3661010177, 4160214630, 3661010178, 3661010176, 3661010175, 3661010181 ], "fence_type": "nan", "landuse": "industrial", "official_name": "nan", "website": "nan", "addr:housenumber": "nan", "addr:postcode": "nan", "addr:street": "nan", "phone": "nan", "source": "nan", "loc_name": "nan", "start_date": "nan", "opening_hours": "nan", "old_name": "nan", "man_made": "nan", "industrial": "brickyard", "depot": "nan", "addr:city": "nan", "addr:suburb": "nan", "operator": "nan", "source:name": "nan", "alt_name": "nan", "email": "nan", "fixme": "nan", "ways": "nan", "harbour": "nan", "type": "nan", "wikidata": "nan", "wikipedia": "nan", "short_name": "nan" }, "geometry": { "type": "Polygon", "coordinates": [ [ [ -51.0863204, -29.9845797 ], [ -51.0842609, -29.9848189 ], [ -51.0828556, -29.9848614 ], [ -51.0828487, -29.9845524 ], [ -51.0823203, -29.9845735 ], [ -51.0823076, -29.9827236 ], [ -51.0834242, -29.9827302 ], [ -51.0840764, -29.982734 ], [ -51.0852503, -29.9817345 ], [ -51.0862388, -29.9817292 ], [ -51.0863204, -29.9845797 ] ] ] } },
{ "type": "Feature", "properties": { "element_type": "way", "osmid": "362403255", "barrier": "nan", "name": "nan", "nodes": [ 3362322644, 3362322645, 3362322646, 8429643381, 8429643378, 8429643383, 3667202625, 3667202583, 8429643384, 8429643382, 8429643379, 8429643380, 3362322643, 3362322644 ], "fence_type": "nan", "landuse": "industrial", "official_name": "nan", "website": "nan", "addr:housenumber": "nan", "addr:postcode": "nan", "addr:street": "nan", "phone": "nan", "source": "nan", "loc_name": "nan", "start_date": "nan", "opening_hours": "nan", "old_name": "nan", "man_made": "nan", "industrial": "nan", "depot": "nan", "addr:city": "nan", "addr:suburb": "nan", "operator": "nan", "source:name": "nan", "alt_name": "nan", "email": "nan", "fixme": "nan", "ways": "nan", "harbour": "nan", "type": "nan", "wikidata": "nan", "wikipedia": "nan", "short_name": "nan" }, "geometry": { "type": "Polygon", "coordinates": [ [ [ -51.3213931, -30.0043588 ], [ -51.3213734, -30.0060351 ], [ -51.323493, -30.0059873 ], [ -51.3243967, -30.0059244 ], [ -51.3252929, -30.0059036 ], [ -51.3255475, -30.0058991 ], [ -51.3266015, -30.0058805 ], [ -51.3266442, -30.0042331 ], [ -51.3256922, -30.0042588 ], [ -51.3254726, -30.0042483 ], [ -51.3252203, -30.0042548 ], [ -51.3244236, -30.0042753 ], [ -51.3235409, -30.0043039 ], [ -51.3213931, -30.0043588 ] ] ] } },
{ "type": "Feature", "properties": { "element_type": "way", "osmid": "391296907", "barrier": "nan", "name": "Gabriel", "nodes": [ 3945033861, 3945033862, 3945033863, 3945033864, 3945033861 ], "fence_type": "nan", "landuse": "industrial", "official_name": "nan", "website": "nan", "addr:housenumber": "nan", "addr:postcode": "nan", "addr:street": "nan", "phone": "nan", "source": "nan", "loc_name": "nan", "start_date": "nan", "opening_hours": "nan", "old_name": "nan", "man_made": "nan", "industrial": "nan", "depot": "nan", "addr:city": "nan", "addr:suburb": "nan", "operator": "nan", "source:name": "nan", "alt_name": "nan", "email": "nan", "fixme": "nan", "ways": "nan", "harbour": "nan", "type": "nan", "wikidata": "nan", "wikipedia": "nan", "short_name": "nan" }, "geometry": { "type": "Polygon", "coordinates": [ [ [ -51.1852146, -29.9701196 ], [ -51.1843483, -29.9700359 ], [ -51.1844475, -29.9691088 ], [ -51.1853809, -29.9689578 ], [ -51.1852146, -29.9701196 ] ] ] } },
{ "type": "Feature", "properties": { "element_type": "way", "osmid": "391296908", "barrier": "nan", "name": "nan", "nodes": [ 3945033865, 3945033866, 3945033867, 3945033868, 3945033865 ], "fence_type": "nan", "landuse": "industrial", "official_name": "nan", "website": "nan", "addr:housenumber": "nan", "addr:postcode": "nan", "addr:street": "nan", "phone": "nan", "source": "nan", "loc_name": "nan", "start_date": "nan", "opening_hours": "nan", "old_name": "nan", "man_made": "nan", "industrial": "nan", "depot": "nan", "addr:city": "nan", "addr:suburb": "nan", "operator": "nan", "source:name": "nan", "alt_name": "nan", "email": "nan", "fixme": "nan", "ways": "nan", "harbour": "nan", "type": "nan", "wikidata": "nan", "wikipedia": "nan", "short_name": "nan" }, "geometry": { "type": "Polygon", "coordinates": [ [ [ -51.1854817, -29.9701477 ], [ -51.1852296, -29.9701248 ], [ -51.1853984, -29.9689573 ], [ -51.1856138, -29.9689185 ], [ -51.1854817, -29.9701477 ] ] ] } },
{ "type": "Feature", "properties": { "element_type": "way", "osmid": "413986858", "barrier": "nan", "name": "Soul - Sociedade de Ônibus União Ltda", "nodes": [ 4151883325, 4151883326, 4151883327, 4151883328, 4151883329, 4151883330, 4151883331, 4151883332, 4151883325 ], "fence_type": "nan", "landuse": "industrial", "official_name": "nan", "website": "nan", "addr:housenumber": "nan", "addr:postcode": "nan", "addr:street": "nan", "phone": "nan", "source": "nan", "loc_name": "nan", "start_date": "nan", "opening_hours": "nan", "old_name": "nan", "man_made": "nan", "industrial": "depot", "depot": "bus", "addr:city": "nan", "addr:suburb": "nan", "operator": "nan", "source:name": "nan", "alt_name": "nan", "email": "nan", "fixme": "nan", "ways": "nan", "harbour": "nan", "type": "nan", "wikidata": "nan", "wikipedia": "nan", "short_name": "nan" }, "geometry": { "type": "Polygon", "coordinates": [ [ [ -51.2041081, -29.9922802 ], [ -51.2042744, -29.992835 ], [ -51.2035843, -29.9930067 ], [ -51.2036905, -29.9933469 ], [ -51.203103, -29.9935002 ], [ -51.2030393, -29.9932917 ], [ -51.2015245, -29.9936596 ], [ -51.201259, -29.9928963 ], [ -51.2041081, -29.9922802 ] ] ] } },
{ "type": "Feature", "properties": { "element_type": "way", "osmid": "414881597", "barrier": "nan", "name": "nan", "nodes": [ 4160222267, 4160223290, 4160223289, 4160222268, 4160222269, 4160222270, 4160222267 ], "fence_type": "nan", "landuse": "industrial", "official_name": "nan", "website": "nan", "addr:housenumber": "nan", "addr:postcode": "nan", "addr:street": "nan", "phone": "nan", "source": "nan", "loc_name": "nan", "start_date": "nan", "opening_hours": "nan", "old_name": "nan", "man_made": "nan", "industrial": "nan", "depot": "nan", "addr:city": "nan", "addr:suburb": "nan", "operator": "nan", "source:name": "nan", "alt_name": "nan", "email": "nan", "fixme": "nan", "ways": "nan", "harbour": "nan", "type": "nan", "wikidata": "nan", "wikipedia": "nan", "short_name": "nan" }, "geometry": { "type": "Polygon", "coordinates": [ [ [ -51.0857814, -29.9942108 ], [ -51.0863897, -29.9941762 ], [ -51.0870192, -29.9941373 ], [ -51.0878717, -29.9940865 ], [ -51.0879243, -29.994749 ], [ -51.0858314, -29.9948694 ], [ -51.0857814, -29.9942108 ] ] ] } },
{ "type": "Feature", "properties": { "element_type": "way", "osmid": "414881603", "barrier": "nan", "name": "nan", "nodes": [ 4160222270, 4160223292, 11269483402, 11269483399, 8428562108, 4160223293, 4160223294, 4160223295, 4160222269, 4160222270 ], "fence_type": "nan", "landuse": "industrial", "official_name": "nan", "website": "nan", "addr:housenumber": "nan", "addr:postcode": "nan", "addr:street": "nan", "phone": "nan", "source": "nan", "loc_name": "nan", "start_date": "nan", "opening_hours": "nan", "old_name": "nan", "man_made": "nan", "industrial": "nan", "depot": "nan", "addr:city": "nan", "addr:suburb": "nan", "operator": "nan", "source:name": "nan", "alt_name": "nan", "email": "nan", "fixme": "nan", "ways": "nan", "harbour": "nan", "type": "nan", "wikidata": "nan", "wikipedia": "nan", "short_name": "nan" }, "geometry": { "type": "Polygon", "coordinates": [ [ [ -51.0858314, -29.9948694 ], [ -51.0858549, -29.9959072 ], [ -51.0858945, -29.9958966 ], [ -51.0859786, -29.9959021 ], [ -51.0860665, -29.9959305 ], [ -51.0873419, -29.9959536 ], [ -51.0875529, -29.9958384 ], [ -51.0879886, -29.9958185 ], [ -51.0879243, -29.994749 ], [ -51.0858314, -29.9948694 ] ] ] } },
{ "type": "Feature", "properties": { "element_type": "way", "osmid": "418141464", "barrier": "nan", "name": "Indústria de Alimentos Kodama", "nodes": [ 4185938262, 4185938263, 4185938264, 4185938265, 4185938266, 4185938267, 4185938268, 4185938695, 4185938696, 4185938269, 4185938262 ], "fence_type": "nan", "landuse": "industrial", "official_name": "nan", "website": "nan", "addr:housenumber": "836", "addr:postcode": "91170-200", "addr:street": "Rua dos Maias", "phone": "nan", "source": "nan", "loc_name": "nan", "start_date": "nan", "opening_hours": "nan", "old_name": "nan", "man_made": "nan", "industrial": "nan", "depot": "nan", "addr:city": "Porto Alegre", "addr:suburb": "Rubem Berta", "operator": "nan", "source:name": "nan", "alt_name": "nan", "email": "nan", "fixme": "nan", "ways": "nan", "harbour": "nan", "type": "nan", "wikidata": "nan", "wikipedia": "nan", "short_name": "nan" }, "geometry": { "type": "Polygon", "coordinates": [ [ [ -51.0944012, -29.9956444 ], [ -51.0933473, -29.9956797 ], [ -51.0933185, -29.9956111 ], [ -51.0914964, -29.9957005 ], [ -51.0914748, -29.995634 ], [ -51.0911219, -29.9956049 ], [ -51.0911699, -29.9944946 ], [ -51.0931932, -29.9945415 ], [ -51.0940433, -29.9945537 ], [ -51.0946796, -29.9945757 ], [ -51.0944012, -29.9956444 ] ] ] } },
{ "type": "Feature", "properties": { "element_type": "way", "osmid": "418865884", "barrier": "nan", "name": "Bento Móveis", "nodes": [ 4191004106, 4191004107, 4191004108, 4191004110, 4191004109, 4191004106 ], "fence_type": "nan", "landuse": "industrial", "official_name": "nan", "website": "nan", "addr:housenumber": "8526", "addr:postcode": "nan", "addr:street": "Estrada Cândido Pinheiro de Barcelos", "phone": "nan", "source": "nan", "loc_name": "nan", "start_date": "nan", "opening_hours": "nan", "old_name": "nan", "man_made": "nan", "industrial": "nan", "depot": "nan", "addr:city": "Alvorada", "addr:suburb": "nan", "operator": "nan", "source:name": "nan", "alt_name": "nan", "email": "nan", "fixme": "nan", "ways": "nan", "harbour": "nan", "type": "nan", "wikidata": "nan", "wikipedia": "nan", "short_name": "nan" }, "geometry": { "type": "Polygon", "coordinates": [ [ [ -51.0194891, -29.9982189 ], [ -51.0209362, -29.9990213 ], [ -51.020184, -30.000052 ], [ -51.0193186, -29.9997834 ], [ -51.0185328, -29.9994642 ], [ -51.0194891, -29.9982189 ] ] ] } },
{ "type": "Feature", "properties": { "element_type": "way", "osmid": "418865891", "barrier": "nan", "name": "Parmíssimo Alimentos Ltda", "nodes": [ 4191004154, 4191005992, 4191004155, 4191004156, 4191004157, 4191004181, 4191007021, 4191006001, 4191007020, 4191004154 ], "fence_type": "nan", "landuse": "industrial", "official_name": "nan", "website": "nan", "addr:housenumber": "1055", "addr:postcode": "94420-990", "addr:street": "Estrada Cândido Pinheiro de Barcelos", "phone": "nan", "source": "nan", "loc_name": "nan", "start_date": "nan", "opening_hours": "nan", "old_name": "nan", "man_made": "nan", "industrial": "nan", "depot": "nan", "addr:city": "Viamão", "addr:suburb": "Passo dos Negros", "operator": "nan", "source:name": "nan", "alt_name": "nan", "email": "nan", "fixme": "nan", "ways": "nan", "harbour": "nan", "type": "nan", "wikidata": "nan", "wikipedia": "nan", "short_name": "nan" }, "geometry": { "type": "Polygon", "coordinates": [ [ [ -51.0195418, -30.000273 ], [ -51.0193691, -30.0005951 ], [ -51.0186634, -30.0019115 ], [ -51.0167244, -30.0014246 ], [ -51.0176674, -29.9996554 ], [ -51.0181065, -29.9998427 ], [ -51.0183902, -29.9999561 ], [ -51.0184398, -29.999873 ], [ -51.0184564, -29.9998453 ], [ -51.0195418, -30.000273 ] ] ] } },
{ "type": "Feature", "properties": { "element_type": "way", "osmid": "418866197", "barrier": "nan", "name": "nan", "nodes": [ 4191009718, 4191009725, 4191009719, 4191009720, 4191009721, 4191009718 ], "fence_type": "nan", "landuse": "industrial", "official_name": "nan", "website": "nan", "addr:housenumber": "nan", "addr:postcode": "nan", "addr:street": "nan", "phone": "nan", "source": "nan", "loc_name": "nan", "start_date": "nan", "opening_hours": "nan", "old_name": "nan", "man_made": "nan", "industrial": "nan", "depot": "nan", "addr:city": "nan", "addr:suburb": "nan", "operator": "nan", "source:name": "nan", "alt_name": "nan", "email": "nan", "fixme": "nan", "ways": "nan", "harbour": "nan", "type": "nan", "wikidata": "nan", "wikipedia": "nan", "short_name": "nan" }, "geometry": { "type": "Polygon", "coordinates": [ [ [ -50.9941463, -29.9966421 ], [ -50.994023, -29.9965715 ], [ -50.9934495, -29.9963991 ], [ -50.9934261, -29.9976627 ], [ -50.9939779, -29.9978328 ], [ -50.9941463, -29.9966421 ] ] ] } },
{ "type": "Feature", "properties": { "element_type": "way", "osmid": "418866470", "barrier": "nan", "name": "Digitel Comunicação de Dados", "nodes": [ 4191013573, 4191013574, 4191013575, 4191013576, 4191013577, 4191013578, 4191013579, 4191013580, 4191013573 ], "fence_type": "nan", "landuse": "industrial", "official_name": "nan", "website": "nan", "addr:housenumber": "11555", "addr:postcode": "94834-670", "addr:street": "Rodovia Mário Quintana", "phone": "nan", "source": "nan", "loc_name": "nan", "start_date": "nan", "opening_hours": "nan", "old_name": "nan", "man_made": "nan", "industrial": "nan", "depot": "nan", "addr:city": "Alvorada", "addr:suburb": "Distrito Industrial", "operator": "nan", "source:name": "nan", "alt_name": "nan", "email": "nan", "fixme": "nan", "ways": "nan", "harbour": "nan", "type": "nan", "wikidata": "nan", "wikipedia": "nan", "short_name": "nan" }, "geometry": { "type": "Polygon", "coordinates": [ [ [ -50.9924513, -29.9906102 ], [ -50.9924478, -29.9909876 ], [ -50.9925628, -29.9910781 ], [ -50.9926116, -29.9926661 ], [ -50.9898266, -29.9926932 ], [ -50.9895722, -29.992491 ], [ -50.9893665, -29.992503 ], [ -50.9893491, -29.9906404 ], [ -50.9924513, -29.9906102 ] ] ] } },
{ "type": "Feature", "properties": { "element_type": "way", "osmid": "418996200", "barrier": "nan", "name": "Gauchafarma", "nodes": [ 4191932685, 4191932686, 4191932687, 4191932688, 4191933289, 4191933290, 4191933291, 4191933292, 4191933304, 4191933293, 4191933294, 4191933295, 4191933296, 4191933297, 4191932685 ], "fence_type": "nan", "landuse": "industrial", "official_name": "nan", "website": "nan", "addr:housenumber": "1785", "addr:postcode": "91150-010", "addr:street": "Avenida Francisco Silveira Bitencourt", "phone": "nan", "source": "nan", "loc_name": "nan", "start_date": "nan", "opening_hours": "nan", "old_name": "nan", "man_made": "nan", "industrial": "nan", "depot": "nan", "addr:city": "Porto Alegre", "addr:suburb": "Sarandi", "operator": "nan", "source:name": "nan", "alt_name": "nan", "email": "nan", "fixme": "nan", "ways": "nan", "harbour": "nan", "type": "nan", "wikidata": "nan", "wikipedia": "nan", "short_name": "nan" }, "geometry": { "type": "Polygon", "coordinates": [ [ [ -51.1111847, -29.9919749 ], [ -51.1109453, -29.9919307 ], [ -51.1109457, -29.9919484 ], [ -51.1107993, -29.991927 ], [ -51.110807, -29.991891 ], [ -51.1107208, -29.9918817 ], [ -51.1107271, -29.9918656 ], [ -51.1104226, -29.9918256 ], [ -51.1102128, -29.9917995 ], [ -51.1101554, -29.9918096 ], [ -51.1097795, -29.9935375 ], [ -51.1108203, -29.9937259 ], [ -51.1109565, -29.9930604 ], [ -51.1110967, -29.992409 ], [ -51.1111847, -29.9919749 ] ] ] } },
{ "type": "Feature", "properties": { "element_type": "way", "osmid": "419264626", "barrier": "nan", "name": "nan", "nodes": [ 4193719686, 4193719688, 4193701427, 4193701426, 4193720789, 4193720790, 4193719686 ], "fence_type": "nan", "landuse": "industrial", "official_name": "nan", "website": "nan", "addr:housenumber": "nan", "addr:postcode": "nan", "addr:street": "nan", "phone": "nan", "source": "nan", "loc_name": "nan", "start_date": "nan", "opening_hours": "nan", "old_name": "nan", "man_made": "nan", "industrial": "nan", "depot": "nan", "addr:city": "nan", "addr:suburb": "nan", "operator": "nan", "source:name": "nan", "alt_name": "nan", "email": "nan", "fixme": "nan", "ways": "nan", "harbour": "nan", "type": "nan", "wikidata": "nan", "wikipedia": "nan", "short_name": "nan" }, "geometry": { "type": "Polygon", "coordinates": [ [ [ -51.100473, -29.9896122 ], [ -51.1004167, -29.9908109 ], [ -51.0988896, -29.9907348 ], [ -51.0989404, -29.9898195 ], [ -51.1001764, -29.9898635 ], [ -51.1001979, -29.9895914 ], [ -51.100473, -29.9896122 ] ] ] } },
{ "type": "Feature", "properties": { "element_type": "way", "osmid": "419702112", "barrier": "nan", "name": "Vital Weidman", "nodes": [ 4197104584, 4197104585, 4197104586, 4197104587, 4197104588, 4197104699, 4197286009, 4197104689, 4197104690, 4197104695, 4197104696, 4197104584 ], "fence_type": "nan", "landuse": "industrial", "official_name": "nan", "website": "nan", "addr:housenumber": "101", "addr:postcode": "91170-200", "addr:street": "Rua dos Maias", "phone": "nan", "source": "nan", "loc_name": "nan", "start_date": "nan", "opening_hours": "nan", "old_name": "nan", "man_made": "nan", "industrial": "nan", "depot": "nan", "addr:city": "Porto Alegre", "addr:suburb": "Rubem Berta", "operator": "nan", "source:name": "nan", "alt_name": "nan", "email": "nan", "fixme": "nan", "ways": "nan", "harbour": "nan", "type": "nan", "wikidata": "nan", "wikipedia": "nan", "short_name": "nan" }, "geometry": { "type": "Polygon", "coordinates": [ [ [ -51.0959953, -29.9872081 ], [ -51.0959395, -29.9869115 ], [ -51.0958912, -29.9868697 ], [ -51.0958284, -29.9864203 ], [ -51.0962398, -29.9863797 ], [ -51.0962242, -29.9862554 ], [ -51.0965811, -29.9862218 ], [ -51.0969077, -29.9861911 ], [ -51.0970188, -29.9870768 ], [ -51.0969556, -29.9870828 ], [ -51.0961226, -29.9871902 ], [ -51.0959953, -29.9872081 ] ] ] } },
{ "type": "Feature", "properties": { "element_type": "way", "osmid": "420409932", "barrier": "nan", "name": "Gerdau", "nodes": [ 4194191238, 4194190987, 4194190887, 4194190628, 4194190543, 4194190260, 4194190343, 4194189874, 4194189844, 4194189796, 4194189457, 4194189422, 4203412189, 4203412190, 4203412191, 4203412192, 4203412193, 4203412194, 4203412195, 4194187827, 4194187890, 4194187966, 4194187773, 4194188144, 4194188186, 4194188251, 4194187007, 4194184441, 4203412196, 4203412197, 4203412198, 4194191238 ], "fence_type": "nan", "landuse": "industrial", "official_name": "Siderúrgica Gerdau", "website": "nan", "addr:housenumber": "nan", "addr:postcode": "nan", "addr:street": "nan", "phone": "nan", "source": "nan", "loc_name": "nan", "start_date": "nan", "opening_hours": "nan", "old_name": "nan", "man_made": "nan", "industrial": "nan", "depot": "nan", "addr:city": "nan", "addr:suburb": "nan", "operator": "nan", "source:name": "nan", "alt_name": "nan", "email": "nan", "fixme": "nan", "ways": "nan", "harbour": "nan", "type": "nan", "wikidata": "nan", "wikipedia": "nan", "short_name": "nan" }, "geometry": { "type": "Polygon", "coordinates": [ [ [ -51.2068304, -30.0158384 ], [ -51.206946, -30.0157669 ], [ -51.2070284, -30.0157158 ], [ -51.2071699, -30.0156295 ], [ -51.2072387, -30.0155883 ], [ -51.2073138, -30.0155434 ], [ -51.2073884, -30.0154987 ], [ -51.2074735, -30.0154478 ], [ -51.2075177, -30.0154214 ], [ -51.2075694, -30.0153905 ], [ -51.2076204, -30.0153601 ], [ -51.207684, -30.0153193 ], [ -51.2078454, -30.0152218 ], [ -51.2076402, -30.0143462 ], [ -51.2072738, -30.0144083 ], [ -51.2069286, -30.0144365 ], [ -51.2066551, -30.0144153 ], [ -51.2060688, -30.0143307 ], [ -51.2056731, -30.0142701 ], [ -51.2056721, -30.0142824 ], [ -51.2056588, -30.0143445 ], [ -51.2056462, -30.0144029 ], [ -51.2056331, -30.0144638 ], [ -51.2056216, -30.0145172 ], [ -51.2056135, -30.0145548 ], [ -51.2056044, -30.0145967 ], [ -51.2055961, -30.0146354 ], [ -51.2055633, -30.0147876 ], [ -51.2055543, -30.0148284 ], [ -51.20602, -30.0152077 ], [ -51.2064564, -30.015556 ], [ -51.2068304, -30.0158384 ] ] ] } },
{ "type": "Feature", "properties": { "element_type": "way", "osmid": "421290464", "barrier": "nan", "name": "Unifertil Fertilizantes", "nodes": [ 4210695714, 4210695716, 4210695717, 4210695718, 4210695719, 4210695720, 4210695721, 4210695722, 4210695724, 4210695725, 4210695714 ], "fence_type": "nan", "landuse": "industrial", "official_name": "nan", "website": "nan", "addr:housenumber": "245", "addr:postcode": "92130-360", "addr:street": "Rua Gravataí", "phone": "nan", "source": "nan", "loc_name": "nan", "start_date": "nan", "opening_hours": "nan", "old_name": "nan", "man_made": "nan", "industrial": "nan", "depot": "nan", "addr:city": "Canoas", "addr:suburb": "Niterói", "operator": "nan", "source:name": "nan", "alt_name": "nan", "email": "nan", "fixme": "nan", "ways": "nan", "harbour": "nan", "type": "nan", "wikidata": "nan", "wikipedia": "nan", "short_name": "nan" }, "geometry": { "type": "Polygon", "coordinates": [ [ [ -51.1730427, -29.9659901 ], [ -51.1731017, -29.9670892 ], [ -51.1720906, -29.9671822 ], [ -51.1710365, -29.9671659 ], [ -51.169623, -29.966908 ], [ -51.1695935, -29.9668429 ], [ -51.1693064, -29.9658066 ], [ -51.1698858, -29.9659182 ], [ -51.1713423, -29.9659786 ], [ -51.1714629, -29.9659832 ], [ -51.1730427, -29.9659901 ] ] ] } },
{ "type": "Feature", "properties": { "element_type": "way", "osmid": "426588019", "barrier": "nan", "name": "Olaria Brasil", "nodes": [ 4258729828, 4258730299, 4258734499, 4500510853, 4500510854, 4500510856, 4258739682, 4258739675, 4258740005, 4258734093, 4258731849, 4258729828 ], "fence_type": "nan", "landuse": "industrial", "official_name": "nan", "website": "nan", "addr:housenumber": "nan", "addr:postcode": "nan", "addr:street": "nan", "phone": "nan", "source": "nan", "loc_name": "nan", "start_date": "nan", "opening_hours": "nan", "old_name": "nan", "man_made": "nan", "industrial": "nan", "depot": "nan", "addr:city": "nan", "addr:suburb": "nan", "operator": "nan", "source:name": "nan", "alt_name": "nan", "email": "nan", "fixme": "nan", "ways": "nan", "harbour": "nan", "type": "nan", "wikidata": "nan", "wikipedia": "nan", "short_name": "nan" }, "geometry": { "type": "Polygon", "coordinates": [ [ [ -51.1228263, -29.983651 ], [ -51.121795, -29.9836986 ], [ -51.1216944, -29.9846407 ], [ -51.1216231, -29.9854487 ], [ -51.1217491, -29.9854672 ], [ -51.1217317, -29.9855671 ], [ -51.1223455, -29.9855949 ], [ -51.1223435, -29.9858528 ], [ -51.1227529, -29.9858725 ], [ -51.1228199, -29.984487 ], [ -51.1227864, -29.9839933 ], [ -51.1228263, -29.983651 ] ] ] } },
{ "type": "Feature", "properties": { "element_type": "way", "osmid": "426690074", "barrier": "nan", "name": "nan", "nodes": [ 4259524940, 4259527125, 4259544767, 4259544492, 4259544983, 4259544788, 4259544656, 4259540157, 4259538841, 4259529821, 4259528809, 4259528841, 4259524940 ], "fence_type": "nan", "landuse": "industrial", "official_name": "nan", "website": "nan", "addr:housenumber": "nan", "addr:postcode": "nan", "addr:street": "nan", "phone": "nan", "source": "nan", "loc_name": "nan", "start_date": "nan", "opening_hours": "nan", "old_name": "nan", "man_made": "nan", "industrial": "depot", "depot": "nan", "addr:city": "nan", "addr:suburb": "nan", "operator": "nan", "source:name": "nan", "alt_name": "nan", "email": "nan", "fixme": "nan", "ways": "nan", "harbour": "nan", "type": "nan", "wikidata": "nan", "wikipedia": "nan", "short_name": "nan" }, "geometry": { "type": "Polygon", "coordinates": [ [ [ -51.090264, -30.0032091 ], [ -51.0888451, -30.0035018 ], [ -51.0890275, -30.0052044 ], [ -51.0895801, -30.0051486 ], [ -51.0896257, -30.0052555 ], [ -51.0900454, -30.0052079 ], [ -51.0905352, -30.0051749 ], [ -51.0904984, -30.0046919 ], [ -51.0904877, -30.0045409 ], [ -51.0904288, -30.0037705 ], [ -51.0904142, -30.0036905 ], [ -51.0903364, -30.0036998 ], [ -51.090264, -30.0032091 ] ] ] } },
{ "type": "Feature", "properties": { "element_type": "way", "osmid": "427302711", "barrier": "nan", "name": "Nortran Transportes Coletivos Ltda", "nodes": [ 4265310744, 4265312570, 4265312594, 4265313109, 4265315814, 4265315813, 4265314445, 4265313970, 4265313240, 4265312767, 4265313745, 4265313806, 4265313429, 4265313456, 4265311938, 4265311225, 4265310744 ], "fence_type": "nan", "landuse": "industrial", "official_name": "nan", "website": "http://www.nortran.com.br", "addr:housenumber": "205", "addr:postcode": "91230-485", "addr:street": "Rua Nortran", "phone": "nan", "source": "nan", "loc_name": "nan", "start_date": "nan", "opening_hours": "nan", "old_name": "nan", "man_made": "nan", "industrial": "depot", "depot": "nan", "addr:city": "Porto Alegre", "addr:suburb": "Passo das Pedras", "operator": "nan", "source:name": "nan", "alt_name": "nan", "email": "nan", "fixme": "nan", "ways": "nan", "harbour": "nan", "type": "nan", "wikidata": "nan", "wikipedia": "nan", "short_name": "nan" }, "geometry": { "type": "Polygon", "coordinates": [ [ [ -51.1259371, -30.0202493 ], [ -51.1260792, -30.0212363 ], [ -51.1257064, -30.0212525 ], [ -51.1246925, -30.021573 ], [ -51.1248009, -30.0222609 ], [ -51.1237913, -30.0222604 ], [ -51.1237484, -30.0220584 ], [ -51.1200362, -30.0219411 ], [ -51.1200228, -30.021688 ], [ -51.1222705, -30.021407 ], [ -51.1224851, -30.0218459 ], [ -51.1234614, -30.0218018 ], [ -51.123448, -30.0216578 ], [ -51.1230605, -30.0216665 ], [ -51.1227962, -30.020896 ], [ -51.1246684, -30.0204362 ], [ -51.1259371, -30.0202493 ] ] ] } },
{ "type": "Feature", "properties": { "element_type": "way", "osmid": "462555355", "barrier": "nan", "name": "Fábrica de Chocolates Neugebauer", "nodes": [ 4211728851, 4211729473, 4211733260, 4579353879, 4211728851 ], "fence_type": "nan", "landuse": "industrial", "official_name": "nan", "website": "nan", "addr:housenumber": "nan", "addr:postcode": "nan", "addr:street": "nan", "phone": "nan", "source": "nan", "loc_name": "nan", "start_date": "nan", "opening_hours": "nan", "old_name": "nan", "man_made": "nan", "industrial": "nan", "depot": "nan", "addr:city": "nan", "addr:suburb": "nan", "operator": "nan", "source:name": "nan", "alt_name": "nan", "email": "nan", "fixme": "nan", "ways": "nan", "harbour": "nan", "type": "nan", "wikidata": "nan", "wikipedia": "nan", "short_name": "nan" }, "geometry": { "type": "Polygon", "coordinates": [ [ [ -51.2042936, -30.0015595 ], [ -51.2032449, -30.0017183 ], [ -51.2038677, -30.0033382 ], [ -51.2048587, -30.0030413 ], [ -51.2042936, -30.0015595 ] ] ] } },
{ "type": "Feature", "properties": { "element_type": "way", "osmid": "462555362", "barrier": "nan", "name": "Quaker", "nodes": [ 4579356016, 4194194240, 4579356015, 4579356014, 4579356013, 4579356012, 4579356011, 4579356010, 4194191284, 4194192036, 4194190847, 4579356016 ], "fence_type": "nan", "landuse": "industrial", "official_name": "nan", "website": "nan", "addr:housenumber": "nan", "addr:postcode": "nan", "addr:street": "nan", "phone": "nan", "source": "nan", "loc_name": "nan", "start_date": "nan", "opening_hours": "nan", "old_name": "nan", "man_made": "nan", "industrial": "nan", "depot": "nan", "addr:city": "nan", "addr:suburb": "nan", "operator": "PEPSICO", "source:name": "nan", "alt_name": "nan", "email": "nan", "fixme": "nan", "ways": "nan", "harbour": "nan", "type": "nan", "wikidata": "nan", "wikipedia": "nan", "short_name": "nan" }, "geometry": { "type": "Polygon", "coordinates": [ [ [ -51.2108511, -30.0160317 ], [ -51.2113577, -30.0167554 ], [ -51.2108136, -30.0170246 ], [ -51.2109128, -30.0172081 ], [ -51.2102396, -30.0175216 ], [ -51.2104703, -30.0178607 ], [ -51.2121118, -30.0171012 ], [ -51.2129674, -30.0168667 ], [ -51.2125474, -30.0158655 ], [ -51.2118575, -30.0161762 ], [ -51.2115259, -30.0156956 ], [ -51.2108511, -30.0160317 ] ] ] } },
{ "type": "Feature", "properties": { "element_type": "way", "osmid": "467677696", "barrier": "nan", "name": "Comercial de Areia EDU", "nodes": [ 1243924920, 4622849534, 4256663030, 4256662989, 4622849533, 1243924872, 1243925132, 1243924920 ], "fence_type": "nan", "landuse": "industrial", "official_name": "nan", "website": "nan", "addr:housenumber": "nan", "addr:postcode": "nan", "addr:street": "nan", "phone": "nan", "source": "nan", "loc_name": "nan", "start_date": "nan", "opening_hours": "nan", "old_name": "nan", "man_made": "nan", "industrial": "nan", "depot": "nan", "addr:city": "nan", "addr:suburb": "nan", "operator": "nan", "source:name": "SPH", "alt_name": "nan", "email": "nan", "fixme": "nan", "ways": "nan", "harbour": "nan", "type": "nan", "wikidata": "nan", "wikipedia": "nan", "short_name": "nan" }, "geometry": { "type": "Polygon", "coordinates": [ [ [ -51.2049456, -29.9910775 ], [ -51.2047893, -29.9904637 ], [ -51.2051183, -29.9903927 ], [ -51.2052128, -29.9903743 ], [ -51.2058635, -29.9902373 ], [ -51.206054, -29.9908136 ], [ -51.2059599, -29.9908351 ], [ -51.2049456, -29.9910775 ] ] ] } },
{ "type": "Feature", "properties": { "element_type": "way", "osmid": "467677697", "barrier": "nan", "name": "Comercial de Areia Santos", "nodes": [ 4211725961, 4256684629, 4256684628, 4622849543, 4622849547, 4211725543, 4211725556, 4211725895, 4211725905, 4211725949, 4211725961 ], "fence_type": "nan", "landuse": "industrial", "official_name": "nan", "website": "nan", "addr:housenumber": "5100", "addr:postcode": "nan", "addr:street": "Avenida Mauá", "phone": "+55 51 3326-0897", "source": "nan", "loc_name": "nan", "start_date": "nan", "opening_hours": "nan", "old_name": "nan", "man_made": "nan", "industrial": "nan", "depot": "nan", "addr:city": "nan", "addr:suburb": "nan", "operator": "nan", "source:name": "SPH", "alt_name": "nan", "email": "nan", "fixme": "nan", "ways": "nan", "harbour": "nan", "type": "nan", "wikidata": "nan", "wikipedia": "nan", "short_name": "nan" }, "geometry": { "type": "Polygon", "coordinates": [ [ [ -51.2078778, -30.0000494 ], [ -51.2075168, -29.9989642 ], [ -51.2077201, -29.9989135 ], [ -51.2080103, -29.9988411 ], [ -51.2083754, -29.9999222 ], [ -51.2082516, -29.9999538 ], [ -51.2082252, -29.9999605 ], [ -51.2079839, -30.0000223 ], [ -51.2079708, -30.0000257 ], [ -51.2078956, -30.0000449 ], [ -51.2078778, -30.0000494 ] ] ] } },
{ "type": "Feature", "properties": { "element_type": "way", "osmid": "467677699", "barrier": "nan", "name": "MBZ Materiais de Construção", "nodes": [ 4622849534, 1296461682, 1296461246, 1296461491, 1296461495, 4622849533, 4256662989, 4256663030, 4622849534 ], "fence_type": "nan", "landuse": "industrial", "official_name": "nan", "website": "nan", "addr:housenumber": "826", "addr:postcode": "nan", "addr:street": "Rua João Moreira Maciel", "phone": "+55 51 3342-2738", "source": "nan", "loc_name": "nan", "start_date": "nan", "opening_hours": "nan", "old_name": "nan", "man_made": "nan", "industrial": "nan", "depot": "nan", "addr:city": "nan", "addr:suburb": "nan", "operator": "nan", "source:name": "SPH", "alt_name": "nan", "email": "nan", "fixme": "nan", "ways": "nan", "harbour": "nan", "type": "nan", "wikidata": "nan", "wikipedia": "nan", "short_name": "nan" }, "geometry": { "type": "Polygon", "coordinates": [ [ [ -51.2047893, -29.9904637 ], [ -51.2047005, -29.9900345 ], [ -51.204723, -29.9900339 ], [ -51.2051277, -29.989943 ], [ -51.2057204, -29.9898044 ], [ -51.2058635, -29.9902373 ], [ -51.2052128, -29.9903743 ], [ -51.2051183, -29.9903927 ], [ -51.2047893, -29.9904637 ] ] ] } },
{ "type": "Feature", "properties": { "element_type": "way", "osmid": "467677700", "barrier": "nan", "name": "Massa Kaiser", "nodes": [ 4622849561, 4622849552, 4915326795, 4622849551, 4622849550, 4915326794, 4622849560, 4211736362, 4211736489, 4211736578, 4211736801, 4622849561 ], "fence_type": "nan", "landuse": "industrial", "official_name": "nan", "website": "nan", "addr:housenumber": "nan", "addr:postcode": "nan", "addr:street": "nan", "phone": "nan", "source": "nan", "loc_name": "nan", "start_date": "nan", "opening_hours": "nan", "old_name": "nan", "man_made": "nan", "industrial": "nan", "depot": "nan", "addr:city": "nan", "addr:suburb": "nan", "operator": "nan", "source:name": "SPH", "alt_name": "nan", "email": "nan", "fixme": "nan", "ways": "nan", "harbour": "nan", "type": "nan", "wikidata": "nan", "wikipedia": "nan", "short_name": "nan" }, "geometry": { "type": "Polygon", "coordinates": [ [ [ -51.2093789, -30.0044703 ], [ -51.2091272, -30.0037261 ], [ -51.2088325, -30.0028547 ], [ -51.2086128, -30.0022053 ], [ -51.2091081, -30.0020918 ], [ -51.2093241, -30.0027314 ], [ -51.2098687, -30.0043437 ], [ -51.2096988, -30.0043876 ], [ -51.2096698, -30.0043951 ], [ -51.209436, -30.0044555 ], [ -51.2094101, -30.0044622 ], [ -51.2093789, -30.0044703 ] ] ] } },
{ "type": "Feature", "properties": { "element_type": "way", "osmid": "467677701", "barrier": "nan", "name": "Mineradora Asmuz", "nodes": [ 1483528186, 4622849519, 4622849520, 4622849521, 1483528186 ], "fence_type": "nan", "landuse": "industrial", "official_name": "nan", "website": "nan", "addr:housenumber": "8800", "addr:postcode": "nan", "addr:street": "Rua João Moreira Maciel", "phone": "nan", "source": "nan", "loc_name": "nan", "start_date": "nan", "opening_hours": "nan", "old_name": "nan", "man_made": "nan", "industrial": "nan", "depot": "nan", "addr:city": "nan", "addr:suburb": "nan", "operator": "nan", "source:name": "SPH", "alt_name": "nan", "email": "nan", "fixme": "nan", "ways": "nan", "harbour": "nan", "type": "nan", "wikidata": "nan", "wikipedia": "nan", "short_name": "nan" }, "geometry": { "type": "Polygon", "coordinates": [ [ [ -51.2026484, -29.9831075 ], [ -51.2026104, -29.9824603 ], [ -51.2022887, -29.9825357 ], [ -51.202479, -29.983142 ], [ -51.2026484, -29.9831075 ] ] ] } },
{ "type": "Feature", "properties": { "element_type": "way", "osmid": "467677702", "barrier": "nan", "name": "PBH Comércio de Areia", "nodes": [ 1296563116, 1296576433, 4622849537, 1296563056, 4256682060, 4256682074, 1296563116 ], "fence_type": "nan", "landuse": "industrial", "official_name": "nan", "website": "nan", "addr:housenumber": "nan", "addr:postcode": "nan", "addr:street": "nan", "phone": "nan", "source": "nan", "loc_name": "nan", "start_date": "nan", "opening_hours": "nan", "old_name": "nan", "man_made": "nan", "industrial": "nan", "depot": "nan", "addr:city": "nan", "addr:suburb": "nan", "operator": "nan", "source:name": "SPH", "alt_name": "nan", "email": "nan", "fixme": "nan", "ways": "nan", "harbour": "nan", "type": "nan", "wikidata": "nan", "wikipedia": "nan", "short_name": "nan" }, "geometry": { "type": "Polygon", "coordinates": [ [ [ -51.2068737, -29.9967379 ], [ -51.2067244, -29.9963749 ], [ -51.2075313, -29.9962056 ], [ -51.2075976, -29.996668 ], [ -51.2072687, -29.9966998 ], [ -51.2070648, -29.9967195 ], [ -51.2068737, -29.9967379 ] ] ] } },
{ "type": "Feature", "properties": { "element_type": "way", "osmid": "467677704", "barrier": "nan", "name": "Queiroz Galvão", "nodes": [ 1296461216, 4622849528, 4622849527, 4622849526, 4622849524, 1296461684, 341870987, 4622849525, 1296461224, 1296461216 ], "fence_type": "nan", "landuse": "industrial", "official_name": "nan", "website": "nan", "addr:housenumber": "nan", "addr:postcode": "nan", "addr:street": "nan", "phone": "nan", "source": "nan", "loc_name": "nan", "start_date": "nan", "opening_hours": "nan", "old_name": "nan", "man_made": "nan", "industrial": "nan", "depot": "nan", "addr:city": "nan", "addr:suburb": "nan", "operator": "nan", "source:name": "nan", "alt_name": "nan", "email": "nan", "fixme": "nan", "ways": "nan", "harbour": "nan", "type": "nan", "wikidata": "nan", "wikipedia": "nan", "short_name": "nan" }, "geometry": { "type": "Polygon", "coordinates": [ [ [ -51.2045418, -29.9895161 ], [ -51.2043988, -29.9892453 ], [ -51.2044648, -29.9892256 ], [ -51.2043885, -29.9890007 ], [ -51.2041377, -29.9882545 ], [ -51.2048506, -29.9880729 ], [ -51.2051983, -29.9882291 ], [ -51.2052711, -29.9884497 ], [ -51.2055484, -29.9892659 ], [ -51.2045418, -29.9895161 ] ] ] } },
{ "type": "Feature", "properties": { "element_type": "way", "osmid": "467677705", "barrier": "nan", "name": "Schreiner", "nodes": [ 4211740633, 4211739585, 4211739524, 4211739480, 4622849561, 4211736801, 4211736578, 4211736489, 4211736362, 4622849560, 355161587, 4211740512, 4211740633 ], "fence_type": "nan", "landuse": "industrial", "official_name": "nan", "website": "nan", "addr:housenumber": "nan", "addr:postcode": "nan", "addr:street": "nan", "phone": "nan", "source": "nan", "loc_name": "nan", "start_date": "nan", "opening_hours": "nan", "old_name": "nan", "man_made": "nan", "industrial": "nan", "depot": "nan", "addr:city": "nan", "addr:suburb": "nan", "operator": "nan", "source:name": "SPH", "alt_name": "nan", "email": "nan", "fixme": "nan", "ways": "nan", "harbour": "nan", "type": "nan", "wikidata": "nan", "wikipedia": "nan", "short_name": "nan" }, "geometry": { "type": "Polygon", "coordinates": [ [ [ -51.209781, -30.0056512 ], [ -51.2096677, -30.0053251 ], [ -51.2096572, -30.0052927 ], [ -51.2096428, -30.0052513 ], [ -51.2093789, -30.0044703 ], [ -51.2094101, -30.0044622 ], [ -51.209436, -30.0044555 ], [ -51.2096698, -30.0043951 ], [ -51.2096988, -30.0043876 ], [ -51.2098687, -30.0043437 ], [ -51.2102518, -30.005478 ], [ -51.2098904, -30.0056108 ], [ -51.209781, -30.0056512 ] ] ] } },
{ "type": "Feature", "properties": { "element_type": "way", "osmid": "467677706", "barrier": "nan", "name": "Serra Morena", "nodes": [ 4622849551, 4211730111, 4211726587, 4211720207, 4211725961, 4211725895, 4211725556, 4211725543, 4622849547, 4622849550, 4622849551 ], "fence_type": "nan", "landuse": "industrial", "official_name": "nan", "website": "nan", "addr:housenumber": "nan", "addr:postcode": "nan", "addr:street": "nan", "phone": "nan", "source": "nan", "loc_name": "nan", "start_date": "nan", "opening_hours": "nan", "old_name": "nan", "man_made": "nan", "industrial": "nan", "depot": "nan", "addr:city": "nan", "addr:suburb": "nan", "operator": "nan", "source:name": "SPH", "alt_name": "nan", "email": "nan", "fixme": "nan", "ways": "nan", "harbour": "nan", "type": "nan", "wikidata": "nan", "wikipedia": "nan", "short_name": "nan" }, "geometry": { "type": "Polygon", "coordinates": [ [ [ -51.2086128, -30.0022053 ], [ -51.2085554, -30.002037 ], [ -51.2079605, -30.0002932 ], [ -51.2078982, -30.0001104 ], [ -51.2078778, -30.0000494 ], [ -51.2079839, -30.0000223 ], [ -51.2082252, -29.9999605 ], [ -51.2082516, -29.9999538 ], [ -51.2083754, -29.9999222 ], [ -51.2091081, -30.0020918 ], [ -51.2086128, -30.0022053 ] ] ] } },
{ "type": "Feature", "properties": { "element_type": "way", "osmid": "467677707", "barrier": "nan", "name": "Serra Morena", "nodes": [ 355161587, 4622849584, 4211746790, 4211747296, 4211743624, 4622849585, 4211746731, 4622849581, 4622849583, 4622849577, 4622849569, 4211736198, 4622849559, 4622849558, 4622849564, 4622849563, 4622849567, 302240661, 4211740633, 4211740512, 355161587 ], "fence_type": "nan", "landuse": "industrial", "official_name": "nan", "website": "nan", "addr:housenumber": "nan", "addr:postcode": "nan", "addr:street": "nan", "phone": "nan", "source": "nan", "loc_name": "nan", "start_date": "nan", "opening_hours": "nan", "old_name": "nan", "man_made": "nan", "industrial": "nan", "depot": "nan", "addr:city": "nan", "addr:suburb": "nan", "operator": "nan", "source:name": "SPH", "alt_name": "nan", "email": "nan", "fixme": "nan", "ways": "nan", "harbour": "nan", "type": "nan", "wikidata": "nan", "wikipedia": "nan", "short_name": "nan" }, "geometry": { "type": "Polygon", "coordinates": [ [ [ -51.2102518, -30.005478 ], [ -51.2113222, -30.0075171 ], [ -51.2111965, -30.0075664 ], [ -51.2108747, -30.0076928 ], [ -51.2108435, -30.0076334 ], [ -51.210819, -30.0075866 ], [ -51.2107945, -30.0075398 ], [ -51.2106877, -30.0073358 ], [ -51.2102392, -30.007512 ], [ -51.2097402, -30.0065592 ], [ -51.2094115, -30.0057876 ], [ -51.2089465, -30.0043205 ], [ -51.2089404, -30.0042946 ], [ -51.2091098, -30.0042466 ], [ -51.2093279, -30.0050536 ], [ -51.2093847, -30.0050362 ], [ -51.2096208, -30.0057103 ], [ -51.2096843, -30.0056869 ], [ -51.209781, -30.0056512 ], [ -51.2098904, -30.0056108 ], [ -51.2102518, -30.005478 ] ] ] } },
{ "type": "Feature", "properties": { "element_type": "way", "osmid": "467677708", "barrier": "nan", "name": "Sociedade Mineradora Arroio dos Ratos", "nodes": [ 4622849524, 4622849522, 354741532, 354741533, 1296461684, 4622849524 ], "fence_type": "nan", "landuse": "industrial", "official_name": "nan", "website": "nan", "addr:housenumber": "nan", "addr:postcode": "nan", "addr:street": "nan", "phone": "nan", "source": "nan", "loc_name": "nan", "start_date": "nan", "opening_hours": "nan", "old_name": "nan", "man_made": "nan", "industrial": "nan", "depot": "nan", "addr:city": "nan", "addr:suburb": "nan", "operator": "nan", "source:name": "SPH", "alt_name": "nan", "email": "nan", "fixme": "nan", "ways": "nan", "harbour": "nan", "type": "nan", "wikidata": "nan", "wikipedia": "nan", "short_name": "nan" }, "geometry": { "type": "Polygon", "coordinates": [ [ [ -51.2041377, -29.9882545 ], [ -51.2039696, -29.9874114 ], [ -51.2041819, -29.9873327 ], [ -51.2046686, -29.9876709 ], [ -51.2048506, -29.9880729 ], [ -51.2041377, -29.9882545 ] ] ] } },
{ "type": "Feature", "properties": { "element_type": "way", "osmid": "467677709", "barrier": "nan", "name": "Terminal de Contêineres", "nodes": [ 1243936296, 4194212115, 355161591, 355161590, 355161589, 1243936340, 1243936296 ], "fence_type": "nan", "landuse": "industrial", "official_name": "nan", "website": "nan", "addr:housenumber": "nan", "addr:postcode": "nan", "addr:street": "nan", "phone": "nan", "source": "nan", "loc_name": "nan", "start_date": "nan", "opening_hours": "nan", "old_name": "nan", "man_made": "nan", "industrial": "port", "depot": "nan", "addr:city": "nan", "addr:suburb": "nan", "operator": "nan", "source:name": "nan", "alt_name": "nan", "email": "nan", "fixme": "nan", "ways": "nan", "harbour": "nan", "type": "nan", "wikidata": "nan", "wikipedia": "nan", "short_name": "nan" }, "geometry": { "type": "Polygon", "coordinates": [ [ [ -51.2172125, -30.0192725 ], [ -51.2187391, -30.0206694 ], [ -51.218949, -30.0208614 ], [ -51.2197245, -30.019831 ], [ -51.2197245, -30.0197047 ], [ -51.2180307, -30.0181438 ], [ -51.2172125, -30.0192725 ] ] ] } },
{ "type": "Feature", "properties": { "element_type": "way", "osmid": "467677715", "barrier": "nan", "name": "nan", "nodes": [ 1296563134, 4622849541, 4622849542, 4256684623, 4256684625, 4256684627, 4256684629, 4256684628, 4622849543, 355161586, 1296563055, 1296562886, 1296563134 ], "fence_type": "nan", "landuse": "industrial", "official_name": "nan", "website": "nan", "addr:housenumber": "nan", "addr:postcode": "nan", "addr:street": "nan", "phone": "nan", "source": "nan", "loc_name": "nan", "start_date": "nan", "opening_hours": "nan", "old_name": "nan", "man_made": "nan", "industrial": "nan", "depot": "nan", "addr:city": "nan", "addr:suburb": "nan", "operator": "nan", "source:name": "nan", "alt_name": "nan", "email": "nan", "fixme": "nan", "ways": "nan", "harbour": "nan", "type": "nan", "wikidata": "nan", "wikipedia": "nan", "short_name": "nan" }, "geometry": { "type": "Polygon", "coordinates": [ [ [ -51.2070777, -29.9975114 ], [ -51.207201, -29.9978067 ], [ -51.2073961, -29.9983823 ], [ -51.2074646, -29.998769 ], [ -51.2074741, -29.9988125 ], [ -51.2074893, -29.9988815 ], [ -51.2075168, -29.9989642 ], [ -51.2077201, -29.9989135 ], [ -51.2080103, -29.9988411 ], [ -51.2078197, -29.9982768 ], [ -51.2077126, -29.9974601 ], [ -51.2073299, -29.9974881 ], [ -51.2070777, -29.9975114 ] ] ] } },
{ "type": "Feature", "properties": { "element_type": "way", "osmid": "472829083", "barrier": "nan", "name": "Cia Nacional do Aço", "nodes": [ 4670325428, 4670325429, 4670325430, 4670325431, 4670325432, 4670325428 ], "fence_type": "nan", "landuse": "industrial", "official_name": "nan", "website": "nan", "addr:housenumber": "1661", "addr:postcode": "nan", "addr:street": "Estrada Frederico Dihl", "phone": "nan", "source": "nan", "loc_name": "nan", "start_date": "nan", "opening_hours": "nan", "old_name": "nan", "man_made": "nan", "industrial": "nan", "depot": "nan", "addr:city": "Alvorada", "addr:suburb": "nan", "operator": "nan", "source:name": "nan", "alt_name": "nan", "email": "nan", "fixme": "nan", "ways": "nan", "harbour": "nan", "type": "nan", "wikidata": "nan", "wikipedia": "nan", "short_name": "nan" }, "geometry": { "type": "Polygon", "coordinates": [ [ [ -51.0744557, -30.016218 ], [ -51.0745666, -30.0162291 ], [ -51.0759047, -30.0172918 ], [ -51.0754956, -30.0176867 ], [ -51.0741958, -30.016742 ], [ -51.0744557, -30.016218 ] ] ] } },
{ "type": "Feature", "properties": { "element_type": "way", "osmid": "472834532", "barrier": "nan", "name": "Wheelsar Industria de Produtos de Borracha Ltda", "nodes": [ 4670363530, 4670363531, 4670363532, 4670363533, 4670363530 ], "fence_type": "nan", "landuse": "industrial", "official_name": "nan", "website": "nan", "addr:housenumber": "235", "addr:postcode": "94834-660", "addr:street": "Avenida das Indústrias", "phone": "nan", "source": "nan", "loc_name": "nan", "start_date": "nan", "opening_hours": "nan", "old_name": "nan", "man_made": "nan", "industrial": "nan", "depot": "nan", "addr:city": "Alvorada", "addr:suburb": "Tijuca", "operator": "nan", "source:name": "nan", "alt_name": "nan", "email": "nan", "fixme": "nan", "ways": "nan", "harbour": "nan", "type": "nan", "wikidata": "nan", "wikipedia": "nan", "short_name": "nan" }, "geometry": { "type": "Polygon", "coordinates": [ [ [ -51.0079783, -29.9704505 ], [ -51.0095797, -29.9704455 ], [ -51.0095829, -29.9711954 ], [ -51.0079815, -29.9712005 ], [ -51.0079783, -29.9704505 ] ] ] } },
{ "type": "Feature", "properties": { "element_type": "way", "osmid": "472837808", "barrier": "nan", "name": "nan", "nodes": [ 4670381513, 4670381514, 4670381515, 4670381516, 4670381513 ], "fence_type": "nan", "landuse": "industrial", "official_name": "nan", "website": "nan", "addr:housenumber": "nan", "addr:postcode": "nan", "addr:street": "nan", "phone": "nan", "source": "nan", "loc_name": "nan", "start_date": "nan", "opening_hours": "nan", "old_name": "nan", "man_made": "nan", "industrial": "nan", "depot": "nan", "addr:city": "nan", "addr:suburb": "nan", "operator": "nan", "source:name": "nan", "alt_name": "nan", "email": "nan", "fixme": "nan", "ways": "nan", "harbour": "nan", "type": "nan", "wikidata": "nan", "wikipedia": "nan", "short_name": "nan" }, "geometry": { "type": "Polygon", "coordinates": [ [ [ -51.0058833, -29.9709879 ], [ -51.0058995, -29.9723345 ], [ -51.0037911, -29.972343 ], [ -51.0051222, -29.9709963 ], [ -51.0058833, -29.9709879 ] ] ] } },
{ "type": "Feature", "properties": { "element_type": "way", "osmid": "480699520", "barrier": "nan", "name": "AEL Sistemas", "nodes": [ 4736655118, 4736655119, 4736655120, 2482963271, 4736655118 ], "fence_type": "nan", "landuse": "industrial", "official_name": "nan", "website": "nan", "addr:housenumber": "4400", "addr:postcode": "91020-000", "addr:street": "Avenida Sertório", "phone": "nan", "source": "nan", "loc_name": "nan", "start_date": "nan", "opening_hours": "nan", "old_name": "nan", "man_made": "nan", "industrial": "nan", "depot": "nan", "addr:city": "nan", "addr:suburb": "nan", "operator": "nan", "source:name": "nan", "alt_name": "nan", "email": "nan", "fixme": "nan", "ways": "nan", "harbour": "nan", "type": "nan", "wikidata": "nan", "wikipedia": "nan", "short_name": "nan" }, "geometry": { "type": "Polygon", "coordinates": [ [ [ -51.1617604, -29.9971857 ], [ -51.1610431, -29.9970809 ], [ -51.160641, -29.9992122 ], [ -51.1612716, -29.9998087 ], [ -51.1617604, -29.9971857 ] ] ] } },
{ "type": "Feature", "properties": { "element_type": "way", "osmid": "503057029", "barrier": "nan", "name": "nan", "nodes": [ 4934086596, 4934086597, 4934086598, 4934086600, 8255789210, 4934086601, 8255789211, 4934086602, 4934086603, 6159108003, 4934086604, 4934086605, 4934086606, 4934086607, 4934086608, 4934086609, 4934086610, 4934086590, 4934086611, 4934086596 ], "fence_type": "nan", "landuse": "industrial", "official_name": "nan", "website": "nan", "addr:housenumber": "nan", "addr:postcode": "nan", "addr:street": "nan", "phone": "nan", "source": "nan", "loc_name": "nan", "start_date": "nan", "opening_hours": "nan", "old_name": "nan", "man_made": "nan", "industrial": "nan", "depot": "nan", "addr:city": "nan", "addr:suburb": "nan", "operator": "nan", "source:name": "nan", "alt_name": "nan", "email": "nan", "fixme": "nan", "ways": "nan", "harbour": "nan", "type": "nan", "wikidata": "nan", "wikipedia": "nan", "short_name": "nan" }, "geometry": { "type": "Polygon", "coordinates": [ [ [ -51.0133321, -29.9542462 ], [ -51.0127717, -29.9558323 ], [ -51.0061403, -29.9546266 ], [ -51.0045275, -29.9530156 ], [ -51.0049035, -29.9518918 ], [ -51.0051626, -29.9514023 ], [ -51.0058739, -29.9507079 ], [ -51.0067175, -29.9501619 ], [ -51.0082885, -29.9491479 ], [ -51.0108258, -29.9475169 ], [ -51.0121366, -29.9465015 ], [ -51.0122673, -29.9472541 ], [ -51.0120992, -29.9479987 ], [ -51.0113147, -29.9484438 ], [ -51.0111652, -29.9492531 ], [ -51.0120619, -29.9494797 ], [ -51.0119124, -29.9504508 ], [ -51.0141576, -29.9503059 ], [ -51.0133196, -29.9536909 ], [ -51.0133321, -29.9542462 ] ] ] } },
{ "type": "Feature", "properties": { "element_type": "way", "osmid": "503057032", "barrier": "nan", "name": "nan", "nodes": [ 4934086620, 4934086821, 7801033454, 4934086822, 4934086823, 4934086824, 4934086825, 4934086826, 4934086827, 4934086828, 4934086550, 4934086551, 4934086552, 4934086620 ], "fence_type": "nan", "landuse": "industrial", "official_name": "nan", "website": "nan", "addr:housenumber": "nan", "addr:postcode": "nan", "addr:street": "nan", "phone": "nan", "source": "nan", "loc_name": "nan", "start_date": "nan", "opening_hours": "nan", "old_name": "nan", "man_made": "nan", "industrial": "nan", "depot": "nan", "addr:city": "nan", "addr:suburb": "nan", "operator": "nan", "source:name": "nan", "alt_name": "nan", "email": "nan", "fixme": "nan", "ways": "nan", "harbour": "nan", "type": "nan", "wikidata": "nan", "wikipedia": "nan", "short_name": "nan" }, "geometry": { "type": "Polygon", "coordinates": [ [ [ -51.0180107, -29.9463855 ], [ -51.0195052, -29.9458312 ], [ -51.020599, -29.9460092 ], [ -51.0216927, -29.9464971 ], [ -51.0262954, -29.9474125 ], [ -51.026571, -29.9490625 ], [ -51.0269958, -29.9515341 ], [ -51.025084, -29.9506401 ], [ -51.023506, -29.9506007 ], [ -51.0203804, -29.9497724 ], [ -51.0191827, -29.9496966 ], [ -51.0177338, -29.9484512 ], [ -51.0174579, -29.9475844 ], [ -51.0180107, -29.9463855 ] ] ] } },
{ "type": "Feature", "properties": { "element_type": "way", "osmid": "545322772", "barrier": "fence", "name": "TDK", "nodes": [ 5270611130, 5270611129, 5270611128, 8986247029, 8986247028, 5270611127, 8986247027, 5270611126, 5270611125, 5270611124, 5270611123, 5270611122, 5270611130 ], "fence_type": "concrete", "landuse": "industrial", "official_name": "nan", "website": "http://www.tdk-epc.com.br/", "addr:housenumber": "624", "addr:postcode": "nan", "addr:street": "Rua Bernardo Joaquim Ferreira", "phone": "+55 51 3484-7000", "source": "nan", "loc_name": "nan", "start_date": "nan", "opening_hours": "nan", "old_name": "nan", "man_made": "nan", "industrial": "nan", "depot": "nan", "addr:city": "nan", "addr:suburb": "nan", "operator": "nan", "source:name": "nan", "alt_name": "EPCOS do Brasil Ltda.", "email": "nan", "fixme": "nan", "ways": "nan", "harbour": "nan", "type": "nan", "wikidata": "nan", "wikipedia": "nan", "short_name": "nan" }, "geometry": { "type": "Polygon", "coordinates": [ [ [ -50.9695054, -29.9607064 ], [ -50.969036, -29.9528494 ], [ -50.9711898, -29.9531887 ], [ -50.9718916, -29.9532924 ], [ -50.9721021, -29.9533175 ], [ -50.9732021, -29.9534031 ], [ -50.9740872, -29.9560298 ], [ -50.9742871, -29.9566229 ], [ -50.9719911, -29.9571969 ], [ -50.9720213, -29.9586592 ], [ -50.9712542, -29.9588613 ], [ -50.9713641, -29.9599559 ], [ -50.9695054, -29.9607064 ] ] ] } },
{ "type": "Feature", "properties": { "element_type": "way", "osmid": "546150749", "barrier": "fence", "name": "Tintas Renner", "nodes": [ 5278007103, 5278007095, 5278007096, 5278007097, 5278007099, 5278007100, 5278007101, 5278007102, 5278007105, 5278007106, 5278007104, 5278007103 ], "fence_type": "chain_link", "landuse": "industrial", "official_name": "nan", "website": "http://www.tintasrenner-deco.com.br/", "addr:housenumber": "5200", "addr:postcode": "nan", "addr:street": "ERS-118", "phone": "+55 51 3489-8000", "source": "nan", "loc_name": "nan", "start_date": "nan", "opening_hours": "nan", "old_name": "nan", "man_made": "nan", "industrial": "nan", "depot": "nan", "addr:city": "nan", "addr:suburb": "nan", "operator": "PPG", "source:name": "nan", "alt_name": "nan", "email": "nan", "fixme": "nan", "ways": "nan", "harbour": "nan", "type": "nan", "wikidata": "nan", "wikipedia": "nan", "short_name": "nan" }, "geometry": { "type": "Polygon", "coordinates": [ [ [ -51.0272049, -29.9242213 ], [ -51.0272083, -29.9253615 ], [ -51.0276482, -29.9263518 ], [ -51.0282383, -29.9263611 ], [ -51.0310485, -29.9241748 ], [ -51.0330334, -29.9229939 ], [ -51.0329583, -29.9203437 ], [ -51.0322877, -29.9199718 ], [ -51.0319431, -29.9204379 ], [ -51.0291381, -29.9189653 ], [ -51.0256144, -29.923682 ], [ -51.0272049, -29.9242213 ] ] ] } },
{ "type": "Feature", "properties": { "element_type": "way", "osmid": "546163042", "barrier": "wall", "name": "Jackwal", "nodes": [ 5278151230, 5278151229, 5278151228, 5278151227, 5278151226, 5278151225, 5278151224, 5278151223, 5278151222, 9004054706, 5278151221, 5278151230 ], "fence_type": "nan", "landuse": "industrial", "official_name": "nan", "website": "http://www.jackwal.com.br/", "addr:housenumber": "20", "addr:postcode": "94045-395", "addr:street": "Rua Jacob Aloys Griebeler", "phone": "+55 51 3489-7100", "source": "nan", "loc_name": "nan", "start_date": "nan", "opening_hours": "nan", "old_name": "nan", "man_made": "nan", "industrial": "nan", "depot": "nan", "addr:city": "nan", "addr:suburb": "nan", "operator": "Mo-Th 07:30-17:30; Fr 07:30-16:30", "source:name": "nan", "alt_name": "nan", "email": "contato@jackwal.com.br", "fixme": "nan", "ways": "nan", "harbour": "nan", "type": "nan", "wikidata": "nan", "wikipedia": "nan", "short_name": "nan" }, "geometry": { "type": "Polygon", "coordinates": [ [ [ -51.0456379, -29.9526839 ], [ -51.0449401, -29.9524416 ], [ -51.0449392, -29.9515492 ], [ -51.0442994, -29.9514946 ], [ -51.0436825, -29.9512749 ], [ -51.0432661, -29.9512813 ], [ -51.0432581, -29.9512325 ], [ -51.0415039, -29.9514812 ], [ -51.0406342, -29.9509705 ], [ -51.0404396, -29.9526849 ], [ -51.0403499, -29.9534757 ], [ -51.0456379, -29.9526839 ] ] ] } },
{ "type": "Feature", "properties": { "element_type": "way", "osmid": "546163043", "barrier": "fence", "name": "Heineken", "nodes": [ 4934086900, 5278151242, 5278151241, 4934086901, 5278151240, 9003591618, 9003591617, 5278151239, 5278151238, 5278151237, 5278151236, 5278151235, 5278151234, 5278151233, 5278151232, 5278151231, 5278150920, 4934086900 ], "fence_type": "concrete", "landuse": "industrial", "official_name": "nan", "website": "http://www.heinekenbrasil.com.br/", "addr:housenumber": "281", "addr:postcode": "nan", "addr:street": "Rua Rodolfo Vontobel", "phone": "+55 51 3489-1555", "source": "nan", "loc_name": "nan", "start_date": "nan", "opening_hours": "nan", "old_name": "Kaiser", "man_made": "nan", "industrial": "nan", "depot": "nan", "addr:city": "nan", "addr:suburb": "nan", "operator": "nan", "source:name": "nan", "alt_name": "nan", "email": "nan", "fixme": "nan", "ways": "nan", "harbour": "nan", "type": "nan", "wikidata": "nan", "wikipedia": "nan", "short_name": "nan" }, "geometry": { "type": "Polygon", "coordinates": [ [ [ -51.0317643, -29.9514445 ], [ -51.0333984, -29.9513509 ], [ -51.0338612, -29.951301 ], [ -51.0343493, -29.9512405 ], [ -51.0342876, -29.9508594 ], [ -51.0345475, -29.950836 ], [ -51.0358225, -29.9507215 ], [ -51.0359694, -29.9507083 ], [ -51.0346857, -29.9484434 ], [ -51.0329058, -29.9486497 ], [ -51.0327599, -29.9486982 ], [ -51.0327613, -29.9492937 ], [ -51.0328812, -29.9495832 ], [ -51.0328248, -29.9498865 ], [ -51.0322421, -29.9499766 ], [ -51.0322482, -29.9500085 ], [ -51.0315115, -29.9501336 ], [ -51.0317643, -29.9514445 ] ] ] } },
{ "type": "Feature", "properties": { "element_type": "way", "osmid": "546163044", "barrier": "fence", "name": "Dana", "nodes": [ 5278151268, 5278151267, 5278151266, 5278151265, 5278151264, 5278151263, 5278151262, 5278151261, 5278151260, 5278151259, 5278151258, 5278151257, 5278151256, 5278151255, 5278151254, 5278151253, 5278151252, 5278151251, 5278151250, 5278151249, 5278151248, 5278151247, 5278151246, 5278151245, 5278151244, 5278151243, 5278151268 ], "fence_type": "chain_link", "landuse": "industrial", "official_name": "Dana Incorporated", "website": "https://dana.com.br/", "addr:housenumber": "201", "addr:postcode": "nan", "addr:street": "Rua Ricardo Bruno Albarus", "phone": "+55 51 3489-3000", "source": "nan", "loc_name": "nan", "start_date": "nan", "opening_hours": "nan", "old_name": "nan", "man_made": "nan", "industrial": "nan", "depot": "nan", "addr:city": "nan", "addr:suburb": "nan", "operator": "nan", "source:name": "nan", "alt_name": "nan", "email": "nan", "fixme": "nan", "ways": "nan", "harbour": "nan", "type": "nan", "wikidata": "nan", "wikipedia": "nan", "short_name": "nan" }, "geometry": { "type": "Polygon", "coordinates": [ [ [ -51.0185872, -29.9561007 ], [ -51.0178321, -29.9554613 ], [ -51.0177865, -29.9520404 ], [ -51.0178308, -29.9520021 ], [ -51.0178992, -29.952016 ], [ -51.0180038, -29.9516628 ], [ -51.0178911, -29.9516349 ], [ -51.0177972, -29.9515199 ], [ -51.0177845, -29.9503073 ], [ -51.0178811, -29.9501667 ], [ -51.0180581, -29.9500993 ], [ -51.0198572, -29.9500825 ], [ -51.0207544, -29.9501801 ], [ -51.0215497, -29.9503764 ], [ -51.0224643, -29.9507413 ], [ -51.0230048, -29.9510481 ], [ -51.0240629, -29.9517883 ], [ -51.0242292, -29.9519626 ], [ -51.0243003, -29.9521508 ], [ -51.0242949, -29.9523437 ], [ -51.0240709, -29.952898 ], [ -51.0240656, -29.9531815 ], [ -51.0241916, -29.9535801 ], [ -51.0244679, -29.9539705 ], [ -51.0247442, -29.9550406 ], [ -51.0209019, -29.9558273 ], [ -51.0185872, -29.9561007 ] ] ] } },
{ "type": "Feature", "properties": { "element_type": "way", "osmid": "546163045", "barrier": "fence", "name": "Panatlântica", "nodes": [ 5278151288, 5278151287, 5278151286, 5278151285, 5278151284, 5278151283, 5278151282, 5278151281, 5278151280, 5278151279, 5278151278, 5278151277, 5278151276, 5278151275, 5278151274, 5278151273, 5278151272, 9003550310, 5278151271, 8556835472, 5278151270, 5278151269, 5278151288 ], "fence_type": "chain_link", "landuse": "industrial", "official_name": "nan", "website": "http://panatlantica.com.br/", "addr:housenumber": "600", "addr:postcode": "94045-405", "addr:street": "Rua Rodolfo Vontobel", "phone": "+55 51 3489-7777", "source": "nan", "loc_name": "nan", "start_date": "nan", "opening_hours": "nan", "old_name": "nan", "man_made": "nan", "industrial": "nan", "depot": "nan", "addr:city": "nan", "addr:suburb": "nan", "operator": "Mo-Fr 08:00-17:15", "source:name": "nan", "alt_name": "nan", "email": "panatlantica@panatlantica.com.br", "fixme": "nan", "ways": "nan", "harbour": "nan", "type": "nan", "wikidata": "nan", "wikipedia": "nan", "short_name": "nan" }, "geometry": { "type": "Polygon", "coordinates": [ [ [ -51.0394151, -29.9498201 ], [ -51.0399388, -29.9505202 ], [ -51.0403633, -29.9509484 ], [ -51.0401219, -29.952961 ], [ -51.0378514, -29.9532596 ], [ -51.0345898, -29.9535733 ], [ -51.0344541, -29.9535376 ], [ -51.0343897, -29.9534394 ], [ -51.0345238, -29.952303 ], [ -51.0346297, -29.952016 ], [ -51.0347548, -29.9512023 ], [ -51.0353489, -29.9510902 ], [ -51.0357871, -29.9511172 ], [ -51.0361083, -29.9510835 ], [ -51.0363886, -29.9509865 ], [ -51.0377156, -29.9500458 ], [ -51.0378283, -29.9501545 ], [ -51.0380009, -29.9500408 ], [ -51.0381917, -29.9499151 ], [ -51.0380452, -29.9497311 ], [ -51.0376673, -29.9492568 ], [ -51.038476, -29.948756 ], [ -51.0394151, -29.9498201 ] ] ] } },
{ "type": "Feature", "properties": { "element_type": "way", "osmid": "604847228", "barrier": "nan", "name": "nan", "nodes": [ 8519574369, 8551278987, 8551278988, 8551278989, 8551278990, 8551278992, 8551278991, 8645836046, 8645836047, 8645836045, 5738262212, 5738262213, 8519574367, 8519574368, 8519574369 ], "fence_type": "nan", "landuse": "industrial", "official_name": "nan", "website": "nan", "addr:housenumber": "nan", "addr:postcode": "nan", "addr:street": "nan", "phone": "nan", "source": "nan", "loc_name": "nan", "start_date": "nan", "opening_hours": "nan", "old_name": "nan", "man_made": "nan", "industrial": "nan", "depot": "nan", "addr:city": "nan", "addr:suburb": "nan", "operator": "nan", "source:name": "nan", "alt_name": "nan", "email": "nan", "fixme": "nan", "ways": "nan", "harbour": "nan", "type": "nan", "wikidata": "nan", "wikipedia": "nan", "short_name": "nan" }, "geometry": { "type": "Polygon", "coordinates": [ [ [ -51.0530403, -29.9239484 ], [ -51.0531154, -29.9239426 ], [ -51.0543546, -29.9247934 ], [ -51.0546859, -29.9250399 ], [ -51.0551244, -29.9254873 ], [ -51.0552934, -29.9256361 ], [ -51.0561731, -29.9262301 ], [ -51.0564977, -29.9272784 ], [ -51.0542285, -29.9280572 ], [ -51.0541534, -29.9277736 ], [ -51.0531081, -29.9280951 ], [ -51.0529622, -29.9261799 ], [ -51.0522867, -29.9262881 ], [ -51.0518078, -29.9251008 ], [ -51.0530403, -29.9239484 ] ] ] } },
{ "type": "Feature", "properties": { "element_type": "way", "osmid": "660051111", "barrier": "nan", "name": "nan", "nodes": [ 6179777242, 6179777241, 6179777240, 6179777239, 6179777238, 6179777237, 6179777236, 6179777235, 6179777234, 6179777233, 6179777232, 6179777242 ], "fence_type": "nan", "landuse": "industrial", "official_name": "nan", "website": "nan", "addr:housenumber": "nan", "addr:postcode": "nan", "addr:street": "nan", "phone": "nan", "source": "nan", "loc_name": "nan", "start_date": "nan", "opening_hours": "nan", "old_name": "nan", "man_made": "nan", "industrial": "nan", "depot": "nan", "addr:city": "nan", "addr:suburb": "nan", "operator": "nan", "source:name": "nan", "alt_name": "nan", "email": "nan", "fixme": "nan", "ways": "nan", "harbour": "nan", "type": "nan", "wikidata": "nan", "wikipedia": "nan", "short_name": "nan" }, "geometry": { "type": "Polygon", "coordinates": [ [ [ -51.3354233, -30.1698054 ], [ -51.3343746, -30.1698588 ], [ -51.3337201, -30.1693625 ], [ -51.3332319, -30.1694553 ], [ -51.3326633, -30.1682726 ], [ -51.3325292, -30.1671596 ], [ -51.3311559, -30.1673451 ], [ -51.3309574, -30.1663386 ], [ -51.3329047, -30.1659676 ], [ -51.3333607, -30.1665427 ], [ -51.334514, -30.1663665 ], [ -51.3354233, -30.1698054 ] ] ] } },
{ "type": "Feature", "properties": { "element_type": "way", "osmid": "679477951", "barrier": "nan", "name": "Modular Transportes", "nodes": [ 8605234581, 6362540883, 850769761, 6362540884, 8605234581 ], "fence_type": "nan", "landuse": "industrial", "official_name": "nan", "website": "nan", "addr:housenumber": "nan", "addr:postcode": "nan", "addr:street": "nan", "phone": "nan", "source": "nan", "loc_name": "nan", "start_date": "nan", "opening_hours": "nan", "old_name": "nan", "man_made": "nan", "industrial": "transport", "depot": "nan", "addr:city": "nan", "addr:suburb": "nan", "operator": "nan", "source:name": "nan", "alt_name": "nan", "email": "nan", "fixme": "nan", "ways": "nan", "harbour": "nan", "type": "nan", "wikidata": "nan", "wikipedia": "nan", "short_name": "nan" }, "geometry": { "type": "Polygon", "coordinates": [ [ [ -51.1449596, -29.9260301 ], [ -51.1445671, -29.9258314 ], [ -51.1443954, -29.9236655 ], [ -51.1448233, -29.9236528 ], [ -51.1449596, -29.9260301 ] ] ] } },
{ "type": "Feature", "properties": { "element_type": "way", "osmid": "765719163", "barrier": "nan", "name": "Kley Hertz Farmacêutica S. A.", "nodes": [ 4194204321, 4194203493, 4194204063, 4194205002, 4194203958, 4194206472, 4194207772, 7151447065, 7151447066, 4194206861, 4194206017, 4194205471, 4194206653, 7151447067, 4194204321 ], "fence_type": "nan", "landuse": "industrial", "official_name": "nan", "website": "nan", "addr:housenumber": "nan", "addr:postcode": "nan", "addr:street": "nan", "phone": "nan", "source": "nan", "loc_name": "nan", "start_date": "nan", "opening_hours": "nan", "old_name": "nan", "man_made": "nan", "industrial": "factory", "depot": "nan", "addr:city": "nan", "addr:suburb": "nan", "operator": "nan", "source:name": "nan", "alt_name": "nan", "email": "nan", "fixme": "nan", "ways": "nan", "harbour": "nan", "type": "nan", "wikidata": "nan", "wikipedia": "nan", "short_name": "nan" }, "geometry": { "type": "Polygon", "coordinates": [ [ [ -51.2137213, -30.0186859 ], [ -51.2136065, -30.018417 ], [ -51.212901, -30.0186628 ], [ -51.2127478, -30.0187162 ], [ -51.2126723, -30.0185464 ], [ -51.2112767, -30.01903 ], [ -51.2114914, -30.0194575 ], [ -51.2113604, -30.0195092 ], [ -51.2115248, -30.019811 ], [ -51.2128417, -30.0191535 ], [ -51.212721, -30.0188993 ], [ -51.2128408, -30.0188487 ], [ -51.2129465, -30.0190605 ], [ -51.2132662, -30.0189061 ], [ -51.2137213, -30.0186859 ] ] ] } },
{ "type": "Feature", "properties": { "element_type": "way", "osmid": "772687596", "barrier": "nan", "name": "InterCement", "nodes": [ 516011410, 516011412, 7213903597, 516011377, 516011378, 516011380, 516011387, 346219958, 516011394, 516011398, 516011400, 7213882538, 7213882539, 516011403, 516011405, 516011408, 516011410 ], "fence_type": "nan", "landuse": "industrial", "official_name": "nan", "website": "nan", "addr:housenumber": "nan", "addr:postcode": "nan", "addr:street": "nan", "phone": "nan", "source": "nan", "loc_name": "nan", "start_date": "nan", "opening_hours": "nan", "old_name": "nan", "man_made": "nan", "industrial": "nan", "depot": "nan", "addr:city": "nan", "addr:suburb": "nan", "operator": "nan", "source:name": "nan", "alt_name": "nan", "email": "nan", "fixme": "nan", "ways": "nan", "harbour": "nan", "type": "nan", "wikidata": "nan", "wikipedia": "nan", "short_name": "nan" }, "geometry": { "type": "Polygon", "coordinates": [ [ [ -51.2835783, -29.924447 ], [ -51.2822511, -29.9241076 ], [ -51.2800706, -29.9246354 ], [ -51.2780368, -29.9251713 ], [ -51.2784659, -29.9269045 ], [ -51.2799851, -29.9265549 ], [ -51.2823336, -29.9314754 ], [ -51.2827303, -29.9316111 ], [ -51.2831168, -29.9310719 ], [ -51.2823798, -29.9307577 ], [ -51.2804958, -29.9268692 ], [ -51.2816477, -29.9265787 ], [ -51.2815189, -29.9261603 ], [ -51.2828175, -29.9258036 ], [ -51.2826974, -29.9253647 ], [ -51.283693, -29.9251341 ], [ -51.2835783, -29.924447 ] ] ] } },
{ "type": "Feature", "properties": { "element_type": "way", "osmid": "843719671", "barrier": "nan", "name": "Parque Industrial Jorge Lanner", "nodes": [ 7870602454, 7870602455, 7870602456, 7870602457, 8359040135, 7870602458, 7870602459, 7870602454 ], "fence_type": "nan", "landuse": "industrial", "official_name": "nan", "website": "nan", "addr:housenumber": "nan", "addr:postcode": "nan", "addr:street": "nan", "phone": "nan", "source": "nan", "loc_name": "nan", "start_date": "nan", "opening_hours": "nan", "old_name": "nan", "man_made": "nan", "industrial": "factory", "depot": "nan", "addr:city": "nan", "addr:suburb": "nan", "operator": "nan", "source:name": "nan", "alt_name": "nan", "email": "nan", "fixme": "nan", "ways": "nan", "harbour": "nan", "type": "nan", "wikidata": "nan", "wikipedia": "nan", "short_name": "nan" }, "geometry": { "type": "Polygon", "coordinates": [ [ [ -51.1569218, -29.9548598 ], [ -51.1539296, -29.9573395 ], [ -51.1543686, -29.9576636 ], [ -51.1538231, -29.9582882 ], [ -51.1549241, -29.959499 ], [ -51.1553563, -29.9598606 ], [ -51.1591984, -29.9570577 ], [ -51.1569218, -29.9548598 ] ] ] } },
{ "type": "Feature", "properties": { "element_type": "way", "osmid": "873063788", "barrier": "nan", "name": "Saint-Gobain Weber Quartzolit", "nodes": [ 8129944423, 8129944422, 8129944421, 8129944420, 8129944423 ], "fence_type": "nan", "landuse": "industrial", "official_name": "nan", "website": "nan", "addr:housenumber": "nan", "addr:postcode": "nan", "addr:street": "nan", "phone": "nan", "source": "nan", "loc_name": "nan", "start_date": "nan", "opening_hours": "nan", "old_name": "nan", "man_made": "nan", "industrial": "factory", "depot": "nan", "addr:city": "nan", "addr:suburb": "nan", "operator": "nan", "source:name": "nan", "alt_name": "nan", "email": "nan", "fixme": "nan", "ways": "nan", "harbour": "nan", "type": "nan", "wikidata": "nan", "wikipedia": "nan", "short_name": "nan" }, "geometry": { "type": "Polygon", "coordinates": [ [ [ -50.9962606, -30.0086931 ], [ -50.9962982, -30.0101238 ], [ -50.9935784, -30.0094619 ], [ -50.9935382, -30.0080451 ], [ -50.9962606, -30.0086931 ] ] ] } },
{ "type": "Feature", "properties": { "element_type": "way", "osmid": "889555931", "barrier": "nan", "name": "nan", "nodes": [ 8270085013, 8270085012, 8270085011, 8270085010, 8270085009, 8270085016, 8270085015, 8270085014, 8270085013 ], "fence_type": "nan", "landuse": "industrial", "official_name": "nan", "website": "nan", "addr:housenumber": "nan", "addr:postcode": "nan", "addr:street": "nan", "phone": "nan", "source": "nan", "loc_name": "nan", "start_date": "nan", "opening_hours": "nan", "old_name": "nan", "man_made": "nan", "industrial": "nan", "depot": "nan", "addr:city": "nan", "addr:suburb": "nan", "operator": "nan", "source:name": "nan", "alt_name": "nan", "email": "nan", "fixme": "nan", "ways": "nan", "harbour": "nan", "type": "nan", "wikidata": "nan", "wikipedia": "nan", "short_name": "nan" }, "geometry": { "type": "Polygon", "coordinates": [ [ [ -51.3107175, -30.0015971 ], [ -51.3115704, -30.0015042 ], [ -51.3114953, -30.0032184 ], [ -51.3110876, -30.0032231 ], [ -51.310755, -30.0030279 ], [ -51.3100362, -30.0030326 ], [ -51.310114, -30.0019362 ], [ -51.3103688, -30.0016296 ], [ -51.3107175, -30.0015971 ] ] ] } },
{ "type": "Feature", "properties": { "element_type": "way", "osmid": "889555932", "barrier": "nan", "name": "nan", "nodes": [ 8270087123, 8270087122, 8270087121, 8270087120, 8270087119, 8270087118, 8270087117, 8270085016, 8270085015, 8270085014, 8270085013, 8270087123 ], "fence_type": "nan", "landuse": "industrial", "official_name": "nan", "website": "nan", "addr:housenumber": "nan", "addr:postcode": "nan", "addr:street": "nan", "phone": "nan", "source": "nan", "loc_name": "nan", "start_date": "nan", "opening_hours": "nan", "old_name": "nan", "man_made": "nan", "industrial": "nan", "depot": "nan", "addr:city": "nan", "addr:suburb": "nan", "operator": "nan", "source:name": "nan", "alt_name": "nan", "email": "nan", "fixme": "nan", "ways": "nan", "harbour": "nan", "type": "nan", "wikidata": "nan", "wikipedia": "nan", "short_name": "nan" }, "geometry": { "type": "Polygon", "coordinates": [ [ [ -51.3106799, -30.0003335 ], [ -51.3083088, -30.0003149 ], [ -51.3082767, -30.0022568 ], [ -51.3087541, -30.0023961 ], [ -51.3087595, -30.0011883 ], [ -51.3096714, -30.0012022 ], [ -51.3096231, -30.0028143 ], [ -51.3100362, -30.0030326 ], [ -51.310114, -30.0019362 ], [ -51.3103688, -30.0016296 ], [ -51.3107175, -30.0015971 ], [ -51.3106799, -30.0003335 ] ] ] } },
{ "type": "Feature", "properties": { "element_type": "way", "osmid": "889555933", "barrier": "nan", "name": "Cervosul", "nodes": [ 8270087126, 8270087125, 8270087124, 1296868634, 8270087126 ], "fence_type": "nan", "landuse": "industrial", "official_name": "nan", "website": "nan", "addr:housenumber": "nan", "addr:postcode": "nan", "addr:street": "nan", "phone": "nan", "source": "nan", "loc_name": "nan", "start_date": "nan", "opening_hours": "nan", "old_name": "nan", "man_made": "nan", "industrial": "nan", "depot": "nan", "addr:city": "nan", "addr:suburb": "nan", "operator": "nan", "source:name": "nan", "alt_name": "nan", "email": "nan", "fixme": "nan", "ways": "nan", "harbour": "nan", "type": "nan", "wikidata": "nan", "wikipedia": "nan", "short_name": "nan" }, "geometry": { "type": "Polygon", "coordinates": [ [ [ -51.3156457, -30.0056476 ], [ -51.3152906, -30.0045517 ], [ -51.3132468, -30.0056968 ], [ -51.3135247, -30.0062196 ], [ -51.3156457, -30.0056476 ] ] ] } },
{ "type": "Feature", "properties": { "element_type": "way", "osmid": "889555934", "barrier": "nan", "name": "Grupo Dimed", "nodes": [ 8270087136, 8270087135, 8270087134, 8429643338, 8270087131, 8270087136 ], "fence_type": "nan", "landuse": "industrial", "official_name": "nan", "website": "nan", "addr:housenumber": "nan", "addr:postcode": "nan", "addr:street": "nan", "phone": "nan", "source": "nan", "loc_name": "nan", "start_date": "nan", "opening_hours": "nan", "old_name": "nan", "man_made": "nan", "industrial": "nan", "depot": "nan", "addr:city": "nan", "addr:suburb": "nan", "operator": "nan", "source:name": "nan", "alt_name": "nan", "email": "nan", "fixme": "nan", "ways": "nan", "harbour": "nan", "type": "nan", "wikidata": "nan", "wikipedia": "nan", "short_name": "nan" }, "geometry": { "type": "Polygon", "coordinates": [ [ [ -51.3194508, -30.0103166 ], [ -51.3154006, -30.0100634 ], [ -51.3160282, -30.0113385 ], [ -51.3183614, -30.011473 ], [ -51.3194132, -30.0115337 ], [ -51.3194508, -30.0103166 ] ] ] } },
{ "type": "Feature", "properties": { "element_type": "way", "osmid": "972354932", "barrier": "nan", "name": "nan", "nodes": [ 8999436209, 8999436208, 8999436207, 8999436206, 8999436205, 8999436204, 8999436209 ], "fence_type": "nan", "landuse": "industrial", "official_name": "nan", "website": "nan", "addr:housenumber": "nan", "addr:postcode": "nan", "addr:street": "nan", "phone": "nan", "source": "nan", "loc_name": "nan", "start_date": "nan", "opening_hours": "nan", "old_name": "nan", "man_made": "nan", "industrial": "nan", "depot": "nan", "addr:city": "nan", "addr:suburb": "nan", "operator": "nan", "source:name": "nan", "alt_name": "nan", "email": "nan", "fixme": "nan", "ways": "nan", "harbour": "nan", "type": "nan", "wikidata": "nan", "wikipedia": "nan", "short_name": "nan" }, "geometry": { "type": "Polygon", "coordinates": [ [ [ -51.1016278, -29.9874021 ], [ -51.1006558, -29.9873833 ], [ -51.1007101, -29.9860453 ], [ -51.1011527, -29.9860641 ], [ -51.1012287, -29.9848436 ], [ -51.1017283, -29.9848295 ], [ -51.1016278, -29.9874021 ] ] ] } },
{ "type": "Feature", "properties": { "element_type": "way", "osmid": "972354933", "barrier": "nan", "name": "nan", "nodes": [ 8999436219, 8999436218, 8999436217, 8999436216, 8999436215, 8999436214, 8999436213, 8999436212, 8999436211, 8999436210, 8999436219 ], "fence_type": "nan", "landuse": "industrial", "official_name": "nan", "website": "nan", "addr:housenumber": "nan", "addr:postcode": "nan", "addr:street": "nan", "phone": "nan", "source": "nan", "loc_name": "nan", "start_date": "nan", "opening_hours": "nan", "old_name": "nan", "man_made": "nan", "industrial": "nan", "depot": "nan", "addr:city": "nan", "addr:suburb": "nan", "operator": "nan", "source:name": "nan", "alt_name": "nan", "email": "nan", "fixme": "nan", "ways": "nan", "harbour": "nan", "type": "nan", "wikidata": "nan", "wikipedia": "nan", "short_name": "nan" }, "geometry": { "type": "Polygon", "coordinates": [ [ [ -51.1037426, -29.9904443 ], [ -51.1011495, -29.9903008 ], [ -51.1011973, -29.9896529 ], [ -51.1009055, -29.9896367 ], [ -51.1009487, -29.9890515 ], [ -51.1012119, -29.9890661 ], [ -51.1013042, -29.9878147 ], [ -51.1034431, -29.9879331 ], [ -51.1034517, -29.9878163 ], [ -51.1039682, -29.9878701 ], [ -51.1037426, -29.9904443 ] ] ] } },
{ "type": "Feature", "properties": { "element_type": "way", "osmid": "972354934", "barrier": "nan", "name": "nan", "nodes": [ 8999436223, 8999436222, 8999436221, 8999436220, 8999436223 ], "fence_type": "nan", "landuse": "industrial", "official_name": "nan", "website": "nan", "addr:housenumber": "nan", "addr:postcode": "nan", "addr:street": "nan", "phone": "nan", "source": "nan", "loc_name": "nan", "start_date": "nan", "opening_hours": "nan", "old_name": "nan", "man_made": "nan", "industrial": "nan", "depot": "nan", "addr:city": "nan", "addr:suburb": "nan", "operator": "nan", "source:name": "nan", "alt_name": "nan", "email": "nan", "fixme": "nan", "ways": "nan", "harbour": "nan", "type": "nan", "wikidata": "nan", "wikipedia": "nan", "short_name": "nan" }, "geometry": { "type": "Polygon", "coordinates": [ [ [ -51.1089394, -29.9814995 ], [ -51.1078534, -29.9815465 ], [ -51.1077747, -29.9838559 ], [ -51.1091132, -29.9838159 ], [ -51.1089394, -29.9814995 ] ] ] } },
{ "type": "Feature", "properties": { "element_type": "way", "osmid": "972354944", "barrier": "nan", "name": "nan", "nodes": [ 8999436292, 8999436291, 8999436290, 8999436289, 8999436288, 8999436287, 8999436286, 8999436285, 8999436284, 8999436283, 8999436292 ], "fence_type": "nan", "landuse": "industrial", "official_name": "nan", "website": "nan", "addr:housenumber": "nan", "addr:postcode": "nan", "addr:street": "nan", "phone": "nan", "source": "nan", "loc_name": "nan", "start_date": "nan", "opening_hours": "nan", "old_name": "nan", "man_made": "nan", "industrial": "nan", "depot": "nan", "addr:city": "nan", "addr:suburb": "nan", "operator": "nan", "source:name": "nan", "alt_name": "nan", "email": "nan", "fixme": "nan", "ways": "nan", "harbour": "nan", "type": "nan", "wikidata": "nan", "wikipedia": "nan", "short_name": "nan" }, "geometry": { "type": "Polygon", "coordinates": [ [ [ -50.9670227, -29.9524042 ], [ -50.9670225, -29.9527512 ], [ -50.9668625, -29.9527512 ], [ -50.9668624, -29.9528489 ], [ -50.9665014, -29.9528487 ], [ -50.9665013, -29.9530358 ], [ -50.9665953, -29.9530359 ], [ -50.9665948, -29.9539641 ], [ -50.9655166, -29.9539636 ], [ -50.9655177, -29.9519902 ], [ -50.9670227, -29.9524042 ] ] ] } },
{ "type": "Feature", "properties": { "element_type": "way", "osmid": "972354947", "barrier": "nan", "name": "nan", "nodes": [ 8999436295, 330276666, 330276664, 354924726, 8999436294, 8999436293, 8999436295 ], "fence_type": "nan", "landuse": "industrial", "official_name": "nan", "website": "nan", "addr:housenumber": "nan", "addr:postcode": "nan", "addr:street": "nan", "phone": "nan", "source": "nan", "loc_name": "nan", "start_date": "nan", "opening_hours": "nan", "old_name": "nan", "man_made": "nan", "industrial": "nan", "depot": "nan", "addr:city": "nan", "addr:suburb": "nan", "operator": "nan", "source:name": "nan", "alt_name": "nan", "email": "nan", "fixme": "nan", "ways": "nan", "harbour": "nan", "type": "nan", "wikidata": "nan", "wikipedia": "nan", "short_name": "nan" }, "geometry": { "type": "Polygon", "coordinates": [ [ [ -51.1812417, -29.9669867 ], [ -51.1808764, -29.9680818 ], [ -51.1780794, -29.9676378 ], [ -51.1771046, -29.9675266 ], [ -51.1771492, -29.9660892 ], [ -51.1773107, -29.9660126 ], [ -51.1812417, -29.9669867 ] ] ] } },
{ "type": "Feature", "properties": { "element_type": "way", "osmid": "1187273451", "barrier": "nan", "name": "Full Gauge Controls", "nodes": [ 11025431684, 11025431685, 11025431686, 11025431690, 11025431687, 11025431688, 11025431689, 11025431684 ], "fence_type": "nan", "landuse": "industrial", "official_name": "nan", "website": "https://www.fullgauge.com.br", "addr:housenumber": "250", "addr:postcode": "92120-030", "addr:street": "Rua Júlio de Castilhos", "phone": "+55 51 3475 3308", "source": "nan", "loc_name": "nan", "start_date": "nan", "opening_hours": "nan", "old_name": "nan", "man_made": "nan", "industrial": "factory", "depot": "nan", "addr:city": "Canoas", "addr:suburb": "Niterói", "operator": "nan", "source:name": "nan", "alt_name": "nan", "email": "nan", "fixme": "nan", "ways": "nan", "harbour": "nan", "type": "nan", "wikidata": "nan", "wikipedia": "nan", "short_name": "nan" }, "geometry": { "type": "Polygon", "coordinates": [ [ [ -51.1741229, -29.9548148 ], [ -51.1734366, -29.9547961 ], [ -51.1734027, -29.9556157 ], [ -51.1735737, -29.9556197 ], [ -51.1737447, -29.9556237 ], [ -51.173764, -29.9552213 ], [ -51.1741052, -29.9552339 ], [ -51.1741229, -29.9548148 ] ] ] } },
{ "type": "Feature", "properties": { "element_type": "way", "osmid": "1196916715", "barrier": "nan", "name": "Fundição Ciron Ltda.", "nodes": [ 11106003663, 11106003664, 11106003665, 11106003666, 11106003668, 11106003663 ], "fence_type": "nan", "landuse": "industrial", "official_name": "nan", "website": "nan", "addr:housenumber": "299", "addr:postcode": "nan", "addr:street": "Rua Vereador Mario Cardoso Ferreira", "phone": "nan", "source": "nan", "loc_name": "nan", "start_date": "nan", "opening_hours": "nan", "old_name": "nan", "man_made": "nan", "industrial": "industria", "depot": "nan", "addr:city": "Alvorada", "addr:suburb": "nan", "operator": "nan", "source:name": "nan", "alt_name": "nan", "email": "nan", "fixme": "nan", "ways": "nan", "harbour": "nan", "type": "nan", "wikidata": "nan", "wikipedia": "nan", "short_name": "nan" }, "geometry": { "type": "Polygon", "coordinates": [ [ [ -51.0194355, -29.9852881 ], [ -51.0220818, -29.9889734 ], [ -51.0155147, -29.9977054 ], [ -51.0126808, -29.9968784 ], [ -51.011175, -29.9962291 ], [ -51.0194355, -29.9852881 ] ] ] } },
{ "type": "Feature", "properties": { "element_type": "way", "osmid": "1211422082", "barrier": "nan", "name": "nan", "nodes": [ 11223700172, 3670744124, 3670744117, 3670744069, 11223700173, 3670744074, 3670744051, 11223700174, 2235771676, 93004659, 4622461222, 92987932, 11223700172 ], "fence_type": "nan", "landuse": "industrial", "official_name": "nan", "website": "nan", "addr:housenumber": "nan", "addr:postcode": "nan", "addr:street": "nan", "phone": "nan", "source": "nan", "loc_name": "nan", "start_date": "nan", "opening_hours": "nan", "old_name": "nan", "man_made": "nan", "industrial": "nan", "depot": "nan", "addr:city": "nan", "addr:suburb": "nan", "operator": "nan", "source:name": "nan", "alt_name": "nan", "email": "nan", "fixme": "nan", "ways": "nan", "harbour": "nan", "type": "nan", "wikidata": "nan", "wikipedia": "nan", "short_name": "nan" }, "geometry": { "type": "Polygon", "coordinates": [ [ [ -51.2576949, -30.0062813 ], [ -51.2568335, -30.0051658 ], [ -51.2571329, -30.0048757 ], [ -51.2567852, -30.0046135 ], [ -51.2573432, -30.004055 ], [ -51.2577462, -30.0042681 ], [ -51.2588234, -30.0031219 ], [ -51.2602005, -30.0040751 ], [ -51.2592464, -30.0050827 ], [ -51.2589548, -30.0053764 ], [ -51.2588477, -30.0054592 ], [ -51.2579935, -30.0061197 ], [ -51.2576949, -30.0062813 ] ] ] } },
{ "type": "Feature", "properties": { "element_type": "way", "osmid": "1211472411", "barrier": "nan", "name": "nan", "nodes": [ 11223700203, 3670743930, 11223700209, 11223700210, 11224042323, 11224042329, 11224042324, 11224042325, 11223700203 ], "fence_type": "nan", "landuse": "industrial", "official_name": "nan", "website": "nan", "addr:housenumber": "nan", "addr:postcode": "nan", "addr:street": "nan", "phone": "nan", "source": "nan", "loc_name": "nan", "start_date": "nan", "opening_hours": "nan", "old_name": "nan", "man_made": "nan", "industrial": "nan", "depot": "nan", "addr:city": "nan", "addr:suburb": "nan", "operator": "nan", "source:name": "nan", "alt_name": "nan", "email": "nan", "fixme": "nan", "ways": "nan", "harbour": "nan", "type": "nan", "wikidata": "nan", "wikipedia": "nan", "short_name": "nan" }, "geometry": { "type": "Polygon", "coordinates": [ [ [ -51.2650788, -29.9943632 ], [ -51.2643819, -29.9942333 ], [ -51.2646754, -29.9937731 ], [ -51.264398, -29.9936581 ], [ -51.2640783, -29.9935496 ], [ -51.264259, -29.9931904 ], [ -51.2644384, -29.9928336 ], [ -51.2655921, -29.9929985 ], [ -51.2650788, -29.9943632 ] ] ] } },
{ "type": "Feature", "properties": { "element_type": "way", "osmid": "1211501359", "barrier": "nan", "name": "nan", "nodes": [ 11224286870, 11224286871, 11224286872, 11224286873, 11224286876, 11224286877, 11224286875, 11224286874, 11224286870 ], "fence_type": "nan", "landuse": "industrial", "official_name": "nan", "website": "nan", "addr:housenumber": "nan", "addr:postcode": "nan", "addr:street": "nan", "phone": "nan", "source": "nan", "loc_name": "nan", "start_date": "nan", "opening_hours": "nan", "old_name": "nan", "man_made": "wastewater_plant", "industrial": "nan", "depot": "nan", "addr:city": "nan", "addr:suburb": "nan", "operator": "nan", "source:name": "nan", "alt_name": "nan", "email": "nan", "fixme": "nan", "ways": "nan", "harbour": "nan", "type": "nan", "wikidata": "nan", "wikipedia": "nan", "short_name": "nan" }, "geometry": { "type": "Polygon", "coordinates": [ [ [ -51.2178631, -30.1670447 ], [ -51.2178756, -30.169111 ], [ -51.2153899, -30.1691362 ], [ -51.2153816, -30.1670519 ], [ -51.215696, -30.1670526 ], [ -51.2157022, -30.1666505 ], [ -51.2173196, -30.1666377 ], [ -51.21732, -30.1670462 ], [ -51.2178631, -30.1670447 ] ] ] } },
{ "type": "Feature", "properties": { "element_type": "way", "osmid": "1212656573", "barrier": "nan", "name": "nan", "nodes": [ 11235054511, 11235054512, 11235054513, 11235054514, 11235054515, 11235054516, 11235054517, 11235054518, 11235054519, 11235054520, 11235054680, 11235054681, 11235054636, 11235054635, 11235054634, 11235054633, 11235054632, 11235054631, 11235054630, 11235054629, 11235054628, 11235054627, 11235054626, 11235054625, 11235054624, 11235054682, 11235054683, 11235054684, 11235054685, 11235054686, 11235054503, 11235054504, 11235054505, 11235054506, 11235054507, 11235054508, 11235054509, 11235054510, 11235054511 ], "fence_type": "nan", "landuse": "industrial", "official_name": "nan", "website": "nan", "addr:housenumber": "nan", "addr:postcode": "nan", "addr:street": "nan", "phone": "nan", "source": "nan", "loc_name": "nan", "start_date": "nan", "opening_hours": "nan", "old_name": "nan", "man_made": "nan", "industrial": "nan", "depot": "nan", "addr:city": "nan", "addr:suburb": "nan", "operator": "nan", "source:name": "nan", "alt_name": "nan", "email": "nan", "fixme": "nan", "ways": "nan", "harbour": "nan", "type": "nan", "wikidata": "nan", "wikipedia": "nan", "short_name": "nan" }, "geometry": { "type": "Polygon", "coordinates": [ [ [ -51.1723657, -30.2168157 ], [ -51.1707337, -30.2184453 ], [ -51.170558, -30.2185036 ], [ -51.1703991, -30.2185098 ], [ -51.1702354, -30.2184495 ], [ -51.1699922, -30.2182644 ], [ -51.1678412, -30.2164574 ], [ -51.1678665, -30.2163624 ], [ -51.1682608, -30.2160299 ], [ -51.1686026, -30.2156846 ], [ -51.1703807, -30.2140316 ], [ -51.1704816, -30.2139752 ], [ -51.1705576, -30.2140218 ], [ -51.1713063, -30.2145335 ], [ -51.1717696, -30.2149778 ], [ -51.1718436, -30.2150506 ], [ -51.1719587, -30.2150506 ], [ -51.1720615, -30.2149814 ], [ -51.1721252, -30.2150098 ], [ -51.172119, -30.2151252 ], [ -51.1719998, -30.2152389 ], [ -51.1722567, -30.2154201 ], [ -51.1723718, -30.2153775 ], [ -51.1724438, -30.2153544 ], [ -51.1725536, -30.2154755 ], [ -51.1725602, -30.2155212 ], [ -51.1725205, -30.2156125 ], [ -51.1730621, -30.2159948 ], [ -51.1733428, -30.2161803 ], [ -51.1738711, -30.2165541 ], [ -51.1736976, -30.2167109 ], [ -51.1735846, -30.2167447 ], [ -51.1733359, -30.2169152 ], [ -51.1731694, -30.2169543 ], [ -51.1729824, -30.2169028 ], [ -51.1729495, -30.2169916 ], [ -51.1727748, -30.2170413 ], [ -51.1725466, -30.2168779 ], [ -51.1723657, -30.2168157 ] ] ] } },
{ "type": "Feature", "properties": { "element_type": "way", "osmid": "1212928499", "barrier": "nan", "name": "Estação de Tratamento de Esgoto", "nodes": [ 11237430122, 11237430121, 11237430120, 11237430119, 11237430118, 11237430117, 11237430116, 11237430115, 11237687714, 11237430122 ], "fence_type": "nan", "landuse": "industrial", "official_name": "nan", "website": "nan", "addr:housenumber": "nan", "addr:postcode": "nan", "addr:street": "nan", "phone": "nan", "source": "Cartas Topográficas do Exército Brasileiro", "loc_name": "nan", "start_date": "nan", "opening_hours": "nan", "old_name": "nan", "man_made": "wastewater_plant", "industrial": "nan", "depot": "nan", "addr:city": "nan", "addr:suburb": "nan", "operator": "nan", "source:name": "nan", "alt_name": "nan", "email": "nan", "fixme": "Nome atual, Estação de Tratamento de Esgoto, é descritivo, não nome próprio. Ideal ver nome real", "ways": "nan", "harbour": "nan", "type": "nan", "wikidata": "nan", "wikipedia": "nan", "short_name": "nan" }, "geometry": { "type": "Polygon", "coordinates": [ [ [ -51.0862568, -30.2355074 ], [ -51.0856748, -30.2336582 ], [ -51.0851437, -30.2333152 ], [ -51.0829094, -30.2343047 ], [ -51.079967, -30.2356859 ], [ -51.0805893, -30.2367819 ], [ -51.0825098, -30.2359361 ], [ -51.0826439, -30.2361586 ], [ -51.0856857, -30.2356103 ], [ -51.0862568, -30.2355074 ] ] ] } },
{ "type": "Feature", "properties": { "element_type": "relation", "osmid": "3186355", "barrier": "nan", "name": "Porto de Porto Alegre", "nodes": [ [ [ 5752223673, 2447789963, 2447789958, 2447789952, 2447789944, 2447789942, 2447789940 ], [ 2447789940, 8807687509, 4622849813, 4622849811, 3350899402, 3618664203, 4622461438, 3241971479, 3241971475, 3714152194, 2447789934, 3241971476, 1203855569, 2447789932, 2447789930, 2447789928, 2447789926, 3455052202, 2447789924 ], [ 2447789924, 4915327283, 2447789922 ], [ 2447789922, 2447789920, 2447789918, 2447789916, 1243936352, 1243936383, 1243936293, 1243936314, 1243936384, 1243936300, 4915327243 ], [ 4915327243, 2447789914 ], [ 2447789914, 4211751617, 4211748631, 3336751984, 660544693, 4622849583, 4622849577, 4622849569, 4211736198, 4622849559, 4622849555, 4622849554, 4622849553, 4622849552, 4915326795, 4622849551, 4211730111, 4211726587, 4211720207, 4211725961, 4256684629, 4256684627, 4256684625, 4256684623, 4622849542, 4622849541, 1296563134, 1296563116, 1296576433, 1296576443, 1296562988, 1296576417, 1296563047, 1296562956, 1243925013, 1243925023, 1296461524, 1243925089, 1243925052, 1296461226, 1243925069, 1243924920, 4256665672, 4256665689, 4622849534, 1296461682, 4622849530, 1296461216, 4622849528, 4622849527, 4622849524, 4622849522, 4622849523, 4256616263, 4256616244, 4256616241, 4256616212, 4622849518, 4622849517, 4622849515, 4622849516 ], [ 4622849516, 354741523, 354741525, 354741526, 4622849519, 1483528186, 354741529, 354741530, 354741531, 1243924864, 354741532, 354741533, 1296461684 ], [ 1296461684, 341870987 ], [ 341870987, 4622849525, 1296461523, 1296461224, 1296461495, 4622849533, 1243924872, 344663099, 344663103, 344663104, 344663107, 1243925177, 1296562930, 1296562980, 344663109, 344663110, 344663111, 4622849535, 344663112, 344663115, 344663116, 344663117, 344664093, 344664094, 344664095, 4622849537, 1296563056, 1296563055, 355161586, 4622849543, 4622849547, 4622849550, 4915326794 ], [ 4915326794, 4622849560, 355161587, 5426926709, 4622849584, 2447789911 ], [ 2447789911, 4622849790 ], [ 4622849790, 355161588, 1243936322, 1243936340, 355161589 ], [ 355161589, 355161590, 355161591 ], [ 355161591, 355161592 ], [ 355161592, 355161593, 355161594, 1483528211, 355161595, 355161596, 355161597, 355161598, 355161599, 355161600, 355161601, 355161602, 355161603, 355161604, 355161605, 355161606, 7384925041, 7384925038, 7384925040, 7384925030, 7384925039, 7913541342, 4485934942 ], [ 4485934942, 7913541343, 4485934933 ], [ 4485934933, 7913541339, 7913541338, 355161607, 7913541337, 7913541336, 355161608, 355161609, 355161610, 7465662770, 4805805197 ], [ 4805805197, 3315842978, 7384873999, 4805805195 ], [ 4805805195, 355161611, 4622461406 ], [ 4622461406, 7384821088, 4622461410, 7384821087, 7384821091, 4622461423 ], [ 4622461423, 8807687507 ], [ 8807687507, 355161612, 8807687508, 355161613 ], [ 355161613, 3315760275, 3315760277, 3315760284 ], [ 3315760284, 355161617, 2447789962, 355161619, 3315760283 ], [ 3315760283, 3315760278, 3315760279, 3451431224, 3315760280, 355161626, 3315760281, 355161627, 3315760282, 355161629, 355161630, 355161631, 3451431250, 355161632 ], [ 355161632, 355161633 ], [ 1118145575, 5752223664, 355161633 ], [ 4297022732, 1118145575 ], [ 1118145508, 2447789975, 3451431265, 4297022732 ], [ 1118145508, 5752223673 ] ] ], "fence_type": "nan", "landuse": "industrial", "official_name": "nan", "website": "nan", "addr:housenumber": "nan", "addr:postcode": "nan", "addr:street": "nan", "phone": "nan", "source": "nan", "loc_name": "nan", "start_date": "nan", "opening_hours": "nan", "old_name": "nan", "man_made": "nan", "industrial": "port", "depot": "nan", "addr:city": "nan", "addr:suburb": "nan", "operator": "SPH", "source:name": "nan", "alt_name": "nan", "email": "nan", "fixme": "nan", "ways": [ 606792842, 236808338, 500493052, 467677689, 500492994, 467677687, 467677677, 356395486, 213930420, 500493171, 236808342, 467677678, 213930429, 500492970, 467677690, 552212478, 552212477, 552212503, 552212502, 552212499, 552212498, 951557139, 236808337, 236808334, 236808344, 606792845, 606792840, 606792833, 606792834, 606792841 ], "harbour": "yes", "type": "multipolygon", "wikidata": "Q7231248", "wikipedia": "pt:Porto de Porto Alegre", "short_name": "nan" }, "geometry": { "type": "Polygon", "coordinates": [ [ [ -51.2415715, -30.0339598 ], [ -51.2412123, -30.0338529 ], [ -51.241242, -30.0337831 ], [ -51.2414911, -30.0335712 ], [ -51.2417229, -30.0335118 ], [ -51.2418602, -30.0332145 ], [ -51.2418676, -30.0329183 ], [ -51.2418306, -30.032873 ], [ -51.2417874, -30.0328708 ], [ -51.2416889, -30.0327423 ], [ -51.2416103, -30.0327223 ], [ -51.2415027, -30.032754 ], [ -51.2414261, -30.0327766 ], [ -51.2412371, -30.0326997 ], [ -51.2412066, -30.0326614 ], [ -51.2407878, -30.0329157 ], [ -51.2407085, -30.0328312 ], [ -51.2406272, -30.0327397 ], [ -51.2410462, -30.0324715 ], [ -51.2411781, -30.0323893 ], [ -51.2411903, -30.0318105 ], [ -51.2410277, -30.0317313 ], [ -51.2409814, -30.0316023 ], [ -51.2410172, -30.0315456 ], [ -51.2399692, -30.0310352 ], [ -51.2290358, -30.0257096 ], [ -51.2288587, -30.0256129 ], [ -51.2288252, -30.0255986 ], [ -51.2288181, -30.0255947 ], [ -51.2288098, -30.02559 ], [ -51.2285636, -30.0254796 ], [ -51.2277947, -30.025122 ], [ -51.2277937, -30.025173 ], [ -51.2277942, -30.0252714 ], [ -51.2277948, -30.0253991 ], [ -51.2277976, -30.0254462 ], [ -51.2277955, -30.0254934 ], [ -51.2277874, -30.0256811 ], [ -51.2271697, -30.0256733 ], [ -51.2271831, -30.0248175 ], [ -51.2263571, -30.0244156 ], [ -51.2263439, -30.0244143 ], [ -51.2263275, -30.0244162 ], [ -51.2263145, -30.0244242 ], [ -51.2263097, -30.024436 ], [ -51.2263103, -30.0244777 ], [ -51.2263112, -30.0246328 ], [ -51.2263114, -30.0246742 ], [ -51.2263105, -30.0247177 ], [ -51.2263111, -30.0247342 ], [ -51.2263106, -30.0247403 ], [ -51.2263113, -30.0247471 ], [ -51.2263123, -30.0247562 ], [ -51.2263107, -30.0248252 ], [ -51.2262578, -30.0253298 ], [ -51.2256926, -30.0250509 ], [ -51.2257154, -30.0239109 ], [ -51.2245052, -30.0233313 ], [ -51.2244749, -30.0244515 ], [ -51.2235844, -30.0240291 ], [ -51.223604, -30.0226476 ], [ -51.2222052, -30.0219991 ], [ -51.2218579, -30.0231893 ], [ -51.220966, -30.0227725 ], [ -51.221418, -30.0212695 ], [ -51.2209848, -30.0208656 ], [ -51.2208799, -30.0208326 ], [ -51.2207802, -30.020864 ], [ -51.2200774, -30.0217309 ], [ -51.2198789, -30.0217444 ], [ -51.218949, -30.0208614 ], [ -51.2197245, -30.019831 ], [ -51.2197245, -30.0197047 ], [ -51.2180307, -30.0181438 ], [ -51.216917, -30.0171305 ], [ -51.2158575, -30.0161451 ], [ -51.2128643, -30.0104525 ], [ -51.2121572, -30.0091077 ], [ -51.2113222, -30.0075171 ], [ -51.210942, -30.0067929 ], [ -51.2102518, -30.005478 ], [ -51.2098687, -30.0043437 ], [ -51.2093241, -30.0027314 ], [ -51.2091081, -30.0020918 ], [ -51.2083754, -29.9999222 ], [ -51.2080103, -29.9988411 ], [ -51.2078197, -29.9982768 ], [ -51.2077126, -29.9974601 ], [ -51.2075976, -29.996668 ], [ -51.2075313, -29.9962056 ], [ -51.2074697, -29.9957758 ], [ -51.2069375, -29.9959126 ], [ -51.2066154, -29.9948641 ], [ -51.2073002, -29.9946957 ], [ -51.2071863, -29.9943196 ], [ -51.2064846, -29.9944971 ], [ -51.2062947, -29.9939674 ], [ -51.206846, -29.993845 ], [ -51.2069934, -29.9938123 ], [ -51.2069535, -29.9935989 ], [ -51.2068165, -29.9936194 ], [ -51.2066775, -29.9932063 ], [ -51.2065267, -29.9927578 ], [ -51.2063818, -29.992331 ], [ -51.2062476, -29.9918784 ], [ -51.2061085, -29.9914663 ], [ -51.2059683, -29.9910269 ], [ -51.2061116, -29.990992 ], [ -51.206054, -29.9908136 ], [ -51.2058635, -29.9902373 ], [ -51.2057204, -29.9898044 ], [ -51.2055484, -29.9892659 ], [ -51.2053973, -29.9888033 ], [ -51.2052711, -29.9884497 ], [ -51.2051983, -29.9882291 ], [ -51.2048506, -29.9880729 ], [ -51.2046686, -29.9876709 ], [ -51.2041819, -29.9873327 ], [ -51.2036736, -29.9864795 ], [ -51.203358, -29.9857195 ], [ -51.2031805, -29.9851292 ], [ -51.2026173, -29.9837852 ], [ -51.2026484, -29.9831075 ], [ -51.2026104, -29.9824603 ], [ -51.2026047, -29.9823512 ], [ -51.2025079, -29.9820174 ], [ -51.2035669, -29.9817638 ], [ -51.2033035, -29.9816867 ], [ -51.2028815, -29.9816316 ], [ -51.2023716, -29.9816965 ], [ -51.2019113, -29.9818206 ], [ -51.2019282, -29.9818682 ], [ -51.2020019, -29.9820758 ], [ -51.2020276, -29.9821483 ], [ -51.2020673, -29.9822603 ], [ -51.203643, -29.9874784 ], [ -51.2039696, -29.9874114 ], [ -51.2041377, -29.9882545 ], [ -51.2044648, -29.9892256 ], [ -51.2043988, -29.9892453 ], [ -51.2045418, -29.9895161 ], [ -51.2045609, -29.9895502 ], [ -51.2047005, -29.9900345 ], [ -51.2047893, -29.9904637 ], [ -51.2049057, -29.990953 ], [ -51.2049149, -29.9909818 ], [ -51.2049456, -29.9910775 ], [ -51.2050107, -29.9912866 ], [ -51.2050357, -29.9913958 ], [ -51.2050409, -29.9914556 ], [ -51.2051113, -29.9917259 ], [ -51.2051506, -29.9919469 ], [ -51.205166, -29.9921171 ], [ -51.2053185, -29.9925608 ], [ -51.2054612, -29.9930175 ], [ -51.205628, -29.9934422 ], [ -51.2058176, -29.9939452 ], [ -51.205862, -29.9940631 ], [ -51.2061196, -29.9947563 ], [ -51.2067244, -29.9963749 ], [ -51.2068737, -29.9967379 ], [ -51.2070777, -29.9975114 ], [ -51.207201, -29.9978067 ], [ -51.2073961, -29.9983823 ], [ -51.2074646, -29.998769 ], [ -51.2074741, -29.9988125 ], [ -51.2074893, -29.9988815 ], [ -51.2075168, -29.9989642 ], [ -51.2078778, -30.0000494 ], [ -51.2078982, -30.0001104 ], [ -51.2079605, -30.0002932 ], [ -51.2085554, -30.002037 ], [ -51.2086128, -30.0022053 ], [ -51.2088325, -30.0028547 ], [ -51.2091272, -30.0037261 ], [ -51.2090106, -30.0037537 ], [ -51.2089618, -30.0037653 ], [ -51.2088562, -30.0037904 ], [ -51.2089404, -30.0042946 ], [ -51.2089465, -30.0043205 ], [ -51.2094115, -30.0057876 ], [ -51.2097402, -30.0065592 ], [ -51.2102392, -30.007512 ], [ -51.2102208, -30.0075834 ], [ -51.2102559, -30.0076436 ], [ -51.2105541, -30.0081576 ], [ -51.2111203, -30.0092326 ], [ -51.2112537, -30.0094617 ], [ -51.2119623, -30.0108086 ], [ -51.2120327, -30.0109425 ], [ -51.2125909, -30.0120146 ], [ -51.2133857, -30.0135411 ], [ -51.213946, -30.0146172 ], [ -51.2143142, -30.0153244 ], [ -51.2148967, -30.0164428 ], [ -51.2166216, -30.019728 ], [ -51.216906, -30.0200938 ], [ -51.2174651, -30.0205874 ], [ -51.2179732, -30.0209578 ], [ -51.2184601, -30.0212417 ], [ -51.2196422, -30.021931 ], [ -51.2197921, -30.0220306 ], [ -51.2205346, -30.0227079 ], [ -51.2207611, -30.0228716 ], [ -51.2254871, -30.0251991 ], [ -51.2268257, -30.0258489 ], [ -51.2271934, -30.0259228 ], [ -51.2283186, -30.0260131 ], [ -51.2285005, -30.0260486 ], [ -51.228639, -30.0260945 ], [ -51.228682, -30.0261119 ], [ -51.2290185, -30.0262647 ], [ -51.2307317, -30.0271022 ], [ -51.2317443, -30.0275972 ], [ -51.2318567, -30.0276521 ], [ -51.2319514, -30.0276984 ], [ -51.2325894, -30.0280103 ], [ -51.2365567, -30.0299497 ], [ -51.23968, -30.0314765 ], [ -51.2399313, -30.0316854 ], [ -51.2399897, -30.0318939 ], [ -51.2398818, -30.0324019 ], [ -51.2399113, -30.0326542 ], [ -51.2400437, -30.0328933 ], [ -51.2405566, -30.0335567 ], [ -51.2407609, -30.0338068 ], [ -51.2411691, -30.0339225 ], [ -51.2413101, -30.0339624 ], [ -51.24137, -30.0339794 ], [ -51.2415453, -30.034029 ], [ -51.2415591, -30.0339925 ], [ -51.2415715, -30.0339598 ] ] ] } },
{ "type": "Feature", "properties": { "element_type": "relation", "osmid": "6899023", "barrier": "nan", "name": "Cais Mauá", "nodes": [ [ [ 355161592, 1990532527, 2447789924 ], [ 355161592, 355161593, 355161594, 1483528211, 355161595, 355161596, 355161597, 355161598, 355161599, 355161600, 355161601, 355161602, 355161603, 355161604, 355161605, 355161606, 7384925041, 7384925038, 7384925040, 7384925030, 7384925039, 7913541342, 4485934942 ], [ 4485934942, 7913541343, 4485934933 ], [ 4485934933, 7913541339, 7913541338, 355161607, 7913541337, 7913541336, 355161608, 355161609, 355161610, 7465662770, 4805805197 ], [ 4805805197, 3315842978, 7384873999, 4805805195 ], [ 4805805195, 355161611, 4622461406 ], [ 4622461406, 7384821088, 4622461410, 7384821087, 7384821091, 4622461423 ], [ 4622461423, 8807687507 ], [ 8807687507, 2447789940 ], [ 2447789940, 8807687509, 4622849813, 4622849811, 3350899402, 3618664203, 4622461438, 3241971479, 3241971475, 3714152194, 2447789934, 3241971476, 1203855569, 2447789932, 2447789930, 2447789928, 2447789926, 3455052202, 2447789924 ] ] ], "fence_type": "nan", "landuse": "industrial", "official_name": "nan", "website": "nan", "addr:housenumber": "nan", "addr:postcode": "nan", "addr:street": "nan", "phone": "nan", "source": "nan", "loc_name": "nan", "start_date": "nan", "opening_hours": "nan", "old_name": "nan", "man_made": "nan", "industrial": "port", "depot": "nan", "addr:city": "nan", "addr:suburb": "nan", "operator": "nan", "source:name": "nan", "alt_name": "Cais do Porto", "email": "nan", "fixme": "nan", "ways": [ 356395568, 467677690, 552212478, 552212477, 552212503, 552212502, 552212499, 552212498, 951557140, 236808338 ], "harbour": "yes", "type": "multipolygon", "wikidata": "Q10292379", "wikipedia": "pt:Cais Mauá", "short_name": "nan" }, "geometry": { "type": "Polygon", "coordinates": [ [ [ -51.2399692, -30.0310352 ], [ -51.2290358, -30.0257096 ], [ -51.2288587, -30.0256129 ], [ -51.2288252, -30.0255986 ], [ -51.2288181, -30.0255947 ], [ -51.2288098, -30.02559 ], [ -51.2285636, -30.0254796 ], [ -51.2277947, -30.025122 ], [ -51.2277937, -30.025173 ], [ -51.2277942, -30.0252714 ], [ -51.2277948, -30.0253991 ], [ -51.2277976, -30.0254462 ], [ -51.2277955, -30.0254934 ], [ -51.2277874, -30.0256811 ], [ -51.2271697, -30.0256733 ], [ -51.2271831, -30.0248175 ], [ -51.2263571, -30.0244156 ], [ -51.2263439, -30.0244143 ], [ -51.2263275, -30.0244162 ], [ -51.2263145, -30.0244242 ], [ -51.2263097, -30.024436 ], [ -51.2263103, -30.0244777 ], [ -51.2263112, -30.0246328 ], [ -51.2263114, -30.0246742 ], [ -51.2263105, -30.0247177 ], [ -51.2263111, -30.0247342 ], [ -51.2263106, -30.0247403 ], [ -51.2263113, -30.0247471 ], [ -51.2263123, -30.0247562 ], [ -51.2263107, -30.0248252 ], [ -51.2262578, -30.0253298 ], [ -51.2256926, -30.0250509 ], [ -51.2257154, -30.0239109 ], [ -51.2245052, -30.0233313 ], [ -51.2244749, -30.0244515 ], [ -51.2235844, -30.0240291 ], [ -51.223604, -30.0226476 ], [ -51.2222052, -30.0219991 ], [ -51.2218579, -30.0231893 ], [ -51.220966, -30.0227725 ], [ -51.221418, -30.0212695 ], [ -51.2209848, -30.0208656 ], [ -51.2208799, -30.0208326 ], [ -51.2207802, -30.020864 ], [ -51.2200774, -30.0217309 ], [ -51.2198789, -30.0217444 ], [ -51.2197338, -30.0218588 ], [ -51.2196422, -30.021931 ], [ -51.2197921, -30.0220306 ], [ -51.2205346, -30.0227079 ], [ -51.2207611, -30.0228716 ], [ -51.2254871, -30.0251991 ], [ -51.2268257, -30.0258489 ], [ -51.2271934, -30.0259228 ], [ -51.2283186, -30.0260131 ], [ -51.2285005, -30.0260486 ], [ -51.228639, -30.0260945 ], [ -51.228682, -30.0261119 ], [ -51.2290185, -30.0262647 ], [ -51.2307317, -30.0271022 ], [ -51.2317443, -30.0275972 ], [ -51.2318567, -30.0276521 ], [ -51.2319514, -30.0276984 ], [ -51.2325894, -30.0280103 ], [ -51.2365567, -30.0299497 ], [ -51.23968, -30.0314765 ], [ -51.2399692, -30.0310352 ] ] ] } },
{ "type": "Feature", "properties": { "element_type": "relation", "osmid": "6899024", "barrier": "nan", "name": "Cais Marcílio Dias", "nodes": [ [ [ 2447789922, 2447789920, 2447789918, 2447789916, 1243936352, 1243936383, 1243936293, 1243936314, 1243936384, 1243936300, 4915327243 ], [ 4915327243, 4622849792, 4622849791, 4915327240, 4622849790 ], [ 4622849790, 355161588, 1243936322, 1243936340, 355161589 ], [ 355161589, 355161590, 355161591 ], [ 355161591, 355161592 ], [ 355161592, 1990532527, 2447789924 ], [ 2447789924, 4915327283, 2447789922 ] ] ], "fence_type": "nan", "landuse": "industrial", "official_name": "nan", "website": "nan", "addr:housenumber": "nan", "addr:postcode": "nan", "addr:street": "nan", "phone": "nan", "source": "nan", "loc_name": "nan", "start_date": "nan", "opening_hours": "nan", "old_name": "nan", "man_made": "nan", "industrial": "port", "depot": "nan", "addr:city": "nan", "addr:suburb": "nan", "operator": "nan", "source:name": "nan", "alt_name": "nan", "email": "nan", "fixme": "nan", "ways": [ 467677689, 467677688, 467677678, 213930429, 500492970, 356395568, 500493052 ], "harbour": "yes", "type": "multipolygon", "wikidata": "nan", "wikipedia": "nan", "short_name": "nan" }, "geometry": { "type": "Polygon", "coordinates": [ [ [ -51.2198789, -30.0217444 ], [ -51.218949, -30.0208614 ], [ -51.2197245, -30.019831 ], [ -51.2197245, -30.0197047 ], [ -51.2180307, -30.0181438 ], [ -51.216917, -30.0171305 ], [ -51.2158575, -30.0161451 ], [ -51.2128643, -30.0104525 ], [ -51.2127788, -30.0104862 ], [ -51.2123612, -30.0106511 ], [ -51.2123227, -30.0106663 ], [ -51.2119623, -30.0108086 ], [ -51.2120327, -30.0109425 ], [ -51.2125909, -30.0120146 ], [ -51.2133857, -30.0135411 ], [ -51.213946, -30.0146172 ], [ -51.2143142, -30.0153244 ], [ -51.2148967, -30.0164428 ], [ -51.2166216, -30.019728 ], [ -51.216906, -30.0200938 ], [ -51.2174651, -30.0205874 ], [ -51.2179732, -30.0209578 ], [ -51.2184601, -30.0212417 ], [ -51.2196422, -30.021931 ], [ -51.2197338, -30.0218588 ], [ -51.2198789, -30.0217444 ] ] ] } },
{ "type": "Feature", "properties": { "element_type": "relation", "osmid": "7332389", "barrier": "nan", "name": "CEEE", "nodes": [ [ [ 2206821650, 4421229113, 2507267758, 4422653851, 2507267744, 2364332429, 3221742043, 3221742044, 2364332422, 2364332427, 2364332423, 2364332420, 2364332431, 2364332419, 2364332426, 2364332425, 2364332428, 2206821616 ], [ 2206821616, 2206821592, 2206821650 ] ] ], "fence_type": "nan", "landuse": "industrial", "official_name": "nan", "website": "nan", "addr:housenumber": "nan", "addr:postcode": "nan", "addr:street": "nan", "phone": "nan", "source": "nan", "loc_name": "nan", "start_date": "nan", "opening_hours": "nan", "old_name": "nan", "man_made": "nan", "industrial": "nan", "depot": "nan", "addr:city": "nan", "addr:suburb": "nan", "operator": "nan", "source:name": "nan", "alt_name": "nan", "email": "nan", "fixme": "nan", "ways": [ 227773082, 500493065 ], "harbour": "nan", "type": "multipolygon", "wikidata": "nan", "wikipedia": "nan", "short_name": "nan" }, "geometry": { "type": "Polygon", "coordinates": [ [ [ -51.1574634, -30.0508673 ], [ -51.1538416, -30.0507646 ], [ -51.1537819, -30.0516577 ], [ -51.1535571, -30.0551731 ], [ -51.153503, -30.0560189 ], [ -51.1533837, -30.0562449 ], [ -51.1529479, -30.0570702 ], [ -51.1530962, -30.0571365 ], [ -51.1534243, -30.0576018 ], [ -51.1535429, -30.0576311 ], [ -51.1536615, -30.0577498 ], [ -51.1580233, -30.0558858 ], [ -51.1592528, -30.0555969 ], [ -51.1593263, -30.0537641 ], [ -51.15869, -30.053285 ], [ -51.1580785, -30.0531829 ], [ -51.1580787, -30.0527276 ], [ -51.1583949, -30.0524724 ], [ -51.1584271, -30.0517899 ], [ -51.1574634, -30.0508673 ] ] ] } },
{ "type": "Feature", "properties": { "element_type": "relation", "osmid": "9636678", "barrier": "nan", "name": "Serraria Fibra", "nodes": [ [ [ 6509732757, 6509732728 ], [ 6509732746, 6509732757 ], [ 6509732749, 6509732746 ], [ 6509732732, 6509732749 ], [ 6509732726, 6509732730, 6509732731, 6509732717, 6509732732 ], [ 6509732727, 6509732726 ], [ 6509732723, 6509732727 ], [ 6509732722, 6509732723 ], [ 6509732728, 6509732722 ] ] ], "fence_type": "nan", "landuse": "industrial", "official_name": "nan", "website": "nan", "addr:housenumber": "3860", "addr:postcode": "nan", "addr:street": "Avenida Marechal Castelo Branco", "phone": "+55 51 3285-2643", "source": "nan", "loc_name": "nan", "start_date": "nan", "opening_hours": "Mo-Fr 08:00-18:00; Sa 08:00-12:00", "old_name": "nan", "man_made": "nan", "industrial": "sawmill", "depot": "nan", "addr:city": "nan", "addr:suburb": "nan", "operator": "nan", "source:name": "nan", "alt_name": "nan", "email": "serrariafibra@gmail.com", "fixme": "nan", "ways": [ 693403591, 693403605, 693403578, 693403592, 693403583, 693403589, 693403581, 693403582, 693403593 ], "harbour": "nan", "type": "multipolygon", "wikidata": "nan", "wikipedia": "nan", "short_name": "nan" }, "geometry": { "type": "Polygon", "coordinates": [ [ [ -51.3461013, -30.1188457 ], [ -51.3460904, -30.1188131 ], [ -51.3460723, -30.1187587 ], [ -51.3460434, -30.1186722 ], [ -51.3460235, -30.1186124 ], [ -51.3457616, -30.1186696 ], [ -51.345788, -30.1188248 ], [ -51.3458029, -30.1189133 ], [ -51.3458056, -30.118928 ], [ -51.345841, -30.1189182 ], [ -51.3458679, -30.1189107 ], [ -51.3460757, -30.1188529 ], [ -51.3461013, -30.1188457 ] ] ] } },
{ "type": "Feature", "properties": { "element_type": "relation", "osmid": "9636683", "barrier": "nan", "name": "Celabra", "nodes": [ [ [ 6509732746, 6509732757 ], [ 6509732749, 6509732746 ], [ 6509732732, 6509732749 ], [ 6509732747, 6509732729, 6509732732 ], [ 6509732758, 6509732754, 6509732747 ], [ 6509732763, 6509732758 ], [ 6509732728, 6509732763 ], [ 6509732757, 6509732728 ] ] ], "fence_type": "nan", "landuse": "industrial", "official_name": "nan", "website": "http://www.celabra.com.br/", "addr:housenumber": "3850", "addr:postcode": "nan", "addr:street": "Avenida Marechal Castelo Branco", "phone": "+55 51 3480-3029", "source": "nan", "loc_name": "nan", "start_date": "nan", "opening_hours": "nan", "old_name": "nan", "man_made": "nan", "industrial": "machine_shop", "depot": "nan", "addr:city": "nan", "addr:suburb": "nan", "operator": "nan", "source:name": "nan", "alt_name": "nan", "email": "mauro@celabra.com.br", "fixme": "nan", "ways": [ 693403605, 693403578, 693403592, 693403614, 693403606, 693403563, 693403611, 693403591 ], "harbour": "nan", "type": "multipolygon", "wikidata": "nan", "wikipedia": "nan", "short_name": "nan" }, "geometry": { "type": "Polygon", "coordinates": [ [ [ -51.3461395, -30.1190244 ], [ -51.346159, -30.1190189 ], [ -51.3461013, -30.1188457 ], [ -51.3460757, -30.1188529 ], [ -51.3458679, -30.1189107 ], [ -51.345841, -30.1189182 ], [ -51.3458056, -30.118928 ], [ -51.3458363, -30.1191087 ], [ -51.3459048, -30.1190897 ], [ -51.3459577, -30.119075 ], [ -51.3461395, -30.1190244 ] ] ] } },
{ "type": "Feature", "properties": { "element_type": "relation", "osmid": "12368520", "barrier": "nan", "name": "Hidráulica Lomba do Sabão", "nodes": [ [ [ 2448118088, 2448118093, 2448118094, 2448118095, 3409736358 ], [ 7385175518, 2448118098, 4467953606, 2448118096, 2448118088 ], [ 7385175518, 7385175517, 7385175516, 7385175515, 7385175514, 7385175513, 341043386, 7385175512, 341043387 ], [ 3409736358, 341043387 ] ] ], "fence_type": "nan", "landuse": "industrial", "official_name": "Estação de Tratamento de Água Lomba do Sabão", "website": "nan", "addr:housenumber": "nan", "addr:postcode": "nan", "addr:street": "Rua da Hidráulica", "phone": "nan", "source": "nan", "loc_name": "nan", "start_date": "nan", "opening_hours": "nan", "old_name": "nan", "man_made": "nan", "industrial": "nan", "depot": "nan", "addr:city": "nan", "addr:suburb": "nan", "operator": "DMAE", "source:name": "nan", "alt_name": "nan", "email": "nan", "fixme": "nan", "ways": [ 911218651, 236845422, 911218653, 911218654 ], "harbour": "nan", "type": "multipolygon", "wikidata": "nan", "wikipedia": "nan", "short_name": "ETA Lomba do Sabão" }, "geometry": { "type": "Polygon", "coordinates": [ [ [ -51.1116138, -30.0819921 ], [ -51.1106822, -30.0826462 ], [ -51.1102879, -30.0826711 ], [ -51.1099568, -30.0831009 ], [ -51.1102536, -30.0834315 ], [ -51.1107792, -30.0840258 ], [ -51.1108875, -30.0840109 ], [ -51.1109841, -30.0840097 ], [ -51.1110263, -30.0840161 ], [ -51.1110706, -30.0840097 ], [ -51.1111061, -30.0839935 ], [ -51.1111283, -30.0839732 ], [ -51.1111645, -30.0839523 ], [ -51.1112208, -30.0839314 ], [ -51.1112511, -30.0838406 ], [ -51.1114696, -30.083357 ], [ -51.1116973, -30.0833449 ], [ -51.1116138, -30.0819921 ] ] ] } },
{ "type": "Feature", "properties": { "element_type": "relation", "osmid": "13041329", "barrier": "nan", "name": "CMPC", "nodes": [ [ [ 5282621312, 5282621311, 5955489155, 5282621305, 5282621309, 5282621308, 5282621307, 5282621306, 2591028957, 2591028969, 5950171501, 5955489157, 5950171502, 5955489145, 5955489147, 5950171508, 5955489146, 5955489158, 2591028958, 5282622978 ], [ 5950171512, 5955489142, 5950171513, 5282621317, 5282621316, 5282621315, 5282621314, 5282621313, 5282621312 ], [ 2591028949, 5950171514, 2591028974, 2591027220, 5955489133, 5955489134, 5950171515, 2591028975, 2591028952, 5950171498, 5955489159, 5955489160, 5282622921, 5955489161, 5955489162, 5950171516, 5282621320, 5955489163, 5955489164, 5955489165, 2591028980, 5282623122, 5282623121, 5282621319, 5955489140, 5955489141, 5950171512 ], [ 2591028963, 2591028950, 2591028949 ], [ 8969055322, 8969055321, 8969055320, 8969055319, 8969055318, 8969055317, 8969012116, 8969012115, 8969012114, 8969012113, 8969012112, 8969012111, 8969012110, 8969012109, 8969012108, 8969012107, 8969012106, 8969012105, 8969012104, 8969012103, 8969012102, 8969012101, 2591028963 ], [ 8969055324, 8969055323, 8969055322 ], [ 8968810329, 8969055343, 8969055342, 8969055341, 8969055340, 8969055339, 8972365013, 8969055338, 8969055337, 8969055336, 8969055335, 8969055334, 8969055333, 8969055332, 8969055331, 8969055330, 8969055329, 8969055328, 8969055327, 8969055326, 8969055325, 8969055324 ], [ 5282622978, 5955489168, 5955489169, 8969022478, 5955489170, 5955489176, 5955489175, 5955489174, 5955489173, 5955489172, 8968810329 ] ] ], "fence_type": "nan", "landuse": "industrial", "official_name": "nan", "website": "http://www.celuloseriograndense.com.br/", "addr:housenumber": "1680", "addr:postcode": "92500-000", "addr:street": "Rua São Geraldo", "phone": "+55 51 2139-7211", "source": "nan", "loc_name": "nan", "start_date": "nan", "opening_hours": "nan", "old_name": "nan", "man_made": "nan", "industrial": "nan", "depot": "nan", "addr:city": "nan", "addr:suburb": "nan", "operator": "nan", "source:name": "nan", "alt_name": "Celulose Riograndense", "email": "nan", "fixme": "nan", "ways": [ 630764849, 630764848, 253124333, 976167264, 969574822, 969574823, 969574824, 972433539 ], "harbour": "nan", "type": "multipolygon", "wikidata": "Q9718016", "wikipedia": "pt:Celulose Riograndense", "short_name": "nan" }, "geometry": { "type": "Polygon", "coordinates": [ [ [ -51.3277533, -30.1341423 ], [ -51.3277216, -30.1339158 ], [ -51.3277586, -30.133149 ], [ -51.3279951, -30.1331577 ], [ -51.3280097, -30.1330038 ], [ -51.3278264, -30.1324554 ], [ -51.3277903, -30.1324 ], [ -51.3277468, -30.1323682 ], [ -51.3276958, -30.1323473 ], [ -51.3275711, -30.132323 ], [ -51.3274551, -30.132323 ], [ -51.3273973, -30.1323347 ], [ -51.3268421, -30.1326052 ], [ -51.3267389, -30.1326413 ], [ -51.3260616, -30.1328531 ], [ -51.3253181, -30.1330142 ], [ -51.3252939, -30.1328229 ], [ -51.3256507, -30.1327544 ], [ -51.3242321, -30.1304983 ], [ -51.3236571, -30.1299075 ], [ -51.3235076, -30.1298002 ], [ -51.3232152, -30.129777 ], [ -51.3229449, -30.1298027 ], [ -51.3226721, -30.129869 ], [ -51.3220605, -30.1301122 ], [ -51.3215147, -30.1302792 ], [ -51.3214764, -30.1301901 ], [ -51.3197933, -30.1309057 ], [ -51.3190538, -30.1311039 ], [ -51.3188353, -30.1313214 ], [ -51.3189411, -30.1314693 ], [ -51.3188704, -30.131503 ], [ -51.318805, -30.1315343 ], [ -51.3184208, -30.1312408 ], [ -51.3180076, -30.1307821 ], [ -51.3154261, -30.1316386 ], [ -51.3132454, -30.1309723 ], [ -51.3130255, -30.1314362 ], [ -51.3121886, -30.1316775 ], [ -51.3114, -30.1319605 ], [ -51.3106115, -30.1318724 ], [ -51.3094367, -30.1321832 ], [ -51.307881, -30.1325544 ], [ -51.3074626, -30.1324755 ], [ -51.3072104, -30.1324291 ], [ -51.3069583, -30.1323317 ], [ -51.3067062, -30.1322389 ], [ -51.3063897, -30.132327 ], [ -51.3061644, -30.1325915 ], [ -51.3060839, -30.1329023 ], [ -51.3062019, -30.1332039 ], [ -51.306336, -30.133408 ], [ -51.306395, -30.1336122 ], [ -51.3065184, -30.1340483 ], [ -51.3066901, -30.1345215 ], [ -51.3067973, -30.1345632 ], [ -51.3071139, -30.1344705 ], [ -51.3071676, -30.1345354 ], [ -51.3074412, -30.1353844 ], [ -51.3072105, -30.1355468 ], [ -51.3066847, -30.1357788 ], [ -51.306733, -30.135853 ], [ -51.3069583, -30.1357973 ], [ -51.3072051, -30.1357231 ], [ -51.3076396, -30.135737 ], [ -51.308058, -30.135788 ], [ -51.3085033, -30.1357741 ], [ -51.3087393, -30.1358901 ], [ -51.3089271, -30.1359179 ], [ -51.3090236, -30.1360525 ], [ -51.3083101, -30.1362752 ], [ -51.3083638, -30.1363958 ], [ -51.3095547, -30.1361105 ], [ -51.3096298, -30.1363308 ], [ -51.3108529, -30.1360037 ], [ -51.3110125, -30.1364868 ], [ -51.3101716, -30.1367205 ], [ -51.310134, -30.1369989 ], [ -51.3100214, -30.1372912 ], [ -51.3102038, -30.1376159 ], [ -51.310413, -30.1376762 ], [ -51.310814, -30.1378879 ], [ -51.3113022, -30.1377789 ], [ -51.3116964, -30.138208 ], [ -51.3160819, -30.1370087 ], [ -51.3160504, -30.1369316 ], [ -51.3207617, -30.1356256 ], [ -51.3208052, -30.1356783 ], [ -51.3209734, -30.1356375 ], [ -51.3211148, -30.1356013 ], [ -51.321231, -30.1355641 ], [ -51.3213297, -30.1355356 ], [ -51.3215397, -30.1354751 ], [ -51.321569, -30.1355155 ], [ -51.3215952, -30.1355369 ], [ -51.3216327, -30.1355473 ], [ -51.3217494, -30.135552 ], [ -51.3218446, -30.13557 ], [ -51.3219445, -30.1356112 ], [ -51.3220739, -30.1356773 ], [ -51.3222429, -30.1357243 ], [ -51.3225601, -30.1356913 ], [ -51.3261086, -30.1349666 ], [ -51.3260281, -30.1346491 ], [ -51.3267014, -30.1345181 ], [ -51.3267805, -30.1347356 ], [ -51.3268898, -30.134798 ], [ -51.3271352, -30.1347056 ], [ -51.3274934, -30.1344873 ], [ -51.3276683, -30.1343202 ], [ -51.3277533, -30.1341423 ] ] ] } }
]
}
