{
"type": "FeatureCollection",
"crs": { "type": "name", "properties": { "name": "urn:ogc:def:crs:OGC:1.3:CRS84" } },
"features": [
{ "type": "Feature", "properties": { "element_type": "node", "osmid": "369033961", "addr:state": "WA", "aeroway": "aerodrome", "ele": "218", "faa": "86WA", "gnis:county_name": "Pierce", "gnis:created": "03/01/1990", "gnis:feature_id": "1533800", "gnis:feature_type": "Airport", "name": "Kapowsin Field", "source_ref": "geonames.usgs.gov", "wikidata": "Q61725973", "closest_town": "nan", "iata": "nan", "icao": "nan", "landuse": "nan", "military": "nan", "name:en": "nan", "operator": "nan", "source": "nan", "wikipedia": "nan", "nodes": "nan", "alt_name": "nan", "is_in": "nan", "operator:type": "nan", "type": "nan", "addr:country": "nan", "access": "nan", "name_1": "nan", "old_name": "nan", "ele:ft": "nan", "note": "nan", "operator:wikidata": "nan", "website": "nan", "aerodrome": "nan", "aerodrome:type": "nan", "city_served": "nan", "gnis:edited": "nan", "internet_access": "nan", "internet_access:fee": "nan", "name:de": "nan", "name:ja": "nan", "name:ru": "nan", "phone": "nan", "rank_aci:2016": "nan", "ref": "nan", "ways": "nan", "addr:city": "nan", "addr:housenumber": "nan", "addr:postcode": "nan", "addr:street": "nan", "official_name": "nan", "name:etymology:wikidata": "nan", "name:etymology:wikipedia": "nan", "surface": "nan" }, "geometry": { "type": "Point", "coordinates": [ -122.23567, 47.0039909 ] } },
{ "type": "Feature", "properties": { "element_type": "node", "osmid": "369034195", "addr:state": "WA", "aeroway": "aerodrome", "ele": "79", "faa": "nan", "gnis:county_name": "Pierce", "gnis:created": "03/01/1990", "gnis:feature_id": "1533993", "gnis:feature_type": "Airport", "name": "American Lake Seaplane Base", "source_ref": "geonames.usgs.gov", "wikidata": "nan", "closest_town": "nan", "iata": "nan", "icao": "nan", "landuse": "nan", "military": "nan", "name:en": "nan", "operator": "nan", "source": "nan", "wikipedia": "nan", "nodes": "nan", "alt_name": "nan", "is_in": "nan", "operator:type": "nan", "type": "nan", "addr:country": "nan", "access": "nan", "name_1": "nan", "old_name": "nan", "ele:ft": "nan", "note": "nan", "operator:wikidata": "nan", "website": "nan", "aerodrome": "nan", "aerodrome:type": "nan", "city_served": "nan", "gnis:edited": "nan", "internet_access": "nan", "internet_access:fee": "nan", "name:de": "nan", "name:ja": "nan", "name:ru": "nan", "phone": "nan", "rank_aci:2016": "nan", "ref": "nan", "ways": "nan", "addr:city": "nan", "addr:housenumber": "nan", "addr:postcode": "nan", "addr:street": "nan", "official_name": "nan", "name:etymology:wikidata": "nan", "name:etymology:wikipedia": "nan", "surface": "nan" }, "geometry": { "type": "Point", "coordinates": [ -122.5528129, 47.1377785 ] } },
{ "type": "Feature", "properties": { "element_type": "node", "osmid": "388484490", "addr:state": "nan", "aeroway": "aerodrome", "ele": "92", "faa": "GRF", "gnis:county_name": "nan", "gnis:created": "nan", "gnis:feature_id": "nan", "gnis:feature_type": "nan", "name": "Gray Army Airfield", "source_ref": "nan", "wikidata": "Q3913397", "closest_town": "Tacoma, Washington", "iata": "GRF", "icao": "KGRF", "landuse": "military", "military": "airfield", "name:en": "Gray Army Airfield", "operator": "U.S. Army", "source": "wikipedia", "wikipedia": "en:Gray Army Airfield", "nodes": "nan", "alt_name": "nan", "is_in": "nan", "operator:type": "nan", "type": "nan", "addr:country": "nan", "access": "nan", "name_1": "nan", "old_name": "nan", "ele:ft": "nan", "note": "nan", "operator:wikidata": "nan", "website": "nan", "aerodrome": "nan", "aerodrome:type": "nan", "city_served": "nan", "gnis:edited": "nan", "internet_access": "nan", "internet_access:fee": "nan", "name:de": "nan", "name:ja": "nan", "name:ru": "nan", "phone": "nan", "rank_aci:2016": "nan", "ref": "nan", "ways": "nan", "addr:city": "nan", "addr:housenumber": "nan", "addr:postcode": "nan", "addr:street": "nan", "official_name": "nan", "name:etymology:wikidata": "nan", "name:etymology:wikipedia": "nan", "surface": "nan" }, "geometry": { "type": "Point", "coordinates": [ -122.581428, 47.0791222 ] } },
{ "type": "Feature", "properties": { "element_type": "node", "osmid": "1042046360", "addr:state": "nan", "aeroway": "aerodrome", "ele": "nan", "faa": "nan", "gnis:county_name": "nan", "gnis:created": "nan", "gnis:feature_id": "nan", "gnis:feature_type": "nan", "name": "Pacemaker Landing Zone Airport", "source_ref": "nan", "wikidata": "nan", "closest_town": "nan", "iata": "nan", "icao": "nan", "landuse": "nan", "military": "nan", "name:en": "nan", "operator": "nan", "source": "ourairports.com", "wikipedia": "nan", "nodes": "nan", "alt_name": "nan", "is_in": "nan", "operator:type": "nan", "type": "nan", "addr:country": "nan", "access": "nan", "name_1": "nan", "old_name": "nan", "ele:ft": "nan", "note": "nan", "operator:wikidata": "nan", "website": "nan", "aerodrome": "nan", "aerodrome:type": "nan", "city_served": "nan", "gnis:edited": "nan", "internet_access": "nan", "internet_access:fee": "nan", "name:de": "nan", "name:ja": "nan", "name:ru": "nan", "phone": "nan", "rank_aci:2016": "nan", "ref": "nan", "ways": "nan", "addr:city": "nan", "addr:housenumber": "nan", "addr:postcode": "nan", "addr:street": "nan", "official_name": "nan", "name:etymology:wikidata": "nan", "name:etymology:wikipedia": "nan", "surface": "nan" }, "geometry": { "type": "Point", "coordinates": [ -122.4459991, 47.0217018 ] } },
{ "type": "Feature", "properties": { "element_type": "node", "osmid": "8238974136", "addr:state": "nan", "aeroway": "aerodrome", "ele": "nan", "faa": "W37", "gnis:county_name": "nan", "gnis:created": "nan", "gnis:feature_id": "nan", "gnis:feature_type": "nan", "name": "American Lake Seaplane Base", "source_ref": "nan", "wikidata": "Q49744893", "closest_town": "nan", "iata": "nan", "icao": "nan", "landuse": "nan", "military": "nan", "name:en": "nan", "operator": "nan", "source": "nan", "wikipedia": "nan", "nodes": "nan", "alt_name": "nan", "is_in": "nan", "operator:type": "nan", "type": "nan", "addr:country": "nan", "access": "nan", "name_1": "nan", "old_name": "nan", "ele:ft": "nan", "note": "nan", "operator:wikidata": "nan", "website": "nan", "aerodrome": "nan", "aerodrome:type": "nan", "city_served": "nan", "gnis:edited": "nan", "internet_access": "nan", "internet_access:fee": "nan", "name:de": "nan", "name:ja": "nan", "name:ru": "nan", "phone": "nan", "rank_aci:2016": "nan", "ref": "nan", "ways": "nan", "addr:city": "nan", "addr:housenumber": "nan", "addr:postcode": "nan", "addr:street": "nan", "official_name": "nan", "name:etymology:wikidata": "nan", "name:etymology:wikipedia": "nan", "surface": "nan" }, "geometry": { "type": "Point", "coordinates": [ -122.5612754, 47.1403864 ] } },
{ "type": "Feature", "properties": { "element_type": "way", "osmid": "436902814", "addr:state": "WA", "aeroway": "aerodrome", "ele": "165", "faa": "PLU", "gnis:county_name": "Pierce", "gnis:created": "03/01/1990", "gnis:feature_id": "1533905", "gnis:feature_type": "Airport", "name": "Pierce County Airport", "source_ref": "geonames.usgs.gov", "wikidata": "Q25000495", "closest_town": "nan", "iata": "nan", "icao": "KPLU", "landuse": "nan", "military": "nan", "name:en": "nan", "operator": "Pierce County", "source": "nan", "wikipedia": "en:Pierce County Airport", "nodes": [ 4347565700, 11273432349, 11273432370, 11273432369, 4347565701, 4347565702, 4347565703, 4347565704, 4347565705, 4347565706, 4347565707, 4282319197, 4282318986, 4282318972, 4347565708, 4347565709, 4347565710, 4347565711, 4347565712, 4282318383, 6374115768, 4347565713, 4347565714, 9297274400, 9297252297, 3691916085, 3691916086, 3691916087, 4347565715, 4347565716, 4347565717, 4347565718, 4347565719, 4347565720, 4347565721, 4347565722, 4347565723, 4347565724, 4347565725, 4347565726, 6374115998, 6374115997, 6374115996, 4347565727, 4347565728, 4347565700 ], "alt_name": "Thun Field", "is_in": "Pierce County, Washington", "operator:type": "public", "type": "nan", "addr:country": "nan", "access": "nan", "name_1": "nan", "old_name": "nan", "ele:ft": "nan", "note": "nan", "operator:wikidata": "nan", "website": "nan", "aerodrome": "nan", "aerodrome:type": "nan", "city_served": "nan", "gnis:edited": "nan", "internet_access": "nan", "internet_access:fee": "nan", "name:de": "nan", "name:ja": "nan", "name:ru": "nan", "phone": "nan", "rank_aci:2016": "nan", "ref": "nan", "ways": "nan", "addr:city": "nan", "addr:housenumber": "nan", "addr:postcode": "nan", "addr:street": "nan", "official_name": "nan", "name:etymology:wikidata": "nan", "name:etymology:wikipedia": "nan", "surface": "nan" }, "geometry": { "type": "Polygon", "coordinates": [ [ [ -122.284453, 47.103551 ], [ -122.2844416, 47.1040606 ], [ -122.2843797, 47.1068187 ], [ -122.2843544, 47.1079478 ], [ -122.284317, 47.1096175 ], [ -122.2851073, 47.1096043 ], [ -122.2851008, 47.1126329 ], [ -122.28547, 47.1126505 ], [ -122.2858392, 47.1110635 ], [ -122.2879962, 47.1111428 ], [ -122.2880351, 47.1092428 ], [ -122.2888988, 47.1092811 ], [ -122.2888973, 47.108429 ], [ -122.2888954, 47.1073058 ], [ -122.289784, 47.1073051 ], [ -122.2899848, 47.1066814 ], [ -122.2912284, 47.1067739 ], [ -122.2913386, 47.105707 ], [ -122.2915622, 47.1057026 ], [ -122.2915599, 47.1054388 ], [ -122.2915492, 47.1038959 ], [ -122.2915394, 47.103044 ], [ -122.2915782, 47.0995604 ], [ -122.2899166, 47.0995546 ], [ -122.2899205, 47.0992774 ], [ -122.2899246, 47.0991445 ], [ -122.2897235, 47.0991463 ], [ -122.2897342, 47.0981951 ], [ -122.289712, 47.0977987 ], [ -122.2891038, 47.0975809 ], [ -122.2884302, 47.0974265 ], [ -122.2877241, 47.0973207 ], [ -122.2870505, 47.0973251 ], [ -122.2863315, 47.0973913 ], [ -122.2863185, 47.0980174 ], [ -122.2855542, 47.0979557 ], [ -122.2850619, 47.0979645 ], [ -122.2841486, 47.0981232 ], [ -122.2830215, 47.0984892 ], [ -122.2830086, 47.1000987 ], [ -122.2848246, 47.1001068 ], [ -122.2848192, 47.100775 ], [ -122.2862381, 47.1008042 ], [ -122.2862343, 47.1014655 ], [ -122.2862149, 47.1053499 ], [ -122.284453, 47.103551 ] ] ] } },
{ "type": "Feature", "properties": { "element_type": "way", "osmid": "490718223", "addr:state": "WA", "aeroway": "aerodrome", "ele": "89", "faa": "TIW", "gnis:county_name": "nan", "gnis:created": "nan", "gnis:feature_id": "nan", "gnis:feature_type": "Airport", "name": "Tacoma Narrows Airport", "source_ref": "nan", "wikidata": "Q6588126", "closest_town": "Tacoma, Washington", "iata": "TIW", "icao": "KTIW", "landuse": "nan", "military": "nan", "name:en": "Tacoma Narrows Airport", "operator": "City of Tacoma", "source": "wikipedia", "wikipedia": "en:Tacoma Narrows Airport", "nodes": [ 4829056661, 4829056662, 4829056663, 4829056664, 4829056665, 4829056666, 4829056667, 4829056668, 4829056669, 4829056670, 4829056671, 4829056672, 4829056673, 4829056674, 4829056675, 4829056677, 4829056679, 4829056680, 4829056681, 4829056682, 4829056683, 4829056684, 4829056685, 4829056686, 4829056687, 4829056688, 4829056689, 4829056690, 4829056691, 4829056692, 4829056693, 4829056694, 4829056695, 4829056696, 4829056697, 4829056698, 4829056699, 4829056700, 4829056701, 4829056702, 4829056703, 4829056704, 4829056661 ], "alt_name": "nan", "is_in": "US", "operator:type": "public", "type": "Public", "addr:country": "nan", "access": "nan", "name_1": "nan", "old_name": "nan", "ele:ft": "nan", "note": "nan", "operator:wikidata": "nan", "website": "nan", "aerodrome": "nan", "aerodrome:type": "nan", "city_served": "nan", "gnis:edited": "nan", "internet_access": "nan", "internet_access:fee": "nan", "name:de": "nan", "name:ja": "nan", "name:ru": "nan", "phone": "nan", "rank_aci:2016": "nan", "ref": "nan", "ways": "nan", "addr:city": "nan", "addr:housenumber": "nan", "addr:postcode": "nan", "addr:street": "nan", "official_name": "nan", "name:etymology:wikidata": "nan", "name:etymology:wikipedia": "nan", "surface": "nan" }, "geometry": { "type": "Polygon", "coordinates": [ [ [ -122.576915, 47.2777018 ], [ -122.5762283, 47.2820398 ], [ -122.5750267, 47.2820398 ], [ -122.5754988, 47.2774543 ], [ -122.5744044, 47.2773378 ], [ -122.5741469, 47.2765954 ], [ -122.5708639, 47.2765663 ], [ -122.5708425, 47.2763916 ], [ -122.5732672, 47.2758383 ], [ -122.5736534, 47.2754598 ], [ -122.5737392, 47.2749066 ], [ -122.5727093, 47.2735381 ], [ -122.5741344, 47.264883 ], [ -122.5741353, 47.2619179 ], [ -122.574217, 47.2618315 ], [ -122.5744122, 47.2617765 ], [ -122.5768736, 47.2617805 ], [ -122.5769615, 47.2605868 ], [ -122.5782454, 47.2590353 ], [ -122.5795972, 47.2574625 ], [ -122.5810563, 47.2569091 ], [ -122.5817215, 47.2569382 ], [ -122.5825584, 47.2580887 ], [ -122.5821292, 47.2605935 ], [ -122.5818073, 47.2614381 ], [ -122.5803053, 47.2615692 ], [ -122.5799191, 47.2633312 ], [ -122.5803053, 47.2633749 ], [ -122.5801766, 47.2639719 ], [ -122.5798976, 47.2639719 ], [ -122.5796401, 47.2651951 ], [ -122.5803911, 47.2651951 ], [ -122.5803482, 47.2667823 ], [ -122.5796616, 47.2668114 ], [ -122.5800049, 47.2673064 ], [ -122.5801766, 47.2679034 ], [ -122.5797045, 47.2716017 ], [ -122.5801336, 47.2716745 ], [ -122.5795114, 47.2750085 ], [ -122.5787174, 47.2757219 ], [ -122.5777304, 47.2759694 ], [ -122.5774514, 47.2776872 ], [ -122.576915, 47.2777018 ] ] ] } },
{ "type": "Feature", "properties": { "element_type": "way", "osmid": "678710949", "addr:state": "WA", "aeroway": "aerodrome", "ele": "136", "faa": "3B8", "gnis:county_name": "Pierce", "gnis:created": "03/01/1990", "gnis:feature_id": "1533965", "gnis:feature_type": "Airport", "name": "Shady Acres Airport", "source_ref": "geonames.usgs.gov", "wikidata": "Q49750740", "closest_town": "nan", "iata": "nan", "icao": "nan", "landuse": "nan", "military": "nan", "name:en": "nan", "operator": "Shady Acres Airport, Inc.", "source": "nan", "wikipedia": "nan", "nodes": [ 6355029380, 369034074, 6355029885, 6355029886, 6355029897, 6355029887, 6355029888, 6355029889, 6355029890, 6355029891, 6355029892, 6355029893, 6355029894, 6355029379, 6355029380 ], "alt_name": "nan", "is_in": "nan", "operator:type": "business", "type": "nan", "addr:country": "nan", "access": "nan", "name_1": "nan", "old_name": "nan", "ele:ft": "nan", "note": "nan", "operator:wikidata": "nan", "website": "nan", "aerodrome": "nan", "aerodrome:type": "nan", "city_served": "nan", "gnis:edited": "nan", "internet_access": "nan", "internet_access:fee": "nan", "name:de": "nan", "name:ja": "nan", "name:ru": "nan", "phone": "nan", "rank_aci:2016": "nan", "ref": "nan", "ways": "nan", "addr:city": "nan", "addr:housenumber": "nan", "addr:postcode": "nan", "addr:street": "nan", "official_name": "nan", "name:etymology:wikidata": "nan", "name:etymology:wikipedia": "nan", "surface": "nan" }, "geometry": { "type": "Polygon", "coordinates": [ [ [ -122.3704725, 47.0677743 ], [ -122.3712677, 47.0677724 ], [ -122.3712719, 47.068576 ], [ -122.3727212, 47.0685725 ], [ -122.3727275, 47.0697816 ], [ -122.3719326, 47.0697835 ], [ -122.3719348, 47.0702096 ], [ -122.3722786, 47.0702088 ], [ -122.3722802, 47.0705152 ], [ -122.3717869, 47.0705163 ], [ -122.3717907, 47.0712451 ], [ -122.3711476, 47.0712467 ], [ -122.3711665, 47.074879 ], [ -122.3705097, 47.0748806 ], [ -122.3704725, 47.0677743 ] ] ] } },
{ "type": "Feature", "properties": { "element_type": "way", "osmid": "704789367", "addr:state": "nan", "aeroway": "aerodrome", "ele": "nan", "faa": "TCM", "gnis:county_name": "nan", "gnis:created": "nan", "gnis:feature_id": "nan", "gnis:feature_type": "nan", "name": "McChord Field", "source_ref": "nan", "wikidata": "Q1520213", "closest_town": "nan", "iata": "TCM", "icao": "KTCM", "landuse": "military", "military": "airfield", "name:en": "nan", "operator": "United States Air Force", "source": "nan", "wikipedia": "en:McChord Field", "nodes": [ 6618750192, 6618750193, 259487171, 4434194502, 259487504, 110891766, 110891774, 110891777, 6618750194, 10773936305, 10773936306, 10773936307, 10773936308, 10773921201, 10773921203, 10773921204, 10773936309, 10773921202, 110486845, 6618750197, 10769300612, 10769300614, 10769300609, 10769300610, 8320241470, 110700423, 110700421, 110700416, 110700409, 5298730557, 110516980, 5296367053, 110370600, 110700400, 110700397, 110700394, 110700390, 110700387, 110700383, 110700382, 110700378, 5298730584, 5298730588, 5298730590, 5298730602, 5298730606, 5298730608, 6618750199, 5298730616, 6618750200, 6618750201, 5298730727, 5298730731, 110496292, 110496287, 110496281, 6618750202, 8158185018, 110496263, 6618750203, 110496231, 110496225, 6618750204, 110496210, 5294857073, 490612069, 490612075, 490612086, 5296366007, 110714351, 5294690950, 5296365989, 5305504352, 6618750192 ], "alt_name": "nan", "is_in": "nan", "operator:type": "nan", "type": "nan", "addr:country": "nan", "access": "nan", "name_1": "nan", "old_name": "nan", "ele:ft": "nan", "note": "nan", "operator:wikidata": "nan", "website": "nan", "aerodrome": "nan", "aerodrome:type": "nan", "city_served": "nan", "gnis:edited": "nan", "internet_access": "nan", "internet_access:fee": "nan", "name:de": "nan", "name:ja": "nan", "name:ru": "nan", "phone": "nan", "rank_aci:2016": "nan", "ref": "nan", "ways": "nan", "addr:city": "nan", "addr:housenumber": "nan", "addr:postcode": "nan", "addr:street": "nan", "official_name": "nan", "name:etymology:wikidata": "nan", "name:etymology:wikipedia": "nan", "surface": "nan" }, "geometry": { "type": "Polygon", "coordinates": [ [ [ -122.4926169, 47.1499767 ], [ -122.4926029, 47.142519 ], [ -122.4916257, 47.1422796 ], [ -122.4913875, 47.1414769 ], [ -122.4914034, 47.1410323 ], [ -122.491169, 47.1401245 ], [ -122.4910034, 47.1392761 ], [ -122.4899378, 47.138056 ], [ -122.4890382, 47.1373836 ], [ -122.487923, 47.1365577 ], [ -122.4870316, 47.135897 ], [ -122.4840964, 47.1349462 ], [ -122.4830386, 47.1346674 ], [ -122.4833527, 47.1341591 ], [ -122.4810287, 47.1334784 ], [ -122.4810231, 47.1322001 ], [ -122.4813322, 47.1318351 ], [ -122.4831699, 47.1304275 ], [ -122.4834434, 47.1298263 ], [ -122.4835199, 47.1277002 ], [ -122.4835174, 47.1241045 ], [ -122.4834822, 47.1225806 ], [ -122.4832512, 47.1221807 ], [ -122.4832001, 47.1196224 ], [ -122.4823228, 47.119557 ], [ -122.481148, 47.119557 ], [ -122.475986, 47.119602 ], [ -122.475515, 47.119653 ], [ -122.474997, 47.11987 ], [ -122.4729014, 47.1215559 ], [ -122.4727193, 47.1217715 ], [ -122.4726746, 47.1225935 ], [ -122.4726962, 47.1268453 ], [ -122.4726869, 47.127434 ], [ -122.4726779, 47.127544 ], [ -122.4726429, 47.127654 ], [ -122.4725329, 47.127782 ], [ -122.4724609, 47.127828 ], [ -122.4722819, 47.127881 ], [ -122.4721809, 47.127885 ], [ -122.4718839, 47.127862 ], [ -122.4702635, 47.1276127 ], [ -122.4699019, 47.1277131 ], [ -122.4698386, 47.1278047 ], [ -122.4698029, 47.130725 ], [ -122.4696262, 47.1310725 ], [ -122.4696359, 47.1312479 ], [ -122.4696817, 47.1320674 ], [ -122.4696375, 47.1331641 ], [ -122.4690369, 47.1352167 ], [ -122.4683944, 47.1372332 ], [ -122.4682916, 47.1375623 ], [ -122.4682965, 47.1382749 ], [ -122.468198, 47.1384531 ], [ -122.4692232, 47.1393769 ], [ -122.4694462, 47.1396984 ], [ -122.4695565, 47.1409727 ], [ -122.4695213, 47.1426069 ], [ -122.4695135, 47.1430004 ], [ -122.4693608, 47.1463989 ], [ -122.4692918, 47.1465338 ], [ -122.4684372, 47.1484425 ], [ -122.4682578, 47.151594 ], [ -122.4682098, 47.1533826 ], [ -122.468101, 47.154166 ], [ -122.472933, 47.154135 ], [ -122.4729551, 47.1557702 ], [ -122.483512, 47.155711 ], [ -122.4839529, 47.1522086 ], [ -122.4877511, 47.152124 ], [ -122.4878622, 47.1501904 ], [ -122.491644, 47.1504719 ], [ -122.4921609, 47.1501934 ], [ -122.4926169, 47.1499767 ] ] ] } },
{ "type": "Feature", "properties": { "element_type": "way", "osmid": "887433278", "addr:state": "nan", "aeroway": "aerodrome", "ele": "nan", "faa": "WA85", "gnis:county_name": "nan", "gnis:created": "nan", "gnis:feature_id": "nan", "gnis:feature_type": "nan", "name": "Weyerhaeuser Heliport", "source_ref": "nan", "wikidata": "Q61725820", "closest_town": "nan", "iata": "nan", "icao": "nan", "landuse": "nan", "military": "nan", "name:en": "nan", "operator": "nan", "source": "nan", "wikipedia": "nan", "nodes": [ 1754670340, 8250885244, 8250885245, 8250885246, 1754670340 ], "alt_name": "nan", "is_in": "nan", "operator:type": "nan", "type": "nan", "addr:country": "nan", "access": "nan", "name_1": "nan", "old_name": "nan", "ele:ft": "nan", "note": "nan", "operator:wikidata": "nan", "website": "nan", "aerodrome": "nan", "aerodrome:type": "nan", "city_served": "nan", "gnis:edited": "nan", "internet_access": "nan", "internet_access:fee": "nan", "name:de": "nan", "name:ja": "nan", "name:ru": "nan", "phone": "nan", "rank_aci:2016": "nan", "ref": "nan", "ways": "nan", "addr:city": "nan", "addr:housenumber": "nan", "addr:postcode": "nan", "addr:street": "nan", "official_name": "nan", "name:etymology:wikidata": "nan", "name:etymology:wikipedia": "nan", "surface": "nan" }, "geometry": { "type": "Polygon", "coordinates": [ [ [ -122.2993582, 47.2964347 ], [ -122.2988663, 47.2964889 ], [ -122.2988135, 47.2962163 ], [ -122.2993137, 47.2961626 ], [ -122.2993582, 47.2964347 ] ] ] } },
{ "type": "Feature", "properties": { "element_type": "way", "osmid": "989806949", "addr:state": "WA", "aeroway": "aerodrome", "ele": "91.7", "faa": "GRF", "gnis:county_name": "nan", "gnis:created": "nan", "gnis:feature_id": "nan", "gnis:feature_type": "airport", "name": "Gray AAF", "source_ref": "nan", "wikidata": "Q3913397", "closest_town": "Joint Base Lewis McChord", "iata": "GRF", "icao": "KGRF", "landuse": "nan", "military": "nan", "name:en": "Gray AAF", "operator": "US Army", "source": "Airnav.com", "wikipedia": "nan", "nodes": [ 9147483133, 9147483134, 9147483135, 9147483136, 9147483137, 9147483138, 9147483139, 9147483140, 9147483141, 9147483142, 9147483143, 9147483144, 9147483145, 9147483146, 9147483147, 9147483148, 9147483149, 9147483150, 9147483151, 9147483152, 9147483153, 9147483154, 9147483155, 9147483156, 9147483157, 9147483158, 9147483159, 9147483160, 9147483161, 9147483162, 9147483163, 9147483164, 9147483165, 9147483166, 9147483167, 9147483168, 9147483169, 9147483170, 9147483171, 9147483172, 9147483173, 9147483174, 9147483175, 9147483176, 9147483177, 9147483178, 9147483179, 9147483180, 9147483181, 9147483182, 9147483183, 9147483184, 9147483185, 9147483186, 9147483187, 9147483188, 9147483189, 9147483190, 9147483191, 9147483192, 9147483193, 9147483194, 9147483195, 9147483196, 9147483197, 9147483198, 9147483199, 9147483200, 9147483201, 9147483202, 9147483203, 9147483204, 9147483205, 9147483206, 9147483207, 9147483208, 9147483209, 9147483210, 9147483211, 9147483212, 9147483213, 9147483214, 9147483215, 9147483216, 9147522717, 9147522718, 9147522719, 9147522720, 9147522721, 9147522722, 9147522723, 9147522724, 9147522725, 9147522726, 9147522727, 9147522728, 9147522729, 9147522730, 9147522731, 9147522732, 9147522733, 9147522734, 9147522735, 9147522736, 9147522737, 9147522738, 9147522739, 9147522740, 9147522741, 9147522742, 9147522743, 9147522744, 9147522745, 9147522746, 9147522747, 9147522748, 9147522749, 9147522750, 9147522751, 9147522752, 9147522753, 9147522754, 9147522755, 9147522756, 9147522757, 9147522758, 9147522759, 9147522760, 9147522761, 9147522762, 9147522763, 9147522764, 9147522765, 9147522766, 9147522767, 9147522768, 9147522769, 9147522770, 9147522771, 9147522772, 9147522773, 9147522774, 9147522775, 9147522776, 9147522777, 9147522778, 9147522779, 9147522780, 9147522781, 9147522782, 9147522783, 9147522784, 9147522785, 9147522786, 9147522787, 9147522788, 9147522789, 9147522790, 9147522791, 9147522792, 9147522793, 9147522794, 9147522795, 9147522796, 9147522797, 9147522798, 9147522799, 9147522800, 9147522801, 9147522802, 9147522803, 9147522804, 9147522805, 9147522806, 9147522807, 9147522808, 9147522809, 9147522810, 9147522811, 9147522812, 9147522813, 9147522814, 9147522815, 9147522816, 9147522817, 9147522818, 9147522819, 9147522820, 9147522821, 9147522822, 9147522823, 9147522824, 9147522825, 9147522826, 9147522827, 9147522828, 9147522829, 9147522830, 9147522831, 9147522832, 9147522833, 9147522834, 9147522835, 9147522836, 9147522837, 9147522838, 9147522839, 9147522840, 9147522841, 9147522842, 9147522843, 9147522844, 9147522845, 9147522846, 9147522847, 9147522848, 9147522849, 9147522850, 9147522851, 9147522852, 9147522853, 9147522854, 4839297666, 4839297665, 9147522855, 9147522856, 9147522857, 9147483133 ], "alt_name": "nan", "is_in": "US", "operator:type": "nan", "type": "Private", "addr:country": "US", "access": "nan", "name_1": "nan", "old_name": "nan", "ele:ft": "nan", "note": "nan", "operator:wikidata": "nan", "website": "nan", "aerodrome": "nan", "aerodrome:type": "nan", "city_served": "nan", "gnis:edited": "nan", "internet_access": "nan", "internet_access:fee": "nan", "name:de": "nan", "name:ja": "nan", "name:ru": "nan", "phone": "nan", "rank_aci:2016": "nan", "ref": "nan", "ways": "nan", "addr:city": "nan", "addr:housenumber": "nan", "addr:postcode": "nan", "addr:street": "nan", "official_name": "nan", "name:etymology:wikidata": "nan", "name:etymology:wikipedia": "nan", "surface": "nan" }, "geometry": { "type": "Polygon", "coordinates": [ [ [ -122.5744187, 47.0906243 ], [ -122.5748778, 47.0905111 ], [ -122.5753091, 47.0904251 ], [ -122.5758082, 47.0903453 ], [ -122.5763721, 47.0902761 ], [ -122.5769236, 47.0902384 ], [ -122.5774196, 47.0902174 ], [ -122.5780451, 47.0902174 ], [ -122.5786151, 47.0902384 ], [ -122.5791543, 47.0902824 ], [ -122.5796996, 47.0903286 ], [ -122.5801156, 47.0903621 ], [ -122.580483, 47.0903831 ], [ -122.5810501, 47.0904067 ], [ -122.5814628, 47.0904122 ], [ -122.5819201, 47.0904108 ], [ -122.5822799, 47.0903998 ], [ -122.5826702, 47.0903804 ], [ -122.5831255, 47.0903499 ], [ -122.5835301, 47.090314 ], [ -122.5839061, 47.0902738 ], [ -122.584207, 47.0902378 ], [ -122.5846521, 47.0901866 ], [ -122.5849896, 47.0901423 ], [ -122.585451, 47.0900953 ], [ -122.5858575, 47.090051 ], [ -122.5862519, 47.0900081 ], [ -122.5866991, 47.0899583 ], [ -122.5869512, 47.089932 ], [ -122.5875183, 47.0893756 ], [ -122.5879716, 47.0889133 ], [ -122.5883822, 47.0885051 ], [ -122.5886261, 47.0882559 ], [ -122.5888863, 47.0879888 ], [ -122.5890998, 47.0877688 ], [ -122.5892929, 47.0875584 ], [ -122.5892807, 47.0875182 ], [ -122.5895063, 47.0872885 ], [ -122.5900897, 47.0866781 ], [ -122.5906365, 47.0861134 ], [ -122.591041, 47.0856913 ], [ -122.591291, 47.0854297 ], [ -122.5914069, 47.0853079 ], [ -122.5915289, 47.0851861 ], [ -122.5916935, 47.085067 ], [ -122.591848, 47.0848926 ], [ -122.5920757, 47.0846435 ], [ -122.5925025, 47.0841701 ], [ -122.5926387, 47.0840206 ], [ -122.593092, 47.0835182 ], [ -122.5933253, 47.0832638 ], [ -122.5933778, 47.0832082 ], [ -122.5934339, 47.083143 ], [ -122.5934759, 47.0831438 ], [ -122.5934969, 47.0831517 ], [ -122.5935588, 47.0830889 ], [ -122.5936312, 47.0830031 ], [ -122.5936732, 47.082949 ], [ -122.5937596, 47.0828298 ], [ -122.593818, 47.0827288 ], [ -122.5938869, 47.0826024 ], [ -122.5939242, 47.0825213 ], [ -122.5939464, 47.0824649 ], [ -122.5939698, 47.0823814 ], [ -122.5939779, 47.0823257 ], [ -122.5939756, 47.0822788 ], [ -122.5939709, 47.0822438 ], [ -122.5939499, 47.0821993 ], [ -122.5939324, 47.0821683 ], [ -122.5939114, 47.0821437 ], [ -122.5933872, 47.0818718 ], [ -122.5932331, 47.0818145 ], [ -122.5931257, 47.0817716 ], [ -122.5927812, 47.0816452 ], [ -122.5917036, 47.0812294 ], [ -122.5916173, 47.0811793 ], [ -122.5912005, 47.080886 ], [ -122.591072, 47.0808017 ], [ -122.5909938, 47.0807373 ], [ -122.5908642, 47.0806347 ], [ -122.590556, 47.08037 ], [ -122.5902165, 47.080079 ], [ -122.5900254, 47.0799175 ], [ -122.5897193, 47.0796475 ], [ -122.5894733, 47.0794355 ], [ -122.5893863, 47.0793646 ], [ -122.5887629, 47.078824 ], [ -122.5882819, 47.0783963 ], [ -122.5879269, 47.0780735 ], [ -122.5876141, 47.0778047 ], [ -122.5869743, 47.0778127 ], [ -122.5869206, 47.0777698 ], [ -122.5868412, 47.0777014 ], [ -122.5868038, 47.0776616 ], [ -122.5862247, 47.077148 ], [ -122.5864442, 47.0767982 ], [ -122.5851973, 47.0757009 ], [ -122.5851273, 47.0756294 ], [ -122.5845202, 47.0750919 ], [ -122.5844455, 47.0750346 ], [ -122.5827526, 47.0735271 ], [ -122.5819143, 47.072786 ], [ -122.5820801, 47.0727558 ], [ -122.5820745, 47.0727452 ], [ -122.5820498, 47.0726823 ], [ -122.5818064, 47.0720244 ], [ -122.5817833, 47.0719594 ], [ -122.5815399, 47.0712994 ], [ -122.5815184, 47.0712385 ], [ -122.5813443, 47.0707622 ], [ -122.580782, 47.070843 ], [ -122.5806385, 47.07044 ], [ -122.5803417, 47.0696536 ], [ -122.5799189, 47.0684657 ], [ -122.5797237, 47.0679617 ], [ -122.5781504, 47.0682026 ], [ -122.5780406, 47.0682192 ], [ -122.5772519, 47.06833 ], [ -122.5766787, 47.0684324 ], [ -122.5764754, 47.0684767 ], [ -122.5761421, 47.0685737 ], [ -122.5757843, 47.0687093 ], [ -122.5755119, 47.0688506 ], [ -122.5753005, 47.0689862 ], [ -122.5751013, 47.0691579 ], [ -122.5749753, 47.0693075 ], [ -122.5748655, 47.0694847 ], [ -122.5747273, 47.0697034 ], [ -122.5745972, 47.0699942 ], [ -122.5741215, 47.0711627 ], [ -122.5743248, 47.0719408 ], [ -122.5741333, 47.0726191 ], [ -122.573721, 47.0725444 ], [ -122.5736963, 47.0726288 ], [ -122.5736166, 47.072824 ], [ -122.5735122, 47.0730723 ], [ -122.5734043, 47.0732953 ], [ -122.573337, 47.0734447 ], [ -122.5733158, 47.073511 ], [ -122.5732999, 47.0736882 ], [ -122.573491, 47.0737303 ], [ -122.5734326, 47.0739509 ], [ -122.5734202, 47.0741076 ], [ -122.5734697, 47.0741244 ], [ -122.5735211, 47.074245 ], [ -122.5737069, 47.0747668 ], [ -122.5737423, 47.0749223 ], [ -122.573806, 47.0752308 ], [ -122.5738821, 47.0755478 ], [ -122.5739493, 47.0758249 ], [ -122.5740006, 47.0761744 ], [ -122.5741764, 47.0766067 ], [ -122.5742161, 47.0769549 ], [ -122.5735647, 47.0770424 ], [ -122.573581, 47.0771378 ], [ -122.5718949, 47.0773639 ], [ -122.5720001, 47.0778233 ], [ -122.5720225, 47.0779202 ], [ -122.5720265, 47.0779645 ], [ -122.5714696, 47.0780184 ], [ -122.5713679, 47.0784406 ], [ -122.5720144, 47.0785514 ], [ -122.5721485, 47.0785486 ], [ -122.5722027, 47.0787829 ], [ -122.5722128, 47.0788784 ], [ -122.5723328, 47.0794391 ], [ -122.5728389, 47.0793865 ], [ -122.5730015, 47.0793754 ], [ -122.573156, 47.0793726 ], [ -122.5731997, 47.0793636 ], [ -122.5733003, 47.0793373 ], [ -122.57334, 47.07932 ], [ -122.5734538, 47.0792695 ], [ -122.5737018, 47.0791615 ], [ -122.5739468, 47.0790833 ], [ -122.5748564, 47.0790023 ], [ -122.5752409, 47.0793337 ], [ -122.5754903, 47.0795328 ], [ -122.5757156, 47.0797127 ], [ -122.5759637, 47.0799036 ], [ -122.5761595, 47.0800826 ], [ -122.5763768, 47.0803054 ], [ -122.5766651, 47.0806497 ], [ -122.5767872, 47.0808223 ], [ -122.5769468, 47.0810744 ], [ -122.5771291, 47.0813584 ], [ -122.5771667, 47.0814168 ], [ -122.5771801, 47.0814406 ], [ -122.5772498, 47.0816954 ], [ -122.5772565, 47.0818086 ], [ -122.5772735, 47.0819933 ], [ -122.5772775, 47.0821483 ], [ -122.5772653, 47.0824529 ], [ -122.5772613, 47.0826563 ], [ -122.5772582, 47.0828024 ], [ -122.5772918, 47.083783 ], [ -122.5772867, 47.0839222 ], [ -122.5765508, 47.0840474 ], [ -122.576003, 47.0841402 ], [ -122.5754847, 47.0842308 ], [ -122.5748006, 47.0843519 ], [ -122.5743941, 47.08468 ], [ -122.5742862, 47.0846848 ], [ -122.5733277, 47.084739 ], [ -122.5732809, 47.0849383 ], [ -122.5734558, 47.0854248 ], [ -122.5735297, 47.0854751 ], [ -122.573559, 47.0855653 ], [ -122.5736869, 47.0857909 ], [ -122.5741421, 47.0871305 ], [ -122.5729494, 47.087316 ], [ -122.5731476, 47.0879787 ], [ -122.5724853, 47.0880872 ], [ -122.5725147, 47.0881896 ], [ -122.5724954, 47.0883052 ], [ -122.5721499, 47.0883689 ], [ -122.5722261, 47.088582 ], [ -122.5713733, 47.0887197 ], [ -122.5714923, 47.0889917 ], [ -122.5716142, 47.0892816 ], [ -122.5717667, 47.0896518 ], [ -122.5717911, 47.0897051 ], [ -122.5719014, 47.0897113 ], [ -122.5736636, 47.089956 ], [ -122.5736876, 47.0899625 ], [ -122.5738258, 47.0903625 ], [ -122.5742974, 47.0902864 ], [ -122.5744187, 47.0906243 ] ] ] } },
{ "type": "Feature", "properties": { "element_type": "node", "osmid": "369033889", "addr:state": "WA", "aeroway": "aerodrome", "ele": "17", "faa": "nan", "gnis:county_name": "Pierce", "gnis:created": "03/01/1990", "gnis:feature_id": "1533779", "gnis:feature_type": "Airport", "name": "Gig Harbor Seaplane Base", "source_ref": "geonames.usgs.gov", "wikidata": "Q49746469", "closest_town": "nan", "iata": "nan", "icao": "nan", "landuse": "nan", "military": "nan", "name:en": "nan", "operator": "nan", "source": "nan", "wikipedia": "nan", "nodes": "nan", "alt_name": "nan", "is_in": "nan", "operator:type": "nan", "type": "nan", "addr:country": "nan", "access": "nan", "name_1": "nan", "old_name": "nan", "ele:ft": "nan", "note": "nan", "operator:wikidata": "nan", "website": "nan", "aerodrome": "nan", "aerodrome:type": "nan", "city_served": "nan", "gnis:edited": "nan", "internet_access": "nan", "internet_access:fee": "nan", "name:de": "nan", "name:ja": "nan", "name:ru": "nan", "phone": "nan", "rank_aci:2016": "nan", "ref": "nan", "ways": "nan", "addr:city": "nan", "addr:housenumber": "nan", "addr:postcode": "nan", "addr:street": "nan", "official_name": "nan", "name:etymology:wikidata": "nan", "name:etymology:wikipedia": "nan", "surface": "nan" }, "geometry": { "type": "Point", "coordinates": [ -122.5901299, 47.3398194 ] } },
{ "type": "Feature", "properties": { "element_type": "node", "osmid": "369033893", "addr:state": "WA", "aeroway": "aerodrome", "ele": "53", "faa": "nan", "gnis:county_name": "Pierce", "gnis:created": "03/01/1990", "gnis:feature_id": "1533780", "gnis:feature_type": "Airport", "name": "Spadoni Brothers Private Airport", "source_ref": "geonames.usgs.gov", "wikidata": "nan", "closest_town": "nan", "iata": "nan", "icao": "nan", "landuse": "nan", "military": "nan", "name:en": "nan", "operator": "nan", "source": "nan", "wikipedia": "nan", "nodes": "nan", "alt_name": "nan", "is_in": "nan", "operator:type": "nan", "type": "nan", "addr:country": "nan", "access": "nan", "name_1": "nan", "old_name": "nan", "ele:ft": "nan", "note": "nan", "operator:wikidata": "nan", "website": "nan", "aerodrome": "nan", "aerodrome:type": "nan", "city_served": "nan", "gnis:edited": "nan", "internet_access": "nan", "internet_access:fee": "nan", "name:de": "nan", "name:ja": "nan", "name:ru": "nan", "phone": "nan", "rank_aci:2016": "nan", "ref": "nan", "ways": "nan", "addr:city": "nan", "addr:housenumber": "nan", "addr:postcode": "nan", "addr:street": "nan", "official_name": "nan", "name:etymology:wikidata": "nan", "name:etymology:wikipedia": "nan", "surface": "nan" }, "geometry": { "type": "Point", "coordinates": [ -122.5741073, 47.3779477 ] } },
{ "type": "Feature", "properties": { "element_type": "node", "osmid": "369034232", "addr:state": "WA", "aeroway": "aerodrome", "ele": "95", "faa": "2S1", "gnis:county_name": "nan", "gnis:created": "nan", "gnis:feature_id": "nan", "gnis:feature_type": "nan", "name": "Vashon Municipal Airport", "source_ref": "nan", "wikidata": "Q7916525", "closest_town": "nan", "iata": "nan", "icao": "nan", "landuse": "nan", "military": "nan", "name:en": "nan", "operator": "King County", "source": "nan", "wikipedia": "nan", "nodes": "nan", "alt_name": "nan", "is_in": "Vashon, Washington", "operator:type": "public", "type": "civil", "addr:country": "nan", "access": "nan", "name_1": "nan", "old_name": "nan", "ele:ft": "nan", "note": "nan", "operator:wikidata": "nan", "website": "nan", "aerodrome": "nan", "aerodrome:type": "nan", "city_served": "nan", "gnis:edited": "nan", "internet_access": "nan", "internet_access:fee": "nan", "name:de": "nan", "name:ja": "nan", "name:ru": "nan", "phone": "nan", "rank_aci:2016": "nan", "ref": "nan", "ways": "nan", "addr:city": "nan", "addr:housenumber": "nan", "addr:postcode": "nan", "addr:street": "nan", "official_name": "nan", "name:etymology:wikidata": "nan", "name:etymology:wikipedia": "nan", "surface": "nan" }, "geometry": { "type": "Point", "coordinates": [ -122.47735, 47.4581536 ] } },
{ "type": "Feature", "properties": { "element_type": "node", "osmid": "369034236", "addr:state": "WA", "aeroway": "aerodrome", "ele": "114", "faa": "WA69", "gnis:county_name": "King", "gnis:created": "03/01/1990", "gnis:feature_id": "1534014", "gnis:feature_type": "Airport", "name": "Wax Orchards Airport", "source_ref": "geonames.usgs.gov", "wikidata": "Q49751763", "closest_town": "nan", "iata": "nan", "icao": "nan", "landuse": "nan", "military": "nan", "name:en": "nan", "operator": "nan", "source": "nan", "wikipedia": "nan", "nodes": "nan", "alt_name": "nan", "is_in": "nan", "operator:type": "nan", "type": "nan", "addr:country": "nan", "access": "private", "name_1": "nan", "old_name": "nan", "ele:ft": "nan", "note": "nan", "operator:wikidata": "nan", "website": "nan", "aerodrome": "nan", "aerodrome:type": "nan", "city_served": "nan", "gnis:edited": "nan", "internet_access": "nan", "internet_access:fee": "nan", "name:de": "nan", "name:ja": "nan", "name:ru": "nan", "phone": "nan", "rank_aci:2016": "nan", "ref": "nan", "ways": "nan", "addr:city": "nan", "addr:housenumber": "nan", "addr:postcode": "nan", "addr:street": "nan", "official_name": "nan", "name:etymology:wikidata": "nan", "name:etymology:wikipedia": "nan", "surface": "nan" }, "geometry": { "type": "Point", "coordinates": [ -122.500025, 47.4002692 ] } },
{ "type": "Feature", "properties": { "element_type": "node", "osmid": "369034321", "addr:state": "WA", "aeroway": "aerodrome", "ele": "90", "faa": "WN13", "gnis:county_name": "Kitsap", "gnis:created": "03/01/1990", "gnis:feature_id": "1533895", "gnis:feature_type": "Airport", "name": "Vaughan Ranch Airfield", "source_ref": "geonames.usgs.gov", "wikidata": "Q61726076", "closest_town": "nan", "iata": "nan", "icao": "nan", "landuse": "nan", "military": "nan", "name:en": "nan", "operator": "nan", "source": "nan", "wikipedia": "nan", "nodes": "nan", "alt_name": "nan", "is_in": "nan", "operator:type": "nan", "type": "nan", "addr:country": "nan", "access": "nan", "name_1": "nan", "old_name": "nan", "ele:ft": "nan", "note": "nan", "operator:wikidata": "nan", "website": "nan", "aerodrome": "nan", "aerodrome:type": "nan", "city_served": "nan", "gnis:edited": "nan", "internet_access": "nan", "internet_access:fee": "nan", "name:de": "nan", "name:ja": "nan", "name:ru": "nan", "phone": "nan", "rank_aci:2016": "nan", "ref": "nan", "ways": "nan", "addr:city": "nan", "addr:housenumber": "nan", "addr:postcode": "nan", "addr:street": "nan", "official_name": "nan", "name:etymology:wikidata": "nan", "name:etymology:wikipedia": "nan", "surface": "nan" }, "geometry": { "type": "Point", "coordinates": [ -122.5687976, 47.4637612 ] } },
{ "type": "Feature", "properties": { "element_type": "node", "osmid": "369034414", "addr:state": "WA", "aeroway": "aerodrome", "ele": "5", "faa": "W36", "gnis:county_name": "King", "gnis:created": "03/01/1990", "gnis:feature_id": "1533915", "gnis:feature_type": "Airport", "name": "Will Rogers Wiley Post Memorial Seaplane Base", "source_ref": "geonames.usgs.gov", "wikidata": "Q8003066", "closest_town": "Renton, Washington", "iata": "nan", "icao": "nan", "landuse": "nan", "military": "nan", "name:en": "nan", "operator": "City of Renton", "source": "http://en.wikipedia.org/wiki/Will_Rogers_%E2%80%93_Wiley_Post_Memorial_Seaplane_Base", "wikipedia": "en:Will Rogers–Wiley Post Memorial Seaplane Base", "nodes": "nan", "alt_name": "nan", "is_in": "nan", "operator:type": "nan", "type": "nan", "addr:country": "nan", "access": "nan", "name_1": "Will Rogers - Wiley Post Memorial Seaplane Base", "old_name": "nan", "ele:ft": "nan", "note": "nan", "operator:wikidata": "nan", "website": "nan", "aerodrome": "nan", "aerodrome:type": "nan", "city_served": "nan", "gnis:edited": "nan", "internet_access": "nan", "internet_access:fee": "nan", "name:de": "nan", "name:ja": "nan", "name:ru": "nan", "phone": "nan", "rank_aci:2016": "nan", "ref": "nan", "ways": "nan", "addr:city": "nan", "addr:housenumber": "nan", "addr:postcode": "nan", "addr:street": "nan", "official_name": "nan", "name:etymology:wikidata": "nan", "name:etymology:wikipedia": "nan", "surface": "nan" }, "geometry": { "type": "Point", "coordinates": [ -122.218066, 47.5005893 ] } },
{ "type": "Feature", "properties": { "element_type": "node", "osmid": "369034474", "addr:state": "WA", "aeroway": "aerodrome", "ele": "9", "faa": "0W0", "gnis:county_name": "King", "gnis:created": "03/01/1990", "gnis:feature_id": "1533934;1533946", "gnis:feature_type": "Airport", "name": "Seattle Seaplane Base", "source_ref": "geonames.usgs.gov", "wikidata": "Q61726129", "closest_town": "nan", "iata": "nan", "icao": "nan", "landuse": "nan", "military": "nan", "name:en": "nan", "operator": "Seattle Seaplanes", "source": "nan", "wikipedia": "nan", "nodes": "nan", "alt_name": "nan", "is_in": "nan", "operator:type": "nan", "type": "nan", "addr:country": "nan", "access": "nan", "name_1": "nan", "old_name": "Lake Union Chrysler Air Seaplane Base", "ele:ft": "nan", "note": "nan", "operator:wikidata": "nan", "website": "nan", "aerodrome": "nan", "aerodrome:type": "nan", "city_served": "nan", "gnis:edited": "nan", "internet_access": "nan", "internet_access:fee": "nan", "name:de": "nan", "name:ja": "nan", "name:ru": "nan", "phone": "nan", "rank_aci:2016": "nan", "ref": "nan", "ways": "nan", "addr:city": "nan", "addr:housenumber": "nan", "addr:postcode": "nan", "addr:street": "nan", "official_name": "nan", "name:etymology:wikidata": "nan", "name:etymology:wikipedia": "nan", "surface": "nan" }, "geometry": { "type": "Point", "coordinates": [ -122.327634, 47.6319714 ] } },
{ "type": "Feature", "properties": { "element_type": "node", "osmid": "369035053", "addr:state": "WA", "aeroway": "aerodrome", "ele": "0", "faa": "nan", "gnis:county_name": "King", "gnis:created": "06/01/1992", "gnis:feature_id": "1534190", "gnis:feature_type": "Airport", "name": "Quartermaster Harbor Seaplane Ramp", "source_ref": "geonames.usgs.gov", "wikidata": "Q49749782", "closest_town": "nan", "iata": "nan", "icao": "nan", "landuse": "nan", "military": "nan", "name:en": "nan", "operator": "nan", "source": "nan", "wikipedia": "nan", "nodes": "nan", "alt_name": "nan", "is_in": "nan", "operator:type": "nan", "type": "nan", "addr:country": "nan", "access": "nan", "name_1": "nan", "old_name": "nan", "ele:ft": "nan", "note": "nan", "operator:wikidata": "nan", "website": "nan", "aerodrome": "nan", "aerodrome:type": "nan", "city_served": "nan", "gnis:edited": "nan", "internet_access": "nan", "internet_access:fee": "nan", "name:de": "nan", "name:ja": "nan", "name:ru": "nan", "phone": "nan", "rank_aci:2016": "nan", "ref": "nan", "ways": "nan", "addr:city": "nan", "addr:housenumber": "nan", "addr:postcode": "nan", "addr:street": "nan", "official_name": "nan", "name:etymology:wikidata": "nan", "name:etymology:wikipedia": "nan", "surface": "nan" }, "geometry": { "type": "Point", "coordinates": [ -122.4462374, 47.379543 ] } },
{ "type": "Feature", "properties": { "element_type": "node", "osmid": "985938850", "addr:state": "nan", "aeroway": "aerodrome", "ele": "nan", "faa": "W55", "gnis:county_name": "nan", "gnis:created": "nan", "gnis:feature_id": "nan", "gnis:feature_type": "nan", "name": "Kenmore Air Seaplane Terminal", "source_ref": "nan", "wikidata": "Q6389465", "closest_town": "nan", "iata": "M5", "icao": "nan", "landuse": "nan", "military": "nan", "name:en": "nan", "operator": "Kenmore Air", "source": "nan", "wikipedia": "en:Kenmore Air Harbor Seaplane Base", "nodes": "nan", "alt_name": "Seattle Lake Union Seaplane Base", "is_in": "nan", "operator:type": "private", "type": "nan", "addr:country": "nan", "access": "nan", "name_1": "nan", "old_name": "Seattle Lake Union Seaplane Base", "ele:ft": "14", "note": "IATA code is correct source Kenmore Air.", "operator:wikidata": "Q3195152", "website": "https://www.kenmoreair.com/", "aerodrome": "nan", "aerodrome:type": "nan", "city_served": "nan", "gnis:edited": "nan", "internet_access": "nan", "internet_access:fee": "nan", "name:de": "nan", "name:ja": "nan", "name:ru": "nan", "phone": "nan", "rank_aci:2016": "nan", "ref": "nan", "ways": "nan", "addr:city": "nan", "addr:housenumber": "nan", "addr:postcode": "nan", "addr:street": "nan", "official_name": "nan", "name:etymology:wikidata": "nan", "name:etymology:wikipedia": "nan", "surface": "nan" }, "geometry": { "type": "Point", "coordinates": [ -122.339185, 47.6283095 ] } },
{ "type": "Feature", "properties": { "element_type": "way", "osmid": "50898115", "addr:state": "WA", "aeroway": "aerodrome", "ele": "129", "faa": "SEA", "gnis:county_name": "King", "gnis:created": "03/01/1990", "gnis:feature_id": "1533945", "gnis:feature_type": "Airport", "name": "Seattle-Tacoma International Airport", "source_ref": "geonames.usgs.gov", "wikidata": "Q14295", "closest_town": "nan", "iata": "SEA", "icao": "KSEA", "landuse": "nan", "military": "nan", "name:en": "Seattle-Tacoma International Airport", "operator": "Port of Seattle", "source": "nan", "wikipedia": "en:Seattle–Tacoma International Airport", "nodes": [ 649038863, 649038869, 649038891, 4745072101, 4745072102, 649038957, 4744866014, 2950247153, 2950247154, 2950247155, 2950247157, 2950247159, 2950247161, 2950247163, 2950247165, 2950247164, 2950247162, 2950247160, 2950247166, 2950247167, 2950247170, 2950247169, 2950247168, 2950247174, 2950247173, 2950247172, 2950247175, 2950247176, 2950247177, 2950247178, 2950247179, 2950247180, 2950247181, 2950247182, 4744865964, 2950247183, 2950247186, 2950247185, 2950247184, 2950247152, 2950247151, 2950247150, 4744860217, 4744860220, 4744860219, 649039050, 4744860218, 53165796, 4745072120, 4745072521, 4745072119, 649039070, 649039087, 4537410743, 4745072524, 4745072116, 4745072108, 4745072106, 4745072105, 4745072107, 649039105, 1853552655, 1853552649, 649039127, 649039143, 4537424636, 4537424635, 4728618163, 4728618164, 4728618165, 4446662763, 649039158, 1065030429, 6362909604, 649039182, 6362909608, 649039206, 649039231, 649039335, 649039360, 8587574417, 8587574419, 8587574418, 8587574420, 8587574421, 8587574422, 8587574423, 8587574424, 649039380, 8587574426, 8587574425, 430943748, 649039398, 649039418, 649039444, 649039464, 649039481, 5077235205, 649039503, 8008312939, 8008312934, 8008312933, 649039521, 799930928, 824050529, 1341951489, 649039599, 649039617, 649039633, 4351916853, 4351916854, 430536588, 430536587, 4351916845, 430536586, 649039708, 649039730, 649039747, 649039757, 649039770, 649039783, 649039796, 649039812, 649039872, 649039886, 4744771982, 4744771981, 649039904, 4744771980, 4446662766, 4744866217, 649039912, 4744866216, 649039920, 4744772081, 4744866220, 4744866214, 649039925, 649038863 ], "alt_name": "Sea-Tac Airport;SEA Airport", "is_in": "nan", "operator:type": "public", "type": "public", "addr:country": "nan", "access": "nan", "name_1": "nan", "old_name": "nan", "ele:ft": "nan", "note": "nan", "operator:wikidata": "nan", "website": "https://www.portseattle.org/sea-tac/", "aerodrome": "international", "aerodrome:type": "international", "city_served": "Seattle, Washington;Tacoma, Washington", "gnis:edited": "01/07/2006", "internet_access": "wlan", "internet_access:fee": "no", "name:de": "Flughafen Seattle-Tacoma", "name:ja": "シアトル・タコマ国際空港", "name:ru": "Международный Аэропорт Сиэтл-Такома", "phone": "+1 206 787 5388;+1 800 544 1965", "rank_aci:2016": "28", "ref": "SEA", "ways": "nan", "addr:city": "nan", "addr:housenumber": "nan", "addr:postcode": "nan", "addr:street": "nan", "official_name": "nan", "name:etymology:wikidata": "nan", "name:etymology:wikipedia": "nan", "surface": "nan" }, "geometry": { "type": "Polygon", "coordinates": [ [ [ -122.3166533, 47.4668215 ], [ -122.3183013, 47.4668598 ], [ -122.3191254, 47.4666811 ], [ -122.3193466, 47.4665215 ], [ -122.3195384, 47.4660664 ], [ -122.3194899, 47.4660513 ], [ -122.3198364, 47.4654867 ], [ -122.3196216, 47.46543 ], [ -122.319761, 47.465051 ], [ -122.3201982, 47.4631924 ], [ -122.3202277, 47.4630727 ], [ -122.3204504, 47.4606663 ], [ -122.3205335, 47.4597088 ], [ -122.3206113, 47.4596816 ], [ -122.3206166, 47.4596497 ], [ -122.3206193, 47.4596073 ], [ -122.3205496, 47.4595746 ], [ -122.320555, 47.4594459 ], [ -122.3206944, 47.4579624 ], [ -122.3207347, 47.4575507 ], [ -122.3207213, 47.4574764 ], [ -122.320681, 47.4574093 ], [ -122.3206032, 47.4573241 ], [ -122.3200561, 47.4568435 ], [ -122.3200024, 47.4567673 ], [ -122.31993, 47.456624 ], [ -122.3196672, 47.4561072 ], [ -122.3196537, 47.4558387 ], [ -122.3196537, 47.4555522 ], [ -122.3196779, 47.4554361 ], [ -122.3199032, 47.4550879 ], [ -122.3199488, 47.45499 ], [ -122.3200105, 47.4540741 ], [ -122.3199917, 47.45388 ], [ -122.3198133, 47.4534332 ], [ -122.3197181, 47.4532144 ], [ -122.3196725, 47.4530675 ], [ -122.3196484, 47.4529188 ], [ -122.3196376, 47.4527029 ], [ -122.3197825, 47.4506661 ], [ -122.3198281, 47.4506371 ], [ -122.3198308, 47.4506044 ], [ -122.3198334, 47.4505621 ], [ -122.3193533, 47.4504913 ], [ -122.319421, 47.4447055 ], [ -122.3195189, 47.4446084 ], [ -122.3194961, 47.4443889 ], [ -122.3195843, 47.444371 ], [ -122.3196682, 47.4443578 ], [ -122.3197578, 47.4442765 ], [ -122.31958, 47.4437318 ], [ -122.3199488, 47.4394093 ], [ -122.3194225, 47.4377005 ], [ -122.3194808, 47.4376292 ], [ -122.3181993, 47.4369268 ], [ -122.3177256, 47.4366775 ], [ -122.3160897, 47.4357926 ], [ -122.3160307, 47.43572 ], [ -122.3159439, 47.4356814 ], [ -122.3159114, 47.4356656 ], [ -122.3150064, 47.435138 ], [ -122.3147033, 47.4349898 ], [ -122.3143195, 47.4348771 ], [ -122.3138305, 47.4348077 ], [ -122.3091772, 47.4347801 ], [ -122.309112, 47.4347359 ], [ -122.3091274, 47.4345278 ], [ -122.3091683, 47.434495 ], [ -122.3099394, 47.4345004 ], [ -122.3099327, 47.4342165 ], [ -122.3094814, 47.4337826 ], [ -122.3094868, 47.4282712 ], [ -122.3084453, 47.4280559 ], [ -122.3082187, 47.4280561 ], [ -122.3077981, 47.4280566 ], [ -122.3068563, 47.428268 ], [ -122.3067777, 47.4282857 ], [ -122.3061373, 47.4302727 ], [ -122.3052608, 47.4305361 ], [ -122.3041153, 47.4312315 ], [ -122.3037406, 47.4312133 ], [ -122.3036657, 47.4320296 ], [ -122.3030937, 47.4320304 ], [ -122.3030372, 47.4323763 ], [ -122.3029766, 47.4324447 ], [ -122.3028273, 47.4324676 ], [ -122.3027181, 47.4324964 ], [ -122.3024291, 47.4328563 ], [ -122.3021645, 47.4329031 ], [ -122.3020469, 47.4330225 ], [ -122.3020029, 47.4332905 ], [ -122.3019472, 47.4343322 ], [ -122.301932, 47.4346923 ], [ -122.2981435, 47.4347051 ], [ -122.2978214, 47.4369469 ], [ -122.2975904, 47.4369522 ], [ -122.2970717, 47.4374564 ], [ -122.2963055, 47.4380147 ], [ -122.2959738, 47.4380242 ], [ -122.2960442, 47.4387167 ], [ -122.2961909, 47.4401428 ], [ -122.2962011, 47.4402423 ], [ -122.2962681, 47.4408926 ], [ -122.2966401, 47.4472838 ], [ -122.2966483, 47.4478508 ], [ -122.2966271, 47.4486344 ], [ -122.2965333, 47.4494245 ], [ -122.2972531, 47.4501034 ], [ -122.2985744, 47.4508557 ], [ -122.2985988, 47.4523679 ], [ -122.298646, 47.4524404 ], [ -122.29861, 47.4574216 ], [ -122.2972467, 47.4574234 ], [ -122.2971886, 47.4590303 ], [ -122.297169, 47.4595773 ], [ -122.2980277, 47.460336 ], [ -122.2967633, 47.4617677 ], [ -122.296607, 47.4624786 ], [ -122.2968343, 47.4630743 ], [ -122.2973315, 47.463622 ], [ -122.2996758, 47.4647173 ], [ -122.300656, 47.4649959 ], [ -122.3019631, 47.4649863 ], [ -122.3027718, 47.4649921 ], [ -122.3047708, 47.4649839 ], [ -122.3047792, 47.4651979 ], [ -122.3051454, 47.4653439 ], [ -122.3052453, 47.4654049 ], [ -122.3055169, 47.4655859 ], [ -122.3061622, 47.4662138 ], [ -122.3064838, 47.4664183 ], [ -122.3068548, 47.4665711 ], [ -122.3071865, 47.4666449 ], [ -122.3074494, 47.4666762 ], [ -122.3127104, 47.4667066 ], [ -122.3129191, 47.4667087 ], [ -122.313085, 47.4667177 ], [ -122.3154802, 47.466813 ], [ -122.3166533, 47.4668215 ] ] ] } },
{ "type": "Feature", "properties": { "element_type": "way", "osmid": "660420771", "addr:state": "WA", "aeroway": "aerodrome", "ele": "8", "faa": "RNT", "gnis:county_name": "King", "gnis:created": "03/01/1990", "gnis:feature_id": "1533914", "gnis:feature_type": "Airport", "name": "Renton Municipal Airport", "source_ref": "geonames.usgs.gov", "wikidata": "Q7313554", "closest_town": "Renton, Washington", "iata": "RNT", "icao": "KRNT", "landuse": "nan", "military": "nan", "name:en": "Renton Municipal Airport", "operator": "City of Renton", "source": "wikipedia", "wikipedia": "en:Renton Municipal Airport", "nodes": [ 6183227562, 6183227561, 11228261570, 6183227560, 6183227559, 6183227558, 6183227557, 6183227556, 6183227555, 6183227554, 6183227553, 6183227552, 6183227551, 6183227550, 6183227549, 6183227548, 6183227547, 6183227546, 6183227545, 6183227544, 6183227543, 6183227542, 6183227541, 6183227540, 6183227539, 6183227538, 6183227537, 6183227536, 2931175120, 6183227535, 6183227534, 6183227533, 6183227532, 6183227531, 6183227530, 6183227529, 6183227528, 2931175601, 2931174568, 2931174569, 2931174112, 6136490141, 6136490140, 6136490139, 6136490138, 6136490137, 6136490136, 6136490135, 6136490134, 6136490133, 6136490132, 6136490131, 6183227526, 6183227525, 6183227524, 6183227523, 6183227522, 6183227521, 6183227520, 6183227519, 6183227518, 6183227517, 6183227516, 6183227515, 6183227514, 6183227513, 6183227512, 11278192474, 6183227511, 6183227510, 6183227509, 6183227508, 6183227507, 6183227506, 6183227505, 11278176067, 6183227504, 6183227503, 6183227502, 11278192475, 11278192483, 6183227501, 413698974, 6183227500, 11278192484, 6183227499, 6183227498, 6183227497, 6183227496, 11278192657, 6183227495, 6183227493, 11278192658, 412354414, 6183227492, 11278192494, 5077381323, 10083209554, 10083209555, 10083209551, 282632073, 282629654, 30789235, 9523491112, 2990162834, 30785499, 5054336768, 5054336769, 6183227491, 5054336770, 5054336765, 5054336766, 6183227489, 6183227488, 6183227487, 6183227486, 6183227485, 6183227484, 2931217990, 2931217991, 2931217992, 6183227483, 6183227482, 6183227481, 6183227480, 6183227479, 6183227478, 2931217022, 2931217021, 2931217024, 2931217023, 6183227477, 6183227476, 6183227475, 6183227474, 6183227473, 6183227472, 6183227471, 6183227470, 6183227469, 6110436672, 2931215541, 6183227468, 6110436186, 6183227467, 6183227466, 6183227465, 6183227464, 6183227392, 6183227463, 6183209648, 6183209649, 6183209647, 6183209650, 6183209651, 6183209652, 6183227462, 6183227461, 6183209659, 6183227460, 6183227459, 6183227395, 6183227458, 2931163452, 2931163455, 2931163454, 6183227457, 6183227456, 6183227455, 6183227454, 6183227453, 6183227452, 6183227451, 6183227450, 6183227449, 6183227448, 6183227447, 6183227446, 6183227445, 2931210019, 6183227444, 6183227443, 6183227442, 6183227441, 6183227440, 2931213160, 2931213159, 2931213162, 2931213161, 6183227439, 2931211456, 2931211455, 2931211458, 2931211457, 6183227436, 2931207819, 6183227435, 6183227434, 6183227433, 6183227432, 6183227431, 2931215828, 2931215829, 6183227430, 6183227429, 6183227428, 6183227427, 6183227426, 6183227425, 6183227424, 6183227423, 6183227422, 6183227421, 6183227420, 6183227419, 6183227418, 6183227417, 6183227416, 6183227415, 6183227414, 6183227413, 6183227412, 6183227411, 6183227410, 6183227409, 6183227408, 2931198453, 2931198456, 2931198455, 6183227407, 6183227406, 6183227405, 6183227404, 6183227403, 6183227402, 6183227401, 2931201181, 2931201180, 6183227400, 6183227399, 6183227398, 11278192713, 6183227397, 6183227396, 6183227562 ], "alt_name": "Clayton Scott Field", "is_in": "nan", "operator:type": "public", "type": "public", "addr:country": "nan", "access": "nan", "name_1": "nan", "old_name": "nan", "ele:ft": "nan", "note": "nan", "operator:wikidata": "nan", "website": "nan", "aerodrome": "nan", "aerodrome:type": "nan", "city_served": "nan", "gnis:edited": "nan", "internet_access": "nan", "internet_access:fee": "nan", "name:de": "nan", "name:ja": "nan", "name:ru": "nan", "phone": "nan", "rank_aci:2016": "nan", "ref": "nan", "ways": "nan", "addr:city": "nan", "addr:housenumber": "nan", "addr:postcode": "nan", "addr:street": "nan", "official_name": "nan", "name:etymology:wikidata": "nan", "name:etymology:wikipedia": "nan", "surface": "nan" }, "geometry": { "type": "Polygon", "coordinates": [ [ [ -122.2153647, 47.4853769 ], [ -122.2151515, 47.4854449 ], [ -122.2151173, 47.4854337 ], [ -122.2150563, 47.4854132 ], [ -122.214949, 47.4853796 ], [ -122.2148471, 47.4853597 ], [ -122.2147398, 47.4853506 ], [ -122.2146043, 47.485347 ], [ -122.2145131, 47.4853516 ], [ -122.214371, 47.4853769 ], [ -122.2142556, 47.4854077 ], [ -122.2141577, 47.485454 ], [ -122.2140451, 47.485521 ], [ -122.2134161, 47.4854685 ], [ -122.2122453, 47.4854485 ], [ -122.2122037, 47.4854784 ], [ -122.2121219, 47.4854123 ], [ -122.2121421, 47.4853991 ], [ -122.212134, 47.4853506 ], [ -122.2119731, 47.485202 ], [ -122.2119342, 47.4851803 ], [ -122.2118859, 47.4851721 ], [ -122.2118349, 47.4851676 ], [ -122.2117156, 47.4851658 ], [ -122.211705, 47.4851779 ], [ -122.211383, 47.4851746 ], [ -122.2113816, 47.485154 ], [ -122.2101626, 47.4851246 ], [ -122.2099564, 47.4851235 ], [ -122.2098595, 47.4851377 ], [ -122.2098112, 47.4851658 ], [ -122.2097884, 47.4851902 ], [ -122.2097737, 47.4852319 ], [ -122.2097763, 47.4857304 ], [ -122.2097991, 47.485821 ], [ -122.2098045, 47.4858391 ], [ -122.209875, 47.4858268 ], [ -122.20993, 47.4859551 ], [ -122.2100551, 47.4860426 ], [ -122.2101937, 47.4861496 ], [ -122.2102521, 47.4861721 ], [ -122.210264, 47.4861538 ], [ -122.2105749, 47.4862763 ], [ -122.2105153, 47.4863454 ], [ -122.2106943, 47.486416 ], [ -122.210724, 47.4863817 ], [ -122.2107845, 47.4864055 ], [ -122.2108215, 47.4863626 ], [ -122.2108146, 47.4863599 ], [ -122.2109425, 47.4862118 ], [ -122.2110215, 47.486243 ], [ -122.2111267, 47.4861211 ], [ -122.2111704, 47.4861446 ], [ -122.2111791, 47.4863403 ], [ -122.211041, 47.4863448 ], [ -122.2108385, 47.4865025 ], [ -122.2108546, 47.4865134 ], [ -122.2107956, 47.4865741 ], [ -122.2107835, 47.4865995 ], [ -122.2107849, 47.4866285 ], [ -122.2108063, 47.4866557 ], [ -122.2110517, 47.4869158 ], [ -122.2111161, 47.4870409 ], [ -122.2111979, 47.4870372 ], [ -122.2112462, 47.487213 ], [ -122.2113146, 47.4873372 ], [ -122.211383, 47.4874206 ], [ -122.2115022, 47.4875396 ], [ -122.2115305, 47.4875674 ], [ -122.2116056, 47.4876725 ], [ -122.2116619, 47.4877106 ], [ -122.2118537, 47.4877133 ], [ -122.2120509, 47.4876979 ], [ -122.2121595, 47.4876716 ], [ -122.2121742, 47.4877831 ], [ -122.2122377, 47.4877768 ], [ -122.2122879, 47.4877719 ], [ -122.2122918, 47.4877985 ], [ -122.2123566, 47.4877949 ], [ -122.2126911, 47.4898297 ], [ -122.2127248, 47.4900345 ], [ -122.2127308, 47.4900659 ], [ -122.2126012, 47.4900784 ], [ -122.2125256, 47.4900858 ], [ -122.2125741, 47.4902721 ], [ -122.2126879, 47.4907002 ], [ -122.2127509, 47.4908162 ], [ -122.2127952, 47.4908887 ], [ -122.2128408, 47.4909367 ], [ -122.2128796, 47.4910382 ], [ -122.2129628, 47.4912494 ], [ -122.2134094, 47.4923866 ], [ -122.2134374, 47.4925837 ], [ -122.2134429, 47.4926159 ], [ -122.2133161, 47.492635 ], [ -122.2140006, 47.4944071 ], [ -122.2142798, 47.4951277 ], [ -122.2160991, 47.5002518 ], [ -122.2162019, 47.5003007 ], [ -122.2162854, 47.5003796 ], [ -122.2163114, 47.5005362 ], [ -122.2168009, 47.5005106 ], [ -122.2174427, 47.5004718 ], [ -122.2176915, 47.5004637 ], [ -122.2177791, 47.5004618 ], [ -122.2181576, 47.5004505 ], [ -122.2182225, 47.5004549 ], [ -122.2181502, 47.5000849 ], [ -122.2185284, 47.500055 ], [ -122.2185266, 47.5000303 ], [ -122.2184348, 47.4996017 ], [ -122.2189873, 47.4995736 ], [ -122.2190957, 47.4995657 ], [ -122.2191675, 47.499476 ], [ -122.219211, 47.4994044 ], [ -122.2192781, 47.4992957 ], [ -122.2193196, 47.4991697 ], [ -122.2194913, 47.4985092 ], [ -122.2193522, 47.4985194 ], [ -122.218112, 47.4986042 ], [ -122.2180818, 47.4984076 ], [ -122.2192366, 47.4983286 ], [ -122.219215, 47.498174 ], [ -122.2192714, 47.4981744 ], [ -122.2192352, 47.4976417 ], [ -122.2190541, 47.4976534 ], [ -122.2190497, 47.4976181 ], [ -122.2189376, 47.497625 ], [ -122.2186901, 47.4976429 ], [ -122.2186501, 47.4973909 ], [ -122.2188976, 47.497373 ], [ -122.218857, 47.4971886 ], [ -122.2188851, 47.4971873 ], [ -122.2188771, 47.4971451 ], [ -122.2191051, 47.497132 ], [ -122.2190648, 47.4968276 ], [ -122.2190286, 47.4968294 ], [ -122.2190098, 47.4967134 ], [ -122.2191332, 47.4967039 ], [ -122.2191334, 47.4966514 ], [ -122.2187325, 47.4966793 ], [ -122.2186739, 47.4962952 ], [ -122.2185069, 47.4963065 ], [ -122.2184613, 47.4959387 ], [ -122.2188342, 47.495916 ], [ -122.2188134, 47.4957751 ], [ -122.2190206, 47.4957656 ], [ -122.2188905, 47.4955055 ], [ -122.2188561, 47.4954137 ], [ -122.2187832, 47.4952192 ], [ -122.2186928, 47.4952245 ], [ -122.2187003, 47.4952792 ], [ -122.2186708, 47.4952814 ], [ -122.2186717, 47.4952914 ], [ -122.2185257, 47.4953008 ], [ -122.2185078, 47.4951577 ], [ -122.2185774, 47.4951527 ], [ -122.2185225, 47.4947827 ], [ -122.2184633, 47.4947867 ], [ -122.2184444, 47.4946582 ], [ -122.218409, 47.494661 ], [ -122.218398, 47.4945842 ], [ -122.2183887, 47.49452 ], [ -122.2181631, 47.4945345 ], [ -122.2179499, 47.493142 ], [ -122.2181949, 47.4931249 ], [ -122.2181918, 47.4930703 ], [ -122.2183245, 47.4930617 ], [ -122.2183138, 47.4930255 ], [ -122.2182186, 47.4929711 ], [ -122.2181958, 47.492953 ], [ -122.2182561, 47.4929231 ], [ -122.2182789, 47.4929031 ], [ -122.2181918, 47.492682 ], [ -122.2181569, 47.4926693 ], [ -122.2180724, 47.492673 ], [ -122.2180764, 47.4926412 ], [ -122.2179893, 47.4926159 ], [ -122.2178926, 47.4926207 ], [ -122.217874, 47.492499 ], [ -122.2178538, 47.492402 ], [ -122.2180134, 47.4923957 ], [ -122.2180362, 47.4923794 ], [ -122.2178753, 47.4920966 ], [ -122.2174724, 47.4921251 ], [ -122.2175026, 47.4923346 ], [ -122.2172643, 47.4923503 ], [ -122.2172249, 47.4920768 ], [ -122.2174632, 47.4920611 ], [ -122.2174528, 47.4919806 ], [ -122.2173971, 47.4919862 ], [ -122.2172736, 47.4919927 ], [ -122.217257, 47.4918482 ], [ -122.2173805, 47.4918417 ], [ -122.2173705, 47.4917654 ], [ -122.2174008, 47.4917635 ], [ -122.2175916, 47.4917514 ], [ -122.217599, 47.4917015 ], [ -122.2176419, 47.4916309 ], [ -122.2177036, 47.4916218 ], [ -122.2174113, 47.4907102 ], [ -122.2173044, 47.4907145 ], [ -122.2170794, 47.4907315 ], [ -122.2170599, 47.4905552 ], [ -122.2171001, 47.4905117 ], [ -122.2172919, 47.4905008 ], [ -122.2172731, 47.4903595 ], [ -122.2173201, 47.4903196 ], [ -122.2173442, 47.4903178 ], [ -122.2173388, 47.4902109 ], [ -122.2173402, 47.4901057 ], [ -122.2173509, 47.4899589 ], [ -122.2173643, 47.4897641 ], [ -122.2173992, 47.4893753 ], [ -122.2174113, 47.4891814 ], [ -122.2174126, 47.4891161 ], [ -122.2174166, 47.4890119 ], [ -122.2174126, 47.4889748 ], [ -122.2170974, 47.4868986 ], [ -122.2170009, 47.4862751 ], [ -122.2169197, 47.48628 ], [ -122.2169251, 47.4863362 ], [ -122.2164322, 47.4863639 ], [ -122.2164289, 47.4863272 ], [ -122.2163457, 47.4863349 ], [ -122.2163324, 47.4862604 ], [ -122.2162915, 47.4862635 ], [ -122.2162587, 47.486067 ], [ -122.2168965, 47.4860184 ], [ -122.2169108, 47.4861043 ], [ -122.21697, 47.4861001 ], [ -122.2169043, 47.4856851 ], [ -122.2168708, 47.485608 ], [ -122.2168171, 47.4855482 ], [ -122.2167555, 47.4855047 ], [ -122.2167065, 47.4855029 ], [ -122.216699, 47.4856701 ], [ -122.2164789, 47.4856656 ], [ -122.2164825, 47.4855863 ], [ -122.2159454, 47.4855672 ], [ -122.2159468, 47.4854911 ], [ -122.2156991, 47.485487 ], [ -122.2156195, 47.4854857 ], [ -122.2154666, 47.4853833 ], [ -122.2153647, 47.4853769 ] ] ] } },
{ "type": "Feature", "properties": { "element_type": "way", "osmid": "906725698", "addr:state": "nan", "aeroway": "aerodrome", "ele": "nan", "faa": "WA53", "gnis:county_name": "nan", "gnis:created": "nan", "gnis:feature_id": "nan", "gnis:feature_type": "nan", "name": "Harborview Medical Center Heliport", "source_ref": "nan", "wikidata": "Q61726124", "closest_town": "nan", "iata": "nan", "icao": "WA53", "landuse": "nan", "military": "nan", "name:en": "nan", "operator": "University of Washington", "source": "nan", "wikipedia": "nan", "nodes": [ 8419773272, 11035186642, 8419773273, 8419773274, 8419773275, 8419773276, 8419773277, 8419773278, 2375459068, 2375459067, 11035186690, 8419773272 ], "alt_name": "nan", "is_in": "nan", "operator:type": "government", "type": "nan", "addr:country": "nan", "access": "nan", "name_1": "nan", "old_name": "nan", "ele:ft": "nan", "note": "nan", "operator:wikidata": "nan", "website": "nan", "aerodrome": "nan", "aerodrome:type": "nan", "city_served": "nan", "gnis:edited": "nan", "internet_access": "nan", "internet_access:fee": "nan", "name:de": "nan", "name:ja": "nan", "name:ru": "nan", "phone": "nan", "rank_aci:2016": "nan", "ref": "nan", "ways": "nan", "addr:city": "nan", "addr:housenumber": "nan", "addr:postcode": "nan", "addr:street": "nan", "official_name": "nan", "name:etymology:wikidata": "nan", "name:etymology:wikipedia": "nan", "surface": "nan" }, "geometry": { "type": "Polygon", "coordinates": [ [ [ -122.3244399, 47.6027948 ], [ -122.3249984, 47.6033553 ], [ -122.3250106, 47.6033675 ], [ -122.325132, 47.6033151 ], [ -122.3251306, 47.6032816 ], [ -122.325145, 47.603254 ], [ -122.3251785, 47.6032269 ], [ -122.3252276, 47.6032048 ], [ -122.3247422, 47.6027123 ], [ -122.3246523, 47.602699 ], [ -122.3244481, 47.6027911 ], [ -122.3244399, 47.6027948 ] ] ] } },
{ "type": "Feature", "properties": { "element_type": "relation", "osmid": "453248", "addr:state": "WA", "aeroway": "aerodrome", "ele": "18", "faa": "nan", "gnis:county_name": "King", "gnis:created": "03/01/1990", "gnis:feature_id": "1533672", "gnis:feature_type": "Airport", "name": "Auburn Municipal Airport", "source_ref": "geonames.usgs.gov", "wikidata": "Q2901423", "closest_town": "nan", "iata": "nan", "icao": "nan", "landuse": "nan", "military": "nan", "name:en": "nan", "operator": "nan", "source": "nan", "wikipedia": "en:Auburn Municipal Airport (Washington)", "nodes": [ [ [ 668067515, 668067516 ], [ 668067506, 668067513, 668067515 ], [ 668067516, 4799967465, 10882374486, 668067530, 668067538, 10882374487, 10882374488, 4910237764, 4910237762, 4910237761, 4435132331, 4910237760, 4910237763, 4910237746, 668067554, 668067568, 668067580, 668067593, 668067602, 4435132334, 4435132359, 668067607, 668067613, 668067619, 668067625, 668067633, 4674257144, 4674257168, 668067636, 668067638, 4674257623, 668067644, 668067506 ] ] ], "alt_name": "nan", "is_in": "nan", "operator:type": "nan", "type": "multipolygon", "addr:country": "nan", "access": "nan", "name_1": "nan", "old_name": "nan", "ele:ft": "nan", "note": "nan", "operator:wikidata": "nan", "website": "nan", "aerodrome": "nan", "aerodrome:type": "nan", "city_served": "nan", "gnis:edited": "nan", "internet_access": "nan", "internet_access:fee": "nan", "name:de": "nan", "name:ja": "nan", "name:ru": "nan", "phone": "nan", "rank_aci:2016": "nan", "ref": "nan", "ways": [ 681314684, 52594409, 52594427 ], "addr:city": "nan", "addr:housenumber": "nan", "addr:postcode": "nan", "addr:street": "nan", "official_name": "nan", "name:etymology:wikidata": "nan", "name:etymology:wikipedia": "nan", "surface": "nan" }, "geometry": { "type": "Polygon", "coordinates": [ [ [ -122.2301909, 47.3277617 ], [ -122.2276258, 47.3277555 ], [ -122.2276904, 47.3337722 ], [ -122.2235381, 47.3337785 ], [ -122.2234313, 47.3320749 ], [ -122.223431, 47.331915 ], [ -122.2254402, 47.3319132 ], [ -122.2254381, 47.3308107 ], [ -122.2254369, 47.3301868 ], [ -122.2254441, 47.3295687 ], [ -122.2241562, 47.3295693 ], [ -122.2241663, 47.3275074 ], [ -122.223455, 47.3275178 ], [ -122.2233627, 47.3274365 ], [ -122.2233561, 47.3267303 ], [ -122.2233299, 47.3232304 ], [ -122.2233165, 47.3225018 ], [ -122.2233351, 47.3224017 ], [ -122.2234273, 47.3223267 ], [ -122.2236672, 47.3222641 ], [ -122.2242762, 47.3222578 ], [ -122.2244105, 47.3222557 ], [ -122.2249323, 47.3222477 ], [ -122.2249321, 47.3222108 ], [ -122.2254071, 47.3222099 ], [ -122.2259735, 47.3222089 ], [ -122.2259736, 47.3222308 ], [ -122.2261041, 47.3222305 ], [ -122.2267722, 47.3222215 ], [ -122.2269333, 47.3222194 ], [ -122.2276079, 47.3222103 ], [ -122.2275704, 47.3239153 ], [ -122.2276458, 47.3239151 ], [ -122.2289519, 47.3239119 ], [ -122.2301172, 47.323909 ], [ -122.2301909, 47.3277617 ] ] ] } },
{ "type": "Feature", "properties": { "element_type": "relation", "osmid": "537472", "addr:state": "WA", "aeroway": "aerodrome", "ele": "6", "faa": "BFI", "gnis:county_name": "King", "gnis:created": "03/01/1990", "gnis:feature_id": "1533947", "gnis:feature_type": "Airport", "name": "Boeing Field", "source_ref": "geonames.usgs.gov", "wikidata": "Q2875716", "closest_town": "nan", "iata": "BFI", "icao": "KBFI", "landuse": "nan", "military": "nan", "name:en": "nan", "operator": "King County Department of Executive Services", "source": "nan", "wikipedia": "en:Boeing Field", "nodes": [ [ [ 6522414646, 6522414647, 677227329, 6522414648, 6522414649, 6522414650, 6522414651, 6522414652, 6522414653, 6522414645 ], [ 677227316, 677227318, 6482836157, 677227319, 7143813362, 677227320, 677227322, 677227323, 677227325, 677227326, 4553740966, 677227327, 6522414646 ], [ 2396906946, 677227415, 677227416, 677227417, 677227418, 677227419, 677227420, 677227423, 677227424, 4326212627, 4326212463, 4326212456, 677227426, 4326212282, 677227427, 677227428, 677227309, 677227311, 677227312, 677227313, 677227315, 677227316 ], [ 2396906969, 2396906946 ], [ 4032313226, 677227406, 677227408, 677227409, 53180698, 677227410, 2396906969 ], [ 4032313227, 2396907318, 2396907310, 2396907311, 2396907309, 2396907308, 2396907303, 2396907269, 2396907270, 2396907266, 4032313226 ], [ 677227396, 677227400, 677227401, 4032313227 ], [ 4326212812, 4560200841, 4560200840, 677227396 ], [ 6522414645, 677227331, 6482836136, 6482836135, 6482836138, 677227332, 677227334, 677227335, 677227337, 677227338, 677227339, 677227340, 677227342, 677227343, 677227344, 677227346, 677227350, 677227351, 677227352, 677227353, 677227354, 677227356, 677227357, 677227358, 677227360, 677227361, 677227362, 677227364, 677227365, 677227366, 8909505619, 677227367, 677227368, 677227369, 677227371, 677227372, 677227308, 677227373, 677227374, 3623939065, 9986562137, 9986562138, 7143813285, 3623939062, 3623939039, 677227381, 4560201712, 4560200878, 4560200872, 4560200845, 677227386, 7143804641, 4326212812 ] ] ], "alt_name": "nan", "is_in": "nan", "operator:type": "public", "type": "multipolygon", "addr:country": "nan", "access": "nan", "name_1": "nan", "old_name": "nan", "ele:ft": "nan", "note": "nan", "operator:wikidata": "nan", "website": "https://kingcounty.gov/services/airport.aspx", "aerodrome": "nan", "aerodrome:type": "international", "city_served": "nan", "gnis:edited": "nan", "internet_access": "nan", "internet_access:fee": "nan", "name:de": "nan", "name:ja": "nan", "name:ru": "nan", "phone": "nan", "rank_aci:2016": "nan", "ref": "nan", "ways": [ 694624982, 53656794, 53621320, 53621319, 53621322, 400698156, 53621318, 989369295, 694624981 ], "addr:city": "Seattle", "addr:housenumber": "7277", "addr:postcode": "98108", "addr:street": "Perimeter Road South", "official_name": "King County International Airport", "name:etymology:wikidata": "nan", "name:etymology:wikipedia": "nan", "surface": "nan" }, "geometry": { "type": "Polygon", "coordinates": [ [ [ -122.3183516, 47.5398053 ], [ -122.3178555, 47.5397975 ], [ -122.3178572, 47.5398139 ], [ -122.317824, 47.5398133 ], [ -122.3178253, 47.5400154 ], [ -122.3178371, 47.5400591 ], [ -122.3178462, 47.540061 ], [ -122.3178455, 47.5400906 ], [ -122.3178394, 47.5400897 ], [ -122.3178217, 47.5401552 ], [ -122.3178188, 47.5403394 ], [ -122.3155448, 47.5403628 ], [ -122.3155159, 47.5405769 ], [ -122.3139131, 47.5405658 ], [ -122.3139131, 47.5405794 ], [ -122.3139145, 47.5406166 ], [ -122.3141267, 47.5408666 ], [ -122.314767, 47.5416212 ], [ -122.3151984, 47.5421295 ], [ -122.3150245, 47.5422013 ], [ -122.3159496, 47.5431536 ], [ -122.3160231, 47.5432244 ], [ -122.3162646, 47.5434574 ], [ -122.3162237, 47.543567 ], [ -122.3162141, 47.5448055 ], [ -122.3162019, 47.5459374 ], [ -122.316139, 47.5459369 ], [ -122.3142938, 47.5459267 ], [ -122.3142189, 47.5459365 ], [ -122.3141362, 47.5459553 ], [ -122.3136351, 47.5461112 ], [ -122.3131792, 47.5463486 ], [ -122.3130177, 47.5463681 ], [ -122.3109291, 47.5445856 ], [ -122.3090714, 47.5429977 ], [ -122.3056039, 47.5400982 ], [ -122.3038846, 47.5386037 ], [ -122.3029154, 47.5377748 ], [ -122.3012585, 47.5363792 ], [ -122.3009249, 47.5360973 ], [ -122.2993325, 47.5347663 ], [ -122.2985421, 47.5339801 ], [ -122.2981267, 47.5335131 ], [ -122.2977921, 47.53305 ], [ -122.2974516, 47.5323767 ], [ -122.2970132, 47.5314893 ], [ -122.295842, 47.5289557 ], [ -122.2953919, 47.5279516 ], [ -122.2948958, 47.5268813 ], [ -122.2943765, 47.5257798 ], [ -122.293863, 47.524624 ], [ -122.2936092, 47.5240207 ], [ -122.2934707, 47.5236666 ], [ -122.2932688, 47.5231878 ], [ -122.2928534, 47.5222693 ], [ -122.2921553, 47.52088 ], [ -122.2916822, 47.519907 ], [ -122.2910995, 47.5186188 ], [ -122.289784, 47.5163186 ], [ -122.2885897, 47.514108 ], [ -122.2885147, 47.5139329 ], [ -122.2887224, 47.5138317 ], [ -122.2903321, 47.5137967 ], [ -122.290811, 47.5136566 ], [ -122.2918328, 47.5133646 ], [ -122.2925091, 47.5131963 ], [ -122.2925051, 47.513228 ], [ -122.2941601, 47.5132355 ], [ -122.2966032, 47.5169848 ], [ -122.2951698, 47.5174169 ], [ -122.2951392, 47.5175016 ], [ -122.2944362, 47.5177118 ], [ -122.2957236, 47.5192358 ], [ -122.297124, 47.5192459 ], [ -122.2973116, 47.5194564 ], [ -122.2976665, 47.5194541 ], [ -122.2978426, 47.5195757 ], [ -122.2982885, 47.519583 ], [ -122.2998633, 47.5219813 ], [ -122.3005865, 47.5229942 ], [ -122.3008787, 47.5234097 ], [ -122.3014442, 47.5243943 ], [ -122.303025, 47.5267956 ], [ -122.3040692, 47.5282979 ], [ -122.3044123, 47.5287163 ], [ -122.3044903, 47.528802 ], [ -122.3050039, 47.5293059 ], [ -122.3050619, 47.5293717 ], [ -122.3053674, 47.5297185 ], [ -122.3056943, 47.5299701 ], [ -122.3063078, 47.5303568 ], [ -122.3067694, 47.5307031 ], [ -122.3087021, 47.5318746 ], [ -122.3089475, 47.5320406 ], [ -122.3092339, 47.5322214 ], [ -122.3100203, 47.5327595 ], [ -122.3099137, 47.5328515 ], [ -122.3100266, 47.5329205 ], [ -122.3101662, 47.5329183 ], [ -122.3119363, 47.5349949 ], [ -122.3118022, 47.535071 ], [ -122.3124755, 47.5358442 ], [ -122.3124177, 47.5359689 ], [ -122.3133293, 47.5370859 ], [ -122.3129427, 47.537226 ], [ -122.3130004, 47.5373194 ], [ -122.3148351, 47.5394638 ], [ -122.316139, 47.5394833 ], [ -122.3161044, 47.5389034 ], [ -122.3158852, 47.5385259 ], [ -122.3159388, 47.5383815 ], [ -122.316901, 47.5384908 ], [ -122.3171545, 47.5384792 ], [ -122.3171161, 47.5394643 ], [ -122.3179275, 47.5394522 ], [ -122.3179218, 47.539635 ], [ -122.3183257, 47.539635 ], [ -122.3183516, 47.5398053 ] ] ] } },
{ "type": "Feature", "properties": { "element_type": "node", "osmid": "1042018859", "addr:state": "nan", "aeroway": "aerodrome", "ele": "nan", "faa": "96WA", "gnis:county_name": "nan", "gnis:created": "nan", "gnis:feature_id": "nan", "gnis:feature_type": "nan", "name": "Jim & Julie's Airport", "source_ref": "nan", "wikidata": "Q49747102", "closest_town": "nan", "iata": "nan", "icao": "nan", "landuse": "nan", "military": "nan", "name:en": "nan", "operator": "nan", "source": "ourairports.com", "wikipedia": "nan", "nodes": "nan", "alt_name": "nan", "is_in": "nan", "operator:type": "nan", "type": "nan", "addr:country": "nan", "access": "nan", "name_1": "nan", "old_name": "nan", "ele:ft": "nan", "note": "nan", "operator:wikidata": "nan", "website": "nan", "aerodrome": "nan", "aerodrome:type": "nan", "city_served": "nan", "gnis:edited": "nan", "internet_access": "nan", "internet_access:fee": "nan", "name:de": "nan", "name:ja": "nan", "name:ru": "nan", "phone": "nan", "rank_aci:2016": "nan", "ref": "nan", "ways": "nan", "addr:city": "nan", "addr:housenumber": "nan", "addr:postcode": "nan", "addr:street": "nan", "official_name": "nan", "name:etymology:wikidata": "nan", "name:etymology:wikipedia": "nan", "surface": "nan" }, "geometry": { "type": "Point", "coordinates": [ -122.155998, 47.8981018 ] } },
{ "type": "Feature", "properties": { "element_type": "node", "osmid": "1042092618", "addr:state": "nan", "aeroway": "aerodrome", "ele": "nan", "faa": "WA22", "gnis:county_name": "nan", "gnis:created": "nan", "gnis:feature_id": "nan", "gnis:feature_type": "nan", "name": "Mirth Airport", "source_ref": "nan", "wikidata": "Q49748220", "closest_town": "nan", "iata": "nan", "icao": "nan", "landuse": "nan", "military": "nan", "name:en": "nan", "operator": "nan", "source": "ourairports.com", "wikipedia": "nan", "nodes": "nan", "alt_name": "nan", "is_in": "nan", "operator:type": "nan", "type": "nan", "addr:country": "nan", "access": "nan", "name_1": "nan", "old_name": "nan", "ele:ft": "nan", "note": "nan", "operator:wikidata": "nan", "website": "nan", "aerodrome": "nan", "aerodrome:type": "nan", "city_served": "nan", "gnis:edited": "nan", "internet_access": "nan", "internet_access:fee": "nan", "name:de": "nan", "name:ja": "nan", "name:ru": "nan", "phone": "nan", "rank_aci:2016": "nan", "ref": "nan", "ways": "nan", "addr:city": "nan", "addr:housenumber": "nan", "addr:postcode": "nan", "addr:street": "nan", "official_name": "nan", "name:etymology:wikidata": "nan", "name:etymology:wikipedia": "nan", "surface": "nan" }, "geometry": { "type": "Point", "coordinates": [ -122.6099715, 47.9383325 ] } },
{ "type": "Feature", "properties": { "element_type": "node", "osmid": "8226921140", "addr:state": "nan", "aeroway": "aerodrome", "ele": "nan", "faa": "WA32", "gnis:county_name": "nan", "gnis:created": "nan", "gnis:feature_id": "nan", "gnis:feature_type": "nan", "name": "Seaplane Scenics at Carillon Point Seaplane Base", "source_ref": "nan", "wikidata": "Q61725984", "closest_town": "nan", "iata": "nan", "icao": "nan", "landuse": "nan", "military": "nan", "name:en": "nan", "operator": "nan", "source": "nan", "wikipedia": "nan", "nodes": "nan", "alt_name": "nan", "is_in": "nan", "operator:type": "nan", "type": "nan", "addr:country": "nan", "access": "nan", "name_1": "nan", "old_name": "nan", "ele:ft": "nan", "note": "nan", "operator:wikidata": "nan", "website": "nan", "aerodrome": "nan", "aerodrome:type": "nan", "city_served": "nan", "gnis:edited": "nan", "internet_access": "nan", "internet_access:fee": "nan", "name:de": "nan", "name:ja": "nan", "name:ru": "nan", "phone": "nan", "rank_aci:2016": "nan", "ref": "nan", "ways": "nan", "addr:city": "nan", "addr:housenumber": "nan", "addr:postcode": "nan", "addr:street": "nan", "official_name": "nan", "name:etymology:wikidata": "nan", "name:etymology:wikipedia": "nan", "surface": "nan" }, "geometry": { "type": "Point", "coordinates": [ -122.2096996, 47.6599868 ] } },
{ "type": "Feature", "properties": { "element_type": "node", "osmid": "8226921268", "addr:state": "nan", "aeroway": "aerodrome", "ele": "nan", "faa": "WA61", "gnis:county_name": "nan", "gnis:created": "nan", "gnis:feature_id": "nan", "gnis:feature_type": "nan", "name": "Thompson Airport", "source_ref": "nan", "wikidata": "Q49751427", "closest_town": "nan", "iata": "nan", "icao": "nan", "landuse": "nan", "military": "nan", "name:en": "nan", "operator": "nan", "source": "nan", "wikipedia": "nan", "nodes": "nan", "alt_name": "nan", "is_in": "nan", "operator:type": "nan", "type": "nan", "addr:country": "nan", "access": "nan", "name_1": "nan", "old_name": "nan", "ele:ft": "nan", "note": "nan", "operator:wikidata": "nan", "website": "nan", "aerodrome": "nan", "aerodrome:type": "nan", "city_served": "nan", "gnis:edited": "nan", "internet_access": "nan", "internet_access:fee": "nan", "name:de": "nan", "name:ja": "nan", "name:ru": "nan", "phone": "nan", "rank_aci:2016": "nan", "ref": "nan", "ways": "nan", "addr:city": "nan", "addr:housenumber": "nan", "addr:postcode": "nan", "addr:street": "nan", "official_name": "nan", "name:etymology:wikidata": "nan", "name:etymology:wikipedia": "nan", "surface": "nan" }, "geometry": { "type": "Point", "coordinates": [ -122.5302816, 47.7989377 ] } },
{ "type": "Feature", "properties": { "element_type": "node", "osmid": "8896476515", "addr:state": "nan", "aeroway": "aerodrome", "ele": "nan", "faa": "W60", "gnis:county_name": "nan", "gnis:created": "nan", "gnis:feature_id": "nan", "gnis:feature_type": "nan", "name": "Kenmore Air Harbor Seaplane Base", "source_ref": "nan", "wikidata": "Q6389465", "closest_town": "nan", "iata": "M5", "icao": "nan", "landuse": "nan", "military": "nan", "name:en": "nan", "operator": "Kenmore Air", "source": "nan", "wikipedia": "en:Kenmore Air Harbor Seaplane Base", "nodes": "nan", "alt_name": "nan", "is_in": "nan", "operator:type": "private", "type": "nan", "addr:country": "nan", "access": "nan", "name_1": "nan", "old_name": "nan", "ele:ft": "14", "note": "IATA code is correct source Kenmore Air.", "operator:wikidata": "Q3195152", "website": "https://www.kenmoreair.com/", "aerodrome": "nan", "aerodrome:type": "nan", "city_served": "nan", "gnis:edited": "nan", "internet_access": "nan", "internet_access:fee": "nan", "name:de": "nan", "name:ja": "nan", "name:ru": "nan", "phone": "nan", "rank_aci:2016": "nan", "ref": "nan", "ways": "nan", "addr:city": "nan", "addr:housenumber": "nan", "addr:postcode": "nan", "addr:street": "nan", "official_name": "nan", "name:etymology:wikidata": "nan", "name:etymology:wikipedia": "nan", "surface": "nan" }, "geometry": { "type": "Point", "coordinates": [ -122.2598042, 47.7554258 ] } },
{ "type": "Feature", "properties": { "element_type": "way", "osmid": "369168334", "addr:state": "WA", "aeroway": "aerodrome", "ele": "4", "faa": "S60", "gnis:county_name": "King", "gnis:created": "03/01/1990", "gnis:feature_id": "1533803", "gnis:feature_type": "Airport", "name": "Kenmore Air Harbor Seaplane Base", "source_ref": "geonames.usgs.gov", "wikidata": "Q3494654", "closest_town": "Kenmore, Washington", "iata": "KEH", "icao": "nan", "landuse": "nan", "military": "nan", "name:en": "nan", "operator": "Kenmore Air", "source": "wikipedia", "wikipedia": "en:Kenmore Air Harbor", "nodes": [ 3729823561, 3729823560, 3690766122, 3729823558, 3729823557, 3729823556, 369033991, 7304474827, 4368509581, 3729823565, 3729823566, 3729823564, 3729823563, 3729823562, 3729823561 ], "alt_name": "Kenmore Air Harbor", "is_in": "nan", "operator:type": "nan", "type": "nan", "addr:country": "nan", "access": "nan", "name_1": "nan", "old_name": "nan", "ele:ft": "nan", "note": "Do not confuse with Kenmore Air Harbor SPB (W55/LKE).", "operator:wikidata": "Q3195152", "website": "nan", "aerodrome": "nan", "aerodrome:type": "nan", "city_served": "nan", "gnis:edited": "nan", "internet_access": "nan", "internet_access:fee": "nan", "name:de": "nan", "name:ja": "nan", "name:ru": "nan", "phone": "nan", "rank_aci:2016": "nan", "ref": "nan", "ways": "nan", "addr:city": "nan", "addr:housenumber": "nan", "addr:postcode": "nan", "addr:street": "nan", "official_name": "nan", "name:etymology:wikidata": "nan", "name:etymology:wikipedia": "nan", "surface": "nan" }, "geometry": { "type": "Polygon", "coordinates": [ [ [ -122.2587455, 47.7572834 ], [ -122.2587652, 47.7569989 ], [ -122.2582254, 47.7569239 ], [ -122.2582499, 47.7567179 ], [ -122.2589091, 47.7561725 ], [ -122.2579214, 47.7561477 ], [ -122.2568572, 47.756562 ], [ -122.2568335, 47.7569762 ], [ -122.2568275, 47.7571025 ], [ -122.2567735, 47.7580874 ], [ -122.2568816, 47.758093 ], [ -122.2590353, 47.7579169 ], [ -122.2590596, 47.7573921 ], [ -122.258919, 47.7573881 ], [ -122.2587455, 47.7572834 ] ] ] } },
{ "type": "Feature", "properties": { "element_type": "way", "osmid": "479200644", "addr:state": "WA", "aeroway": "aerodrome", "ele": "181", "faa": "PAE", "gnis:county_name": "Snohomish", "gnis:created": "03/01/1990", "gnis:feature_id": "1533762", "gnis:feature_type": "Airport", "name": "Seattle Paine Field International Airport", "source_ref": "geonames.usgs.gov", "wikidata": "Q838219", "closest_town": "Everett, Washington", "iata": "PAE", "icao": "KPAE", "landuse": "nan", "military": "nan", "name:en": "Seattle Paine Field International Airport", "operator": "Snohomish County, Washington", "source": "wikipedia", "wikipedia": "en:Paine Field", "nodes": [ 321363761, 5418468063, 321363759, 5418468062, 1756913049, 5418468061, 1756913076, 2508980762, 1756913086, 1578043649, 4308659782, 490578655, 4307866209, 4307866210, 5592949544, 4307866212, 7178318670, 7178318671, 4307866213, 4307866214, 4307866215, 4308688133, 4308688134, 4307866216, 4307866217, 4307866218, 4307866219, 9414288445, 4307866220, 2278480966, 7178325635, 2278480960, 7178325636, 2278480974, 7178325637, 2278480948, 7229632055, 5592949005, 7178325639, 7178325638, 2278480977, 2278480946, 5665419863, 2278480943, 2278480964, 2278480986, 2278480957, 2278480969, 11189989447, 5592949004, 2278480971, 4539196355, 2278480978, 4539196356, 2278480970, 4539196357, 2278480968, 4539196358, 2278480982, 4539196360, 4539196359, 2278480981, 7310984445, 2278480979, 2278480965, 2278480985, 4446780084, 2278480976, 4890717082, 2278480941, 2635704799, 2278480936, 2635704815, 2278480931, 2635704807, 2278480925, 4893992255, 2635704797, 2278480972, 7176614797, 2278480973, 2635704813, 2278480963, 7176614796, 2635704811, 7176614791, 7176614793, 7176614795, 7176614794, 7176614792, 7176614790, 2278480983, 7176614785, 7176614786, 7176614787, 2278480950, 7176614788, 7176614789, 2278480918, 2278480922, 7176614819, 7176614820, 2278480962, 7176614817, 1781937026, 7176614818, 2280996844, 2280996841, 2280996835, 7176614869, 2280996830, 2280996848, 7353349280, 7353349279, 2280996846, 7176614870, 4723448238, 4723448237, 5474324041, 4723448235, 321363752, 321363751, 1781937077, 321363749, 321363746, 2272168869, 7071896692, 490576497, 490576498, 490576486, 50727904, 490576489, 490576491, 490576500, 490576501, 490576562, 490576561, 490576566, 490576564, 6236527656, 6236527654, 6236527655, 5592949728, 6236527652, 2272167621, 5592949727, 5592949726, 1781937376, 490577394, 490577392, 490577402, 490577454, 490577455, 490577451, 490577452, 490577447, 490577449, 321363772, 5418468069, 321363768, 5418468068, 321363767, 5418468067, 321363766, 5418468066, 321363765, 5418468065, 321363763, 5418468064, 321363761 ], "alt_name": "Snohomish County Airport", "is_in": "nan", "operator:type": "public", "type": "public", "addr:country": "nan", "access": "nan", "name_1": "nan", "old_name": "nan", "ele:ft": "nan", "note": "nan", "operator:wikidata": "nan", "website": "https://www.painefield.com/", "aerodrome": "nan", "aerodrome:type": "regional", "city_served": "nan", "gnis:edited": "nan", "internet_access": "nan", "internet_access:fee": "nan", "name:de": "nan", "name:ja": "nan", "name:ru": "nan", "phone": "nan", "rank_aci:2016": "nan", "ref": "KPAE", "ways": "nan", "addr:city": "nan", "addr:housenumber": "nan", "addr:postcode": "nan", "addr:street": "nan", "official_name": "nan", "name:etymology:wikidata": "Q35887263", "name:etymology:wikipedia": "en:Topliff_Olin_Paine", "surface": "nan" }, "geometry": { "type": "Polygon", "coordinates": [ [ [ -122.28702, 47.9242453 ], [ -122.2875361, 47.9242003 ], [ -122.2880506, 47.9241393 ], [ -122.2881833, 47.92411 ], [ -122.2882964, 47.9240554 ], [ -122.2883848, 47.9239882 ], [ -122.2884391, 47.923913 ], [ -122.2884639, 47.9238223 ], [ -122.2884818, 47.9236795 ], [ -122.2884996, 47.923463 ], [ -122.2885881, 47.921778 ], [ -122.2890739, 47.9209279 ], [ -122.2893717, 47.9208738 ], [ -122.2909968, 47.9205514 ], [ -122.2912836, 47.9206983 ], [ -122.29149, 47.9206781 ], [ -122.2914823, 47.920265 ], [ -122.2914123, 47.9202655 ], [ -122.2914084, 47.9200133 ], [ -122.291327, 47.9200131 ], [ -122.291329, 47.9196641 ], [ -122.2917793, 47.9196529 ], [ -122.2917917, 47.9195983 ], [ -122.2918626, 47.9196052 ], [ -122.2918021, 47.9176764 ], [ -122.2902446, 47.9176877 ], [ -122.2902446, 47.9172747 ], [ -122.2893126, 47.9172878 ], [ -122.2887203, 47.9172961 ], [ -122.2877973, 47.9173573 ], [ -122.28768, 47.9172876 ], [ -122.2875469, 47.9172245 ], [ -122.2874256, 47.9171455 ], [ -122.28734, 47.9170559 ], [ -122.2873046, 47.9169622 ], [ -122.287289, 47.9168711 ], [ -122.2872297, 47.9139393 ], [ -122.2871368, 47.9093467 ], [ -122.2871052, 47.9081495 ], [ -122.2870766, 47.9073313 ], [ -122.2870274, 47.906675 ], [ -122.2869084, 47.9062317 ], [ -122.2869084, 47.9060515 ], [ -122.2869084, 47.9058146 ], [ -122.2871445, 47.9052536 ], [ -122.2873805, 47.9049372 ], [ -122.287638, 47.9046063 ], [ -122.287745, 47.9042234 ], [ -122.2877382, 47.9038305 ], [ -122.2877071, 47.9020423 ], [ -122.2877024, 47.9017437 ], [ -122.2876595, 47.9015589 ], [ -122.2875864, 47.9013975 ], [ -122.2874923, 47.9012514 ], [ -122.287373, 47.9011287 ], [ -122.2872014, 47.9009934 ], [ -122.2870122, 47.9008717 ], [ -122.2868652, 47.9007632 ], [ -122.2867534, 47.9006446 ], [ -122.2867036, 47.9005715 ], [ -122.2866764, 47.9004901 ], [ -122.2866661, 47.9003052 ], [ -122.2866477, 47.899757 ], [ -122.2865866, 47.89609 ], [ -122.2864257, 47.8957591 ], [ -122.2863935, 47.8947717 ], [ -122.2864962, 47.8946051 ], [ -122.2867368, 47.8944355 ], [ -122.2868006, 47.8943559 ], [ -122.2868226, 47.8942484 ], [ -122.2867401, 47.8928906 ], [ -122.2866784, 47.8928275 ], [ -122.2865765, 47.8927647 ], [ -122.2861911, 47.8926057 ], [ -122.2860492, 47.8925717 ], [ -122.2859162, 47.8925573 ], [ -122.2851605, 47.8925578 ], [ -122.2844457, 47.8925633 ], [ -122.2843133, 47.8925739 ], [ -122.2842083, 47.8925983 ], [ -122.2841135, 47.8926454 ], [ -122.2840462, 47.8927034 ], [ -122.2840072, 47.8927655 ], [ -122.283989, 47.8928289 ], [ -122.2839812, 47.8929051 ], [ -122.2840147, 47.893602 ], [ -122.2840255, 47.8937144 ], [ -122.2840489, 47.8938271 ], [ -122.2841062, 47.894008 ], [ -122.2841229, 47.8941046 ], [ -122.284133, 47.894198 ], [ -122.2841758, 47.8959048 ], [ -122.2841653, 47.8959839 ], [ -122.2841299, 47.8960752 ], [ -122.2840754, 47.8961543 ], [ -122.2840191, 47.8962081 ], [ -122.2839411, 47.8962453 ], [ -122.2838607, 47.8962753 ], [ -122.2837727, 47.8962876 ], [ -122.2831333, 47.896355 ], [ -122.2829839, 47.8963776 ], [ -122.2828335, 47.8964158 ], [ -122.2826373, 47.8964878 ], [ -122.2825862, 47.8965159 ], [ -122.2825579, 47.8965485 ], [ -122.2825533, 47.8965944 ], [ -122.2825601, 47.8966618 ], [ -122.2824777, 47.8973769 ], [ -122.2823865, 47.8975999 ], [ -122.2823665, 47.897693 ], [ -122.2823766, 47.8981728 ], [ -122.2824276, 47.8987081 ], [ -122.2824986, 47.8990309 ], [ -122.2825014, 47.8990434 ], [ -122.2825215, 47.8991348 ], [ -122.2825421, 47.9019069 ], [ -122.2744952, 47.9019573 ], [ -122.2732734, 47.9001163 ], [ -122.2723147, 47.8987373 ], [ -122.272132, 47.8980869 ], [ -122.2709982, 47.8981041 ], [ -122.2707487, 47.8986283 ], [ -122.2707017, 47.8987668 ], [ -122.2707043, 47.8990667 ], [ -122.2706792, 47.8993645 ], [ -122.2703813, 47.8997944 ], [ -122.2697073, 47.9003852 ], [ -122.2689433, 47.9010549 ], [ -122.268682, 47.901249 ], [ -122.268572, 47.90134 ], [ -122.2682541, 47.9016609 ], [ -122.2681798, 47.9017234 ], [ -122.268194, 47.901742 ], [ -122.268368, 47.901844 ], [ -122.268427, 47.901879 ], [ -122.268382, 47.901865 ], [ -122.268141, 47.902114 ], [ -122.269654, 47.904641 ], [ -122.27035, 47.905536 ], [ -122.2710956, 47.9068143 ], [ -122.2711708, 47.9069315 ], [ -122.2712246, 47.9070514 ], [ -122.2712591, 47.9072179 ], [ -122.271287, 47.9072961 ], [ -122.2716471, 47.9083069 ], [ -122.2718549, 47.9095042 ], [ -122.2718785, 47.9108403 ], [ -122.2729186, 47.9108329 ], [ -122.272923, 47.911391 ], [ -122.2730687, 47.9115532 ], [ -122.2827045, 47.9115303 ], [ -122.282545, 47.914717 ], [ -122.282524, 47.915436 ], [ -122.282465, 47.917596 ], [ -122.282446, 47.918317 ], [ -122.282449, 47.919509 ], [ -122.282458, 47.923088 ], [ -122.2825041, 47.9233683 ], [ -122.2825732, 47.9234679 ], [ -122.2826611, 47.9235572 ], [ -122.2827605, 47.9236264 ], [ -122.282875, 47.9236903 ], [ -122.2831043, 47.923782 ], [ -122.2835748, 47.9239136 ], [ -122.2842103, 47.9240712 ], [ -122.2848307, 47.9241757 ], [ -122.2853919, 47.9242407 ], [ -122.2859634, 47.9242656 ], [ -122.286475, 47.9242708 ], [ -122.28702, 47.9242453 ] ] ] } },
{ "type": "Feature", "properties": { "element_type": "node", "osmid": "1042092611", "addr:state": "nan", "aeroway": "aerodrome", "ele": "143", "faa": "WA04", "gnis:county_name": "nan", "gnis:created": "nan", "gnis:feature_id": "nan", "gnis:feature_type": "nan", "name": "Kyles Airport", "source_ref": "nan", "wikidata": "Q49747315", "closest_town": "nan", "iata": "nan", "icao": "nan", "landuse": "nan", "military": "nan", "name:en": "nan", "operator": "nan", "source": "ourairports.com;https://www.airnav.com/airport/wa04", "wikipedia": "nan", "nodes": "nan", "alt_name": "nan", "is_in": "nan", "operator:type": "nan", "type": "nan", "addr:country": "nan", "access": "nan", "name_1": "nan", "old_name": "nan", "ele:ft": "nan", "note": "nan", "operator:wikidata": "nan", "website": "nan", "aerodrome": "nan", "aerodrome:type": "nan", "city_served": "nan", "gnis:edited": "nan", "internet_access": "nan", "internet_access:fee": "nan", "name:de": "nan", "name:ja": "nan", "name:ru": "nan", "phone": "nan", "rank_aci:2016": "nan", "ref": "WA04", "ways": "nan", "addr:city": "nan", "addr:housenumber": "nan", "addr:postcode": "nan", "addr:street": "nan", "official_name": "nan", "name:etymology:wikidata": "nan", "name:etymology:wikipedia": "nan", "surface": "nan" }, "geometry": { "type": "Point", "coordinates": [ -122.0430028, 47.8132988 ] } },
{ "type": "Feature", "properties": { "element_type": "node", "osmid": "1042092615", "addr:state": "nan", "aeroway": "aerodrome", "ele": "nan", "faa": "nan", "gnis:county_name": "nan", "gnis:created": "nan", "gnis:feature_id": "nan", "gnis:feature_type": "nan", "name": "Majerle Strip STOLport", "source_ref": "nan", "wikidata": "nan", "closest_town": "nan", "iata": "nan", "icao": "WA17", "landuse": "nan", "military": "nan", "name:en": "nan", "operator": "nan", "source": "ourairports.com;https://skyvector.com/airport/WA17/Majerle-Strip-Airport", "wikipedia": "nan", "nodes": "nan", "alt_name": "nan", "is_in": "nan", "operator:type": "nan", "type": "nan", "addr:country": "nan", "access": "nan", "name_1": "nan", "old_name": "nan", "ele:ft": "nan", "note": "nan", "operator:wikidata": "nan", "website": "nan", "aerodrome": "nan", "aerodrome:type": "nan", "city_served": "nan", "gnis:edited": "nan", "internet_access": "nan", "internet_access:fee": "nan", "name:de": "nan", "name:ja": "nan", "name:ru": "nan", "phone": "nan", "rank_aci:2016": "nan", "ref": "nan", "ways": "nan", "addr:city": "nan", "addr:housenumber": "nan", "addr:postcode": "nan", "addr:street": "nan", "official_name": "nan", "name:etymology:wikidata": "nan", "name:etymology:wikipedia": "nan", "surface": "nan" }, "geometry": { "type": "Point", "coordinates": [ -121.9820023, 47.7552986 ] } },
{ "type": "Feature", "properties": { "element_type": "node", "osmid": "8226921427", "addr:state": "nan", "aeroway": "aerodrome", "ele": "nan", "faa": "WN20", "gnis:county_name": "nan", "gnis:created": "nan", "gnis:feature_id": "nan", "gnis:feature_type": "nan", "name": "Van de Plasch Airport", "source_ref": "nan", "wikidata": "Q49751628", "closest_town": "nan", "iata": "nan", "icao": "nan", "landuse": "nan", "military": "nan", "name:en": "nan", "operator": "nan", "source": "nan", "wikipedia": "nan", "nodes": "nan", "alt_name": "nan", "is_in": "nan", "operator:type": "nan", "type": "nan", "addr:country": "nan", "access": "nan", "name_1": "nan", "old_name": "nan", "ele:ft": "nan", "note": "nan", "operator:wikidata": "nan", "website": "nan", "aerodrome": "nan", "aerodrome:type": "nan", "city_served": "nan", "gnis:edited": "nan", "internet_access": "nan", "internet_access:fee": "nan", "name:de": "nan", "name:ja": "nan", "name:ru": "nan", "phone": "nan", "rank_aci:2016": "nan", "ref": "nan", "ways": "nan", "addr:city": "nan", "addr:housenumber": "nan", "addr:postcode": "nan", "addr:street": "nan", "official_name": "nan", "name:etymology:wikidata": "nan", "name:etymology:wikipedia": "nan", "surface": "nan" }, "geometry": { "type": "Point", "coordinates": [ -121.924159, 47.871758 ] } },
{ "type": "Feature", "properties": { "element_type": "way", "osmid": "309133325", "addr:state": "WA", "aeroway": "aerodrome", "ele": "5", "faa": "S43", "gnis:county_name": "Snohomish", "gnis:created": "03/01/1990", "gnis:feature_id": "1533961", "gnis:feature_type": "Airport", "name": "Harvey Field", "source_ref": "geonames.usgs.gov", "wikidata": "Q3885408", "closest_town": "nan", "iata": "nan", "icao": "nan", "landuse": "nan", "military": "nan", "name:en": "nan", "operator": "K. Harvey", "source": "nan", "wikipedia": "nan", "nodes": [ 369034110, 3144512936, 3199609449, 3199609445, 3199609447, 3144512938, 3199609446, 3199609448, 3144512934, 3144512937, 3144512935, 369034110 ], "alt_name": "nan", "is_in": "nan", "operator:type": "private", "type": "nan", "addr:country": "nan", "access": "nan", "name_1": "nan", "old_name": "nan", "ele:ft": "nan", "note": "nan", "operator:wikidata": "nan", "website": "nan", "aerodrome": "nan", "aerodrome:type": "nan", "city_served": "nan", "gnis:edited": "nan", "internet_access": "nan", "internet_access:fee": "nan", "name:de": "nan", "name:ja": "nan", "name:ru": "nan", "phone": "nan", "rank_aci:2016": "nan", "ref": "nan", "ways": "nan", "addr:city": "nan", "addr:housenumber": "nan", "addr:postcode": "nan", "addr:street": "nan", "official_name": "nan", "name:etymology:wikidata": "nan", "name:etymology:wikipedia": "nan", "surface": "nan" }, "geometry": { "type": "Polygon", "coordinates": [ [ [ -122.1044699, 47.9088035 ], [ -122.1017961, 47.9011322 ], [ -122.1015494, 47.9011458 ], [ -122.1014751, 47.9011141 ], [ -122.1009513, 47.9011413 ], [ -122.1002416, 47.9012319 ], [ -122.1002315, 47.9012636 ], [ -122.0994542, 47.9014131 ], [ -122.0992665, 47.9015422 ], [ -122.0989113, 47.9029743 ], [ -122.0988695, 47.9076319 ], [ -122.1044699, 47.9088035 ] ] ] } },
{ "type": "Feature", "properties": { "element_type": "relation", "osmid": "453341", "addr:state": "WA", "aeroway": "aerodrome", "ele": "13", "faa": "W16", "gnis:county_name": "Snohomish", "gnis:created": "03/01/1990", "gnis:feature_id": "1533843", "gnis:feature_type": "Airport", "name": "First Air Field", "source_ref": "geonames.usgs.gov", "wikidata": "Q61726021", "closest_town": "nan", "iata": "nan", "icao": "nan", "landuse": "nan", "military": "nan", "name:en": "nan", "operator": "Daryl Habich", "source": "ourairports.com", "wikipedia": "nan", "nodes": [ [ [ 668090887, 668090907 ], [ 668090907, 5437736177, 668090976, 668090985, 668090997, 1042092605, 668091048, 11084673588, 668091032, 490594372, 8826266300, 8826266301, 668090948, 8843451625, 668090887 ] ] ], "alt_name": "nan", "is_in": "nan", "operator:type": "private", "type": "multipolygon", "addr:country": "nan", "access": "nan", "name_1": "nan", "old_name": "nan", "ele:ft": "nan", "note": "nan", "operator:wikidata": "nan", "website": "nan", "aerodrome": "nan", "aerodrome:type": "nan", "city_served": "nan", "gnis:edited": "nan", "internet_access": "nan", "internet_access:fee": "nan", "name:de": "nan", "name:ja": "nan", "name:ru": "nan", "phone": "nan", "rank_aci:2016": "nan", "ref": "nan", "ways": [ 52597116, 52597129 ], "addr:city": "nan", "addr:housenumber": "nan", "addr:postcode": "nan", "addr:street": "nan", "official_name": "nan", "name:etymology:wikidata": "nan", "name:etymology:wikipedia": "nan", "surface": "nan" }, "geometry": { "type": "Polygon", "coordinates": [ [ [ -121.9961712, 47.8703254 ], [ -121.996141, 47.8709441 ], [ -121.9961354, 47.8710693 ], [ -121.9962483, 47.8712165 ], [ -121.996489, 47.8712809 ], [ -122.0014085, 47.8713129 ], [ -122.0013656, 47.8721498 ], [ -121.9992816, 47.8721444 ], [ -121.9940804, 47.8721309 ], [ -121.9940053, 47.871917 ], [ -121.991727, 47.8719044 ], [ -121.991652, 47.8715396 ], [ -121.990705, 47.8715269 ], [ -121.990705, 47.8704563 ], [ -121.990705, 47.8703128 ], [ -121.9961712, 47.8703254 ] ] ] } },
{ "type": "Feature", "properties": { "element_type": "node", "osmid": "369033361", "addr:state": "WA", "aeroway": "aerodrome", "ele": "176", "faa": "95WA", "gnis:county_name": "King", "gnis:created": "03/01/1990", "gnis:feature_id": "1533689", "gnis:feature_type": "Airport", "name": "Black Diamond Airport", "source_ref": "geonames.usgs.gov", "wikidata": "Q49745175", "closest_town": "nan", "iata": "nan", "icao": "nan", "landuse": "nan", "military": "nan", "name:en": "nan", "operator": "nan", "source": "nan", "wikipedia": "nan", "nodes": "nan", "alt_name": "nan", "is_in": "nan", "operator:type": "nan", "type": "nan", "addr:country": "nan", "access": "nan", "name_1": "nan", "old_name": "nan", "ele:ft": "nan", "note": "nan", "operator:wikidata": "nan", "website": "nan", "aerodrome": "nan", "aerodrome:type": "nan", "city_served": "nan", "gnis:edited": "nan", "internet_access": "nan", "internet_access:fee": "nan", "name:de": "nan", "name:ja": "nan", "name:ru": "nan", "phone": "nan", "rank_aci:2016": "nan", "ref": "nan", "ways": "nan", "addr:city": "nan", "addr:housenumber": "nan", "addr:postcode": "nan", "addr:street": "nan", "official_name": "nan", "name:etymology:wikidata": "nan", "name:etymology:wikipedia": "nan", "surface": "nan" }, "geometry": { "type": "Point", "coordinates": [ -122.009836, 47.3156565 ] } },
{ "type": "Feature", "properties": { "element_type": "node", "osmid": "8226921141", "addr:state": "nan", "aeroway": "aerodrome", "ele": "nan", "faa": "WA41", "gnis:county_name": "nan", "gnis:created": "nan", "gnis:feature_id": "nan", "gnis:feature_type": "nan", "name": "Lake Sawyer Double EE Seaplane Base", "source_ref": "nan", "wikidata": "Q61725838", "closest_town": "nan", "iata": "nan", "icao": "nan", "landuse": "nan", "military": "nan", "name:en": "nan", "operator": "nan", "source": "nan", "wikipedia": "nan", "nodes": "nan", "alt_name": "nan", "is_in": "nan", "operator:type": "nan", "type": "nan", "addr:country": "nan", "access": "nan", "name_1": "nan", "old_name": "nan", "ele:ft": "nan", "note": "nan", "operator:wikidata": "nan", "website": "nan", "aerodrome": "nan", "aerodrome:type": "nan", "city_served": "nan", "gnis:edited": "nan", "internet_access": "nan", "internet_access:fee": "nan", "name:de": "nan", "name:ja": "nan", "name:ru": "nan", "phone": "nan", "rank_aci:2016": "nan", "ref": "nan", "ways": "nan", "addr:city": "nan", "addr:housenumber": "nan", "addr:postcode": "nan", "addr:street": "nan", "official_name": "nan", "name:etymology:wikidata": "nan", "name:etymology:wikipedia": "nan", "surface": "nan" }, "geometry": { "type": "Point", "coordinates": [ -122.0340151, 47.333243 ] } },
{ "type": "Feature", "properties": { "element_type": "way", "osmid": "162321878", "addr:state": "WA", "aeroway": "aerodrome", "ele": "43", "faa": "1WA6", "gnis:county_name": "King", "gnis:created": "03/01/1990", "gnis:feature_id": "1533768", "gnis:feature_type": "Airport", "name": "Fall City Airport", "source_ref": "geonames.usgs.gov", "wikidata": "Q5432013", "closest_town": "Fall City, Washington", "iata": "nan", "icao": "nan", "landuse": "nan", "military": "nan", "name:en": "Fall City Airport", "operator": "Fall City Airport Association", "source": "wikipedia", "wikipedia": "en:Fall City Airport", "nodes": [ 1742246549, 1742246543, 1742246545, 7170526605, 1742246550, 1742246549 ], "alt_name": "Campbell Airstrip", "is_in": "nan", "operator:type": "community", "type": "nan", "addr:country": "nan", "access": "nan", "name_1": "nan", "old_name": "nan", "ele:ft": "nan", "note": "nan", "operator:wikidata": "nan", "website": "nan", "aerodrome": "nan", "aerodrome:type": "private", "city_served": "nan", "gnis:edited": "nan", "internet_access": "nan", "internet_access:fee": "nan", "name:de": "nan", "name:ja": "nan", "name:ru": "nan", "phone": "nan", "rank_aci:2016": "nan", "ref": "nan", "ways": "nan", "addr:city": "nan", "addr:housenumber": "nan", "addr:postcode": "nan", "addr:street": "nan", "official_name": "nan", "name:etymology:wikidata": "nan", "name:etymology:wikipedia": "nan", "surface": "nan" }, "geometry": { "type": "Polygon", "coordinates": [ [ [ -121.87067, 47.5603397 ], [ -121.8600849, 47.5584274 ], [ -121.8592038, 47.5586791 ], [ -121.8651567, 47.5598383 ], [ -121.8707493, 47.5608748 ], [ -121.87067, 47.5603397 ] ] ] } },
{ "type": "Feature", "properties": { "element_type": "way", "osmid": "550148837", "addr:state": "WA", "aeroway": "aerodrome", "ele": "141", "faa": "S36", "gnis:county_name": "King", "gnis:created": "03/01/1990", "gnis:feature_id": "1533806", "gnis:feature_type": "Airport", "name": "Norman Grier Field", "source_ref": "geonames.usgs.gov", "wikidata": "Q1655869", "closest_town": "Covington, WA", "iata": "nan", "icao": "nan", "landuse": "nan", "military": "nan", "name:en": "nan", "operator": "Norm Grier Holdings LLC", "source": "Airnav.com", "wikipedia": "nan", "nodes": [ 4746775709, 4746775708, 4746775707, 53152552, 9492373317, 9492373320, 53152550, 5371798587, 4156524147, 4156524145, 53152548, 4156524141, 53152547, 53152545, 53152544, 53152543, 53152541, 9027308969, 1762737965, 6074055684, 8313815529, 6895876030, 7730297097, 8978948548, 9605233944, 5313809043, 5313809044, 5313809045, 5313809046, 5313809047, 5313809049, 5313809050, 5313809048, 4746775742, 4746775743, 4746775709 ], "alt_name": "nan", "is_in": "US", "operator:type": "private", "type": "public", "addr:country": "nan", "access": "nan", "name_1": "nan", "old_name": "Crest Airpark", "ele:ft": "nan", "note": "nan", "operator:wikidata": "nan", "website": "nan", "aerodrome": "nan", "aerodrome:type": "nan", "city_served": "nan", "gnis:edited": "nan", "internet_access": "nan", "internet_access:fee": "nan", "name:de": "nan", "name:ja": "nan", "name:ru": "nan", "phone": "nan", "rank_aci:2016": "nan", "ref": "nan", "ways": "nan", "addr:city": "nan", "addr:housenumber": "nan", "addr:postcode": "nan", "addr:street": "nan", "official_name": "nan", "name:etymology:wikidata": "nan", "name:etymology:wikipedia": "nan", "surface": "nan" }, "geometry": { "type": "Polygon", "coordinates": [ [ [ -122.1053628, 47.3430532 ], [ -122.1049523, 47.3428614 ], [ -122.1036994, 47.3422139 ], [ -122.103121, 47.3413669 ], [ -122.1029562, 47.3410525 ], [ -122.102669, 47.3405022 ], [ -122.1026258, 47.3404194 ], [ -122.1022227, 47.3399041 ], [ -122.1020556, 47.3396905 ], [ -122.1018777, 47.3394631 ], [ -122.1016618, 47.3390541 ], [ -122.101654, 47.3389665 ], [ -122.1016049, 47.3384131 ], [ -122.1016782, 47.3382059 ], [ -122.1018736, 47.3380505 ], [ -122.1029274, 47.3378703 ], [ -122.1031203, 47.3377604 ], [ -122.103064, 47.3373596 ], [ -122.103049, 47.3372523 ], [ -122.1029644, 47.336905 ], [ -122.1028441, 47.336413 ], [ -122.1027856, 47.3361706 ], [ -122.1027112, 47.3358649 ], [ -122.1025869, 47.3353551 ], [ -122.102006, 47.3329687 ], [ -122.1020897, 47.3323801 ], [ -122.1021144, 47.3292645 ], [ -122.1042701, 47.3293145 ], [ -122.1042385, 47.3296494 ], [ -122.1041904, 47.3301587 ], [ -122.1039654, 47.3308401 ], [ -122.1030885, 47.3308354 ], [ -122.1027853, 47.3310062 ], [ -122.1030617, 47.3326327 ], [ -122.1043642, 47.3379383 ], [ -122.1053628, 47.3430532 ] ] ] } },
{ "type": "Feature", "properties": { "element_type": "node", "osmid": "369033351", "addr:state": "WA", "aeroway": "aerodrome", "ele": "182", "faa": "WN42", "gnis:county_name": "Pierce", "gnis:created": "03/01/1990", "gnis:feature_id": "1533695", "gnis:feature_type": "Airport", "name": "Flying H Ranch Airport", "source_ref": "geonames.usgs.gov", "wikidata": "Q49746287", "closest_town": "nan", "iata": "nan", "icao": "nan", "landuse": "nan", "military": "nan", "name:en": "nan", "operator": "nan", "source": "nan", "wikipedia": "nan", "nodes": "nan", "alt_name": "nan", "is_in": "nan", "operator:type": "nan", "type": "nan", "addr:country": "nan", "access": "nan", "name_1": "nan", "old_name": "nan", "ele:ft": "nan", "note": "nan", "operator:wikidata": "nan", "website": "nan", "aerodrome": "nan", "aerodrome:type": "nan", "city_served": "nan", "gnis:edited": "nan", "internet_access": "nan", "internet_access:fee": "nan", "name:de": "nan", "name:ja": "nan", "name:ru": "nan", "phone": "nan", "rank_aci:2016": "nan", "ref": "nan", "ways": "nan", "addr:city": "nan", "addr:housenumber": "nan", "addr:postcode": "nan", "addr:street": "nan", "official_name": "nan", "name:etymology:wikidata": "nan", "name:etymology:wikipedia": "nan", "surface": "nan" }, "geometry": { "type": "Point", "coordinates": [ -122.119837, 47.1837125 ] } },
{ "type": "Feature", "properties": { "element_type": "node", "osmid": "369033360", "addr:state": "WA", "aeroway": "aerodrome", "ele": "178", "faa": "51WA", "gnis:county_name": "King", "gnis:created": "03/01/1990", "gnis:feature_id": "1533688", "gnis:feature_type": "Airport", "name": "Evergreen Sky Ranch Airport", "source_ref": "geonames.usgs.gov", "wikidata": "Q49746158", "closest_town": "nan", "iata": "nan", "icao": "nan", "landuse": "nan", "military": "nan", "name:en": "nan", "operator": "nan", "source": "nan", "wikipedia": "nan", "nodes": "nan", "alt_name": "nan", "is_in": "nan", "operator:type": "nan", "type": "nan", "addr:country": "nan", "access": "nan", "name_1": "nan", "old_name": "nan", "ele:ft": "nan", "note": "nan", "operator:wikidata": "nan", "website": "nan", "aerodrome": "nan", "aerodrome:type": "nan", "city_served": "nan", "gnis:edited": "nan", "internet_access": "nan", "internet_access:fee": "nan", "name:de": "nan", "name:ja": "nan", "name:ru": "nan", "phone": "nan", "rank_aci:2016": "nan", "ref": "nan", "ways": "nan", "addr:city": "nan", "addr:housenumber": "nan", "addr:postcode": "nan", "addr:street": "nan", "official_name": "nan", "name:etymology:wikidata": "nan", "name:etymology:wikipedia": "nan", "surface": "nan" }, "geometry": { "type": "Point", "coordinates": [ -122.067892, 47.2681564 ] } },
{ "type": "Feature", "properties": { "element_type": "node", "osmid": "369033379", "addr:state": "WA", "aeroway": "aerodrome", "ele": "125", "faa": "WA84", "gnis:county_name": "King", "gnis:created": "03/01/1990", "gnis:feature_id": "1533668", "gnis:feature_type": "Airport", "name": "Auburn Academy Airport", "source_ref": "geonames.usgs.gov", "wikidata": "Q49744969", "closest_town": "nan", "iata": "nan", "icao": "nan", "landuse": "nan", "military": "nan", "name:en": "nan", "operator": "Auburn Adventist Academy", "source": "nan", "wikipedia": "nan", "nodes": "nan", "alt_name": "nan", "is_in": "nan", "operator:type": "high_school", "type": "nan", "addr:country": "nan", "access": "nan", "name_1": "nan", "old_name": "nan", "ele:ft": "nan", "note": "nan", "operator:wikidata": "nan", "website": "nan", "aerodrome": "nan", "aerodrome:type": "nan", "city_served": "nan", "gnis:edited": "nan", "internet_access": "nan", "internet_access:fee": "nan", "name:de": "nan", "name:ja": "nan", "name:ru": "nan", "phone": "nan", "rank_aci:2016": "nan", "ref": "nan", "ways": "nan", "addr:city": "nan", "addr:housenumber": "nan", "addr:postcode": "nan", "addr:street": "nan", "official_name": "nan", "name:etymology:wikidata": "nan", "name:etymology:wikipedia": "nan", "surface": "nan" }, "geometry": { "type": "Point", "coordinates": [ -122.150366, 47.2809402 ] } },
{ "type": "Feature", "properties": { "element_type": "node", "osmid": "369033463", "addr:state": "WA", "aeroway": "aerodrome", "ele": "212", "faa": "WN87", "gnis:county_name": "King", "gnis:created": "03/01/1990", "gnis:feature_id": "1533756", "gnis:feature_type": "Airport", "name": "Bryan Airport", "source_ref": "geonames.usgs.gov", "wikidata": "Q49745341", "closest_town": "nan", "iata": "nan", "icao": "nan", "landuse": "nan", "military": "nan", "name:en": "nan", "operator": "nan", "source": "nan", "wikipedia": "nan", "nodes": "nan", "alt_name": "nan", "is_in": "nan", "operator:type": "nan", "type": "nan", "addr:country": "nan", "access": "private", "name_1": "nan", "old_name": "nan", "ele:ft": "nan", "note": "nan", "operator:wikidata": "nan", "website": "nan", "aerodrome": "nan", "aerodrome:type": "nan", "city_served": "nan", "gnis:edited": "nan", "internet_access": "nan", "internet_access:fee": "nan", "name:de": "nan", "name:ja": "nan", "name:ru": "nan", "phone": "nan", "rank_aci:2016": "nan", "ref": "nan", "ways": "nan", "addr:city": "nan", "addr:housenumber": "nan", "addr:postcode": "nan", "addr:street": "nan", "official_name": "nan", "name:etymology:wikidata": "nan", "name:etymology:wikipedia": "nan", "surface": "nan" }, "geometry": { "type": "Point", "coordinates": [ -122.092614, 47.2085733 ] } },
{ "type": "Feature", "properties": { "element_type": "node", "osmid": "369033465", "addr:state": "WA", "aeroway": "aerodrome", "ele": "327", "faa": "WN76", "gnis:county_name": "King", "gnis:created": "03/01/1990", "gnis:feature_id": "1533757", "gnis:feature_type": "Airport", "name": "Bergseth Field", "source_ref": "geonames.usgs.gov", "wikidata": "Q61725917", "closest_town": "nan", "iata": "nan", "icao": "nan", "landuse": "nan", "military": "nan", "name:en": "nan", "operator": "nan", "source": "nan", "wikipedia": "nan", "nodes": "nan", "alt_name": "nan", "is_in": "nan", "operator:type": "nan", "type": "nan", "addr:country": "nan", "access": "nan", "name_1": "nan", "old_name": "nan", "ele:ft": "nan", "note": "nan", "operator:wikidata": "nan", "website": "nan", "aerodrome": "nan", "aerodrome:type": "nan", "city_served": "nan", "gnis:edited": "nan", "internet_access": "nan", "internet_access:fee": "nan", "name:de": "nan", "name:ja": "nan", "name:ru": "nan", "phone": "nan", "rank_aci:2016": "nan", "ref": "nan", "ways": "nan", "addr:city": "nan", "addr:housenumber": "nan", "addr:postcode": "nan", "addr:street": "nan", "official_name": "nan", "name:etymology:wikidata": "nan", "name:etymology:wikipedia": "nan", "surface": "nan" }, "geometry": { "type": "Point", "coordinates": [ -121.924554, 47.2434352 ] } },
{ "type": "Feature", "properties": { "element_type": "node", "osmid": "369034065", "addr:state": "WA", "aeroway": "aerodrome", "ele": "204", "faa": "02WA", "gnis:county_name": "Pierce", "gnis:created": "03/01/1990", "gnis:feature_id": "1533964", "gnis:feature_type": "Airport", "name": "Cawleys South Prairie Airport", "source_ref": "geonames.usgs.gov", "wikidata": "Q49745505", "closest_town": "nan", "iata": "nan", "icao": "nan", "landuse": "nan", "military": "nan", "name:en": "nan", "operator": "nan", "source": "nan", "wikipedia": "nan", "nodes": "nan", "alt_name": "nan", "is_in": "nan", "operator:type": "nan", "type": "nan", "addr:country": "nan", "access": "nan", "name_1": "nan", "old_name": "nan", "ele:ft": "nan", "note": "nan", "operator:wikidata": "nan", "website": "nan", "aerodrome": "nan", "aerodrome:type": "nan", "city_served": "nan", "gnis:edited": "nan", "internet_access": "nan", "internet_access:fee": "nan", "name:de": "nan", "name:ja": "nan", "name:ru": "nan", "phone": "nan", "rank_aci:2016": "nan", "ref": "nan", "ways": "nan", "addr:city": "nan", "addr:housenumber": "nan", "addr:postcode": "nan", "addr:street": "nan", "official_name": "nan", "name:etymology:wikidata": "nan", "name:etymology:wikipedia": "nan", "surface": "nan" }, "geometry": { "type": "Point", "coordinates": [ -122.0927696, 47.1523239 ] } },
{ "type": "Feature", "properties": { "element_type": "node", "osmid": "1042019497", "addr:state": "nan", "aeroway": "aerodrome", "ele": "nan", "faa": "9WA7", "gnis:county_name": "nan", "gnis:created": "nan", "gnis:feature_id": "nan", "gnis:feature_type": "nan", "name": "Albritton Airport", "source_ref": "nan", "wikidata": "Q49744855", "closest_town": "nan", "iata": "nan", "icao": "nan", "landuse": "nan", "military": "nan", "name:en": "nan", "operator": "nan", "source": "ourairports.com", "wikipedia": "nan", "nodes": "nan", "alt_name": "nan", "is_in": "nan", "operator:type": "nan", "type": "nan", "addr:country": "nan", "access": "nan", "name_1": "nan", "old_name": "nan", "ele:ft": "nan", "note": "nan", "operator:wikidata": "nan", "website": "nan", "aerodrome": "nan", "aerodrome:type": "nan", "city_served": "nan", "gnis:edited": "nan", "internet_access": "nan", "internet_access:fee": "nan", "name:de": "nan", "name:ja": "nan", "name:ru": "nan", "phone": "nan", "rank_aci:2016": "nan", "ref": "nan", "ways": "nan", "addr:city": "nan", "addr:housenumber": "nan", "addr:postcode": "nan", "addr:street": "nan", "official_name": "nan", "name:etymology:wikidata": "nan", "name:etymology:wikipedia": "nan", "surface": "nan" }, "geometry": { "type": "Point", "coordinates": [ -122.133281, 47.2170291 ] } },
{ "type": "Feature", "properties": { "element_type": "node", "osmid": "1042092908", "addr:state": "nan", "aeroway": "aerodrome", "ele": "nan", "faa": "WN15", "gnis:county_name": "nan", "gnis:created": "nan", "gnis:feature_id": "nan", "gnis:feature_type": "nan", "name": "Burnett Landing Airport", "source_ref": "nan", "wikidata": "Q49745382", "closest_town": "nan", "iata": "nan", "icao": "nan", "landuse": "nan", "military": "nan", "name:en": "nan", "operator": "nan", "source": "ourairports.com", "wikipedia": "nan", "nodes": "nan", "alt_name": "nan", "is_in": "nan", "operator:type": "nan", "type": "nan", "addr:country": "nan", "access": "nan", "name_1": "nan", "old_name": "nan", "ele:ft": "nan", "note": "nan", "operator:wikidata": "nan", "website": "nan", "aerodrome": "nan", "aerodrome:type": "nan", "city_served": "nan", "gnis:edited": "nan", "internet_access": "nan", "internet_access:fee": "nan", "name:de": "nan", "name:ja": "nan", "name:ru": "nan", "phone": "nan", "rank_aci:2016": "nan", "ref": "nan", "ways": "nan", "addr:city": "nan", "addr:housenumber": "nan", "addr:postcode": "nan", "addr:street": "nan", "official_name": "nan", "name:etymology:wikidata": "nan", "name:etymology:wikipedia": "nan", "surface": "nan" }, "geometry": { "type": "Point", "coordinates": [ -122.055999, 47.1296997 ] } },
{ "type": "Feature", "properties": { "element_type": "way", "osmid": "424355408", "addr:state": "WA", "aeroway": "aerodrome", "ele": "223", "faa": "WA77", "gnis:county_name": "King", "gnis:created": "03/01/1990", "gnis:feature_id": "1533755", "gnis:feature_type": "Airport", "name": "Enumclaw Airport", "source_ref": "geonames.usgs.gov", "wikidata": "Q49746129", "closest_town": "nan", "iata": "nan", "icao": "nan", "landuse": "nan", "military": "nan", "name:en": "nan", "operator": "nan", "source": "nan", "wikipedia": "nan", "nodes": [ 369033461, 4237874025, 4237871877, 4237871876, 369033461 ], "alt_name": "nan", "is_in": "nan", "operator:type": "nan", "type": "nan", "addr:country": "nan", "access": "nan", "name_1": "nan", "old_name": "nan", "ele:ft": "nan", "note": "nan", "operator:wikidata": "nan", "website": "nan", "aerodrome": "nan", "aerodrome:type": "nan", "city_served": "nan", "gnis:edited": "nan", "internet_access": "nan", "internet_access:fee": "nan", "name:de": "nan", "name:ja": "nan", "name:ru": "nan", "phone": "nan", "rank_aci:2016": "nan", "ref": "nan", "ways": "nan", "addr:city": "nan", "addr:housenumber": "nan", "addr:postcode": "nan", "addr:street": "nan", "official_name": "nan", "name:etymology:wikidata": "nan", "name:etymology:wikipedia": "nan", "surface": "nan" }, "geometry": { "type": "Polygon", "coordinates": [ [ [ -122.0164682, 47.1967375 ], [ -122.0242615, 47.1967424 ], [ -122.024263, 47.1956675 ], [ -122.0164697, 47.1956625 ], [ -122.0164682, 47.1967375 ] ] ] } },
{ "type": "Feature", "properties": { "element_type": "node", "osmid": "369034092", "addr:state": "WA", "aeroway": "aerodrome", "ele": "299", "faa": "S88", "gnis:county_name": "King", "gnis:created": "03/01/1990", "gnis:feature_id": "1533960", "gnis:feature_type": "Airport", "name": "Skykomish State Airport", "source_ref": "geonames.usgs.gov", "wikidata": "Q49751023", "closest_town": "nan", "iata": "nan", "icao": "nan", "landuse": "nan", "military": "nan", "name:en": "nan", "operator": "WSDOT", "source": "http://www.wsdot.wa.gov/aviation/AllStateAirports/Skykomish_SkykomishState.htm", "wikipedia": "nan", "nodes": "nan", "alt_name": "nan", "is_in": "nan", "operator:type": "public", "type": "nan", "addr:country": "nan", "access": "nan", "name_1": "nan", "old_name": "nan", "ele:ft": "nan", "note": "nan", "operator:wikidata": "nan", "website": "nan", "aerodrome": "nan", "aerodrome:type": "nan", "city_served": "nan", "gnis:edited": "nan", "internet_access": "nan", "internet_access:fee": "nan", "name:de": "nan", "name:ja": "nan", "name:ru": "nan", "phone": "nan", "rank_aci:2016": "nan", "ref": "nan", "ways": "nan", "addr:city": "nan", "addr:housenumber": "nan", "addr:postcode": "nan", "addr:street": "nan", "official_name": "nan", "name:etymology:wikidata": "nan", "name:etymology:wikipedia": "nan", "surface": "nan" }, "geometry": { "type": "Point", "coordinates": [ -121.338712, 47.7109416 ] } },
{ "type": "Feature", "properties": { "element_type": "way", "osmid": "51814274", "addr:state": "WA", "aeroway": "aerodrome", "ele": "499", "faa": "4W0", "gnis:county_name": "King", "gnis:created": "03/01/1990", "gnis:feature_id": "1533673", "gnis:feature_type": "Airport", "name": "Bandera State Airport", "source_ref": "geonames.usgs.gov", "wikidata": "Q2789533", "closest_town": "North Bend, Washington", "iata": "nan", "icao": "nan", "landuse": "nan", "military": "nan", "name:en": "Bandera State Airport", "operator": "Washington State Department of Transportation", "source": "wikipedia", "wikipedia": "en:Bandera State Airport", "nodes": [ 661030449, 661030454, 11149416851, 11149416852, 661030438, 661030445, 661030446, 661030444, 661030447, 661030428, 661030429, 661030430, 661030431, 661030432, 661030439, 11149416850, 661030440, 11149416849, 11149416848, 11149416847, 11149416846, 11149416845, 11149416844, 11149416843, 11149416842, 11149416841, 661030452, 11149416840, 11149416839, 11149416838, 11149416837, 661030453, 661030449 ], "alt_name": "nan", "is_in": "King County, Washington", "operator:type": "public", "type": "Public", "addr:country": "nan", "access": "nan", "name_1": "nan", "old_name": "nan", "ele:ft": "nan", "note": "nan", "operator:wikidata": "nan", "website": "nan", "aerodrome": "nan", "aerodrome:type": "nan", "city_served": "nan", "gnis:edited": "nan", "internet_access": "nan", "internet_access:fee": "nan", "name:de": "nan", "name:ja": "nan", "name:ru": "nan", "phone": "nan", "rank_aci:2016": "nan", "ref": "4W0", "ways": "nan", "addr:city": "nan", "addr:housenumber": "nan", "addr:postcode": "nan", "addr:street": "nan", "official_name": "nan", "name:etymology:wikidata": "nan", "name:etymology:wikipedia": "nan", "surface": "grass" }, "geometry": { "type": "Polygon", "coordinates": [ [ [ -121.5409534, 47.3964238 ], [ -121.5317161, 47.3950407 ], [ -121.5314085, 47.3949228 ], [ -121.5311485, 47.3948582 ], [ -121.5308912, 47.3948159 ], [ -121.530665, 47.3947083 ], [ -121.5306196, 47.3946548 ], [ -121.5306259, 47.3945801 ], [ -121.5306971, 47.3944716 ], [ -121.5308862, 47.3944063 ], [ -121.5311895, 47.394445 ], [ -121.5313893, 47.3944522 ], [ -121.531532, 47.3944595 ], [ -121.5316911, 47.3944483 ], [ -121.5319028, 47.3944197 ], [ -121.5320489, 47.3944113 ], [ -121.5323202, 47.3944435 ], [ -121.5344133, 47.3947198 ], [ -121.5349552, 47.3948061 ], [ -121.5374785, 47.3951743 ], [ -121.5379304, 47.3952267 ], [ -121.5383084, 47.3952651 ], [ -121.5391624, 47.3953962 ], [ -121.5401712, 47.3955235 ], [ -121.5408701, 47.3956651 ], [ -121.5412404, 47.3957373 ], [ -121.5412691, 47.3957819 ], [ -121.5411959, 47.3959905 ], [ -121.5411664, 47.3961567 ], [ -121.5411508, 47.3962716 ], [ -121.5411143, 47.3963576 ], [ -121.541027, 47.396407 ], [ -121.5409534, 47.3964238 ] ] ] } },
{ "type": "Feature", "properties": { "element_type": "node", "osmid": "369035079", "addr:state": "WA", "aeroway": "aerodrome", "ele": "790", "faa": "21W", "gnis:county_name": "Pierce", "gnis:created": "03/01/1990", "gnis:feature_id": "1534614", "gnis:feature_type": "Airport", "name": "Ranger Creek Airport", "source_ref": "geonames.usgs.gov", "wikidata": "Q49749889", "closest_town": "nan", "iata": "nan", "icao": "nan", "landuse": "nan", "military": "nan", "name:en": "nan", "operator": "State of Washington", "source": "nan", "wikipedia": "nan", "nodes": "nan", "alt_name": "nan", "is_in": "nan", "operator:type": "public", "type": "nan", "addr:country": "nan", "access": "nan", "name_1": "nan", "old_name": "nan", "ele:ft": "nan", "note": "nan", "operator:wikidata": "nan", "website": "nan", "aerodrome": "nan", "aerodrome:type": "nan", "city_served": "nan", "gnis:edited": "nan", "internet_access": "nan", "internet_access:fee": "nan", "name:de": "nan", "name:ja": "nan", "name:ru": "nan", "phone": "nan", "rank_aci:2016": "nan", "ref": "nan", "ways": "nan", "addr:city": "nan", "addr:housenumber": "nan", "addr:postcode": "nan", "addr:street": "nan", "official_name": "nan", "name:etymology:wikidata": "nan", "name:etymology:wikipedia": "nan", "surface": "nan" }, "geometry": { "type": "Point", "coordinates": [ -121.533981, 47.0137212 ] } }
]
}
