{
"type": "FeatureCollection",
"crs": { "type": "name", "properties": { "name": "urn:ogc:def:crs:OGC:1.3:CRS84" } },
"features": [
{ "type": "Feature", "properties": { "element_type": "way", "osmid": "25054082", "nodes": [ 272573637, 272573640, 272573684, 272573686, 272573643, 272573644, 272573681, 272573671, 272573674, 272573679, 272573647, 272573649, 272573650, 272573653, 272573655, 4780213905, 4780213904, 4780213902, 4780213903, 475591779, 475591778, 475591781, 272573661, 475591780, 475591777, 272573664, 272573665, 4932824983, 4932824987, 272573667, 4932824986, 4932824617, 5225846323, 4780213906, 4780213907, 272573637 ], "addr:city": "Federal Way", "addr:housenumber": "34515", "addr:postcode": "98003", "addr:street": "9th Avenue South", "amenity": "hospital", "beds": "110", "emergency": "yes", "gnis:feature_id": "2462522", "healthcare": "hospital", "name": "St. Francis Hospital", "opening_hours": "24/7", "operator": "CHI Franciscan Health", "phone": "+1 253 835 8100", "website": "https://www.chifranciscan.org/st-francis-hospital.html", "wikidata": "Q7587972", "wikipedia": "nan", "wheelchair": "nan", "alt_name": "nan", "fixme": "nan", "healthcare:speciality": "nan", "access": "nan", "ele": "nan", "gnis:county_id": "nan", "gnis:created": "nan", "gnis:state_id": "nan", "old_name": "nan", "addr:state": "nan", "operator:type": "nan", "brand": "nan", "brand:wikidata": "nan", "brand:wikipedia": "nan", "healthcare:for": "nan", "operator:short": "nan", "operator:wikidata": "nan", "short_name": "nan", "addr:country": "nan", "operator:wikipedia": "nan", "source": "nan", "contact:phone": "nan", "contact:website": "nan", "ways": "nan", "type": "nan", "building": "nan", "wikimedia_commons": "nan" }, "geometry": { "type": "Polygon", "coordinates": [ [ [ -122.3279922, 47.2913878 ], [ -122.3280048, 47.2917631 ], [ -122.3292977, 47.2917637 ], [ -122.3293673, 47.2917638 ], [ -122.3293835, 47.2918717 ], [ -122.3293574, 47.2931587 ], [ -122.32934, 47.2932384 ], [ -122.3291963, 47.2933063 ], [ -122.3289309, 47.2934037 ], [ -122.3279908, 47.2933949 ], [ -122.3276121, 47.2933978 ], [ -122.3258408, 47.2933476 ], [ -122.3254273, 47.2933624 ], [ -122.3249877, 47.2934096 ], [ -122.3244089, 47.2934539 ], [ -122.3227115, 47.2934657 ], [ -122.3228595, 47.2931676 ], [ -122.3229726, 47.2928547 ], [ -122.3230118, 47.2925241 ], [ -122.3230379, 47.2919337 ], [ -122.3235068, 47.2920985 ], [ -122.3237009, 47.2921397 ], [ -122.3238543, 47.292166 ], [ -122.3239971, 47.2921818 ], [ -122.3241797, 47.2921928 ], [ -122.3246421, 47.2921921 ], [ -122.3255703, 47.2921997 ], [ -122.3255703, 47.2913505 ], [ -122.3252591, 47.2909168 ], [ -122.3255703, 47.2909187 ], [ -122.3262448, 47.2909227 ], [ -122.3266154, 47.2909248 ], [ -122.326638, 47.290925 ], [ -122.3268097, 47.2909302 ], [ -122.3268009, 47.2913769 ], [ -122.3279922, 47.2913878 ] ] ] } },
{ "type": "Feature", "properties": { "element_type": "way", "osmid": "25054773", "nodes": [ 272583826, 272583492, 4780162649, 272583832, 272583826 ], "addr:city": "Tacoma", "addr:housenumber": "317", "addr:postcode": "98403", "addr:street": "Martin Luther King Jr Way", "amenity": "hospital", "beds": "72", "emergency": "yes", "gnis:feature_id": "2462519", "healthcare": "hospital", "name": "Mary Bridge Children's Hospital", "opening_hours": "24/7", "operator": "MultiCare Health System", "phone": "+1 253 403 1400", "website": "https://www.marybridge.org/", "wikidata": "Q6934524", "wikipedia": "en:Mary Bridge Children's Hospital", "wheelchair": "nan", "alt_name": "nan", "fixme": "nan", "healthcare:speciality": "nan", "access": "nan", "ele": "nan", "gnis:county_id": "nan", "gnis:created": "nan", "gnis:state_id": "nan", "old_name": "nan", "addr:state": "nan", "operator:type": "nan", "brand": "nan", "brand:wikidata": "nan", "brand:wikipedia": "nan", "healthcare:for": "nan", "operator:short": "nan", "operator:wikidata": "nan", "short_name": "nan", "addr:country": "nan", "operator:wikipedia": "nan", "source": "nan", "contact:phone": "nan", "contact:website": "nan", "ways": "nan", "type": "nan", "building": "nan", "wikimedia_commons": "nan" }, "geometry": { "type": "Polygon", "coordinates": [ [ [ -122.4530353, 47.2582573 ], [ -122.4532264, 47.259081 ], [ -122.4525974, 47.2591483 ], [ -122.4524028, 47.2583104 ], [ -122.4530353, 47.2582573 ] ] ] } },
{ "type": "Feature", "properties": { "element_type": "way", "osmid": "25054859", "nodes": [ 4294149730, 4294149731, 9996085547, 4294149732, 4294149733, 4294149723, 4294149722, 4294149721, 4294149703, 4294149702, 4294149701, 4294149700, 4294149699, 4294149696, 4294149697, 4294149698, 4294149704, 4294149705, 4294149706, 4294149707, 4294149708, 4294149709, 4294149710, 4294149711, 4294149724, 4294149725, 4294149726, 4294149727, 4294149728, 4294149729, 4294149730 ], "addr:city": "Tacoma", "addr:housenumber": "1717", "addr:postcode": "98405", "addr:street": "South J Street", "amenity": "hospital", "beds": "374", "emergency": "yes", "gnis:feature_id": "nan", "healthcare": "hospital", "name": "Saint Joseph Medical Center", "opening_hours": "24/7", "operator": "CHI Franciscan Health", "phone": "+1 253 426 4101", "website": "https://www.chifranciscan.org/st-joseph-medical-center.html", "wikidata": "Q7589340", "wikipedia": "nan", "wheelchair": "yes", "alt_name": "nan", "fixme": "nan", "healthcare:speciality": "nan", "access": "nan", "ele": "nan", "gnis:county_id": "nan", "gnis:created": "nan", "gnis:state_id": "nan", "old_name": "nan", "addr:state": "nan", "operator:type": "nan", "brand": "nan", "brand:wikidata": "nan", "brand:wikipedia": "nan", "healthcare:for": "nan", "operator:short": "nan", "operator:wikidata": "nan", "short_name": "nan", "addr:country": "nan", "operator:wikipedia": "nan", "source": "nan", "contact:phone": "nan", "contact:website": "nan", "ways": "nan", "type": "nan", "building": "nan", "wikimedia_commons": "nan" }, "geometry": { "type": "Polygon", "coordinates": [ [ [ -122.4492519, 47.2469057 ], [ -122.4489717, 47.2469354 ], [ -122.4489598, 47.2469367 ], [ -122.4487996, 47.2469559 ], [ -122.4477917, 47.2470632 ], [ -122.4475618, 47.2460624 ], [ -122.4461727, 47.2461953 ], [ -122.4457425, 47.2443354 ], [ -122.445761, 47.244309 ], [ -122.4471612, 47.244158 ], [ -122.4471794, 47.2441524 ], [ -122.4478131, 47.2440861 ], [ -122.4479898, 47.2440662 ], [ -122.4482874, 47.2440351 ], [ -122.4483028, 47.2440415 ], [ -122.4483122, 47.2440501 ], [ -122.4484331, 47.2445115 ], [ -122.4484353, 47.2445216 ], [ -122.4484524, 47.2445317 ], [ -122.4484944, 47.2447157 ], [ -122.4484839, 47.2447292 ], [ -122.4484811, 47.2447622 ], [ -122.4485319, 47.2448731 ], [ -122.4485714, 47.2450351 ], [ -122.4487713, 47.24502 ], [ -122.449819, 47.2448899 ], [ -122.4498857, 47.2448953 ], [ -122.4499529, 47.2449071 ], [ -122.4501927, 47.2459259 ], [ -122.4504175, 47.2467739 ], [ -122.4492519, 47.2469057 ] ] ] } },
{ "type": "Feature", "properties": { "element_type": "way", "osmid": "25054939", "nodes": [ 4780126333, 4780126332, 4780126338, 4780126337, 4780126336, 4780126335, 4780126334, 272585568, 272585566, 272585565, 3624136177, 4780126333 ], "addr:city": "Tacoma", "addr:housenumber": "1901", "addr:postcode": "98405", "addr:street": "South Union Avenue", "amenity": "hospital", "beds": "130", "emergency": "yes", "gnis:feature_id": "nan", "healthcare": "hospital", "name": "MultiCare Allenmore Hospital", "opening_hours": "24/7", "operator": "MultiCare Health System", "phone": "+1 253 459 6633", "website": "https://www.multicare.org/allenmore-hospital/", "wikidata": "nan", "wikipedia": "nan", "wheelchair": "nan", "alt_name": "Allenmore Hospital", "fixme": "Facility should be updated with newer imagery now available", "healthcare:speciality": "orthopaedics;surgery", "access": "nan", "ele": "nan", "gnis:county_id": "nan", "gnis:created": "nan", "gnis:state_id": "nan", "old_name": "nan", "addr:state": "nan", "operator:type": "nan", "brand": "nan", "brand:wikidata": "nan", "brand:wikipedia": "nan", "healthcare:for": "nan", "operator:short": "nan", "operator:wikidata": "nan", "short_name": "nan", "addr:country": "nan", "operator:wikipedia": "nan", "source": "nan", "contact:phone": "nan", "contact:website": "nan", "ways": "nan", "type": "nan", "building": "nan", "wikimedia_commons": "nan" }, "geometry": { "type": "Polygon", "coordinates": [ [ [ -122.4820728, 47.2408468 ], [ -122.4823609, 47.2419937 ], [ -122.4823553, 47.2421361 ], [ -122.4824727, 47.242607 ], [ -122.4823581, 47.2426411 ], [ -122.4799696, 47.2426165 ], [ -122.476949, 47.242662 ], [ -122.4767677, 47.2413089 ], [ -122.4773802, 47.2414505 ], [ -122.4772491, 47.2409054 ], [ -122.4779241, 47.2408968 ], [ -122.4820728, 47.2408468 ] ] ] } },
{ "type": "Feature", "properties": { "element_type": "way", "osmid": "25099135", "nodes": [ 4780113995, 4780113981, 4780113996, 4780113998, 4780113997, 4780113999, 4780114000, 273177620, 273177621, 273177622, 4780113994, 4780113993, 4780113992, 4780113991, 4780113990, 4780113989, 4780113988, 4780113987, 4780113986, 4780113985, 4780113984, 4780113983, 4780113982, 4780113995 ], "addr:city": "Lakewood", "addr:housenumber": "11315", "addr:postcode": "98499", "addr:street": "Bridgeport Way Southwest", "amenity": "hospital", "beds": "106", "emergency": "yes", "gnis:feature_id": "2462521", "healthcare": "hospital", "name": "Saint Clare Hospital", "opening_hours": "24/7", "operator": "CHI Franciscan Health", "phone": "+1 253 985 1711", "website": "https://www.chifranciscan.org/st-clare-hospital.html", "wikidata": "Q7587611", "wikipedia": "en:St. Clare Hospital", "wheelchair": "nan", "alt_name": "nan", "fixme": "nan", "healthcare:speciality": "nan", "access": "nan", "ele": "nan", "gnis:county_id": "nan", "gnis:created": "nan", "gnis:state_id": "nan", "old_name": "nan", "addr:state": "nan", "operator:type": "nan", "brand": "nan", "brand:wikidata": "nan", "brand:wikipedia": "nan", "healthcare:for": "nan", "operator:short": "nan", "operator:wikidata": "nan", "short_name": "nan", "addr:country": "nan", "operator:wikipedia": "nan", "source": "nan", "contact:phone": "nan", "contact:website": "nan", "ways": "nan", "type": "nan", "building": "nan", "wikimedia_commons": "nan" }, "geometry": { "type": "Polygon", "coordinates": [ [ [ -122.5043422, 47.1556709 ], [ -122.5043156, 47.1556909 ], [ -122.5042714, 47.1557271 ], [ -122.5025901, 47.1557511 ], [ -122.5023453, 47.1557692 ], [ -122.5020827, 47.1558073 ], [ -122.501891, 47.1558153 ], [ -122.5007884, 47.1558177 ], [ -122.4991987, 47.1558152 ], [ -122.4992088, 47.1552175 ], [ -122.4992068, 47.1543571 ], [ -122.5005931, 47.154347 ], [ -122.5007288, 47.1541685 ], [ -122.5008557, 47.1540522 ], [ -122.5010621, 47.1539138 ], [ -122.5012686, 47.1538215 ], [ -122.5015016, 47.1537593 ], [ -122.5015046, 47.1535527 ], [ -122.5023276, 47.1535487 ], [ -122.5023394, 47.153306 ], [ -122.5035222, 47.153314 ], [ -122.5035251, 47.1535868 ], [ -122.5043068, 47.1535928 ], [ -122.5043422, 47.1556709 ] ] ] } },
{ "type": "Feature", "properties": { "element_type": "way", "osmid": "25101011", "nodes": [ 653914190, 273199660, 273199661, 653914208, 653914212, 653914216, 653914222, 653914226, 653914234, 653914238, 6499062930, 653914242, 653914247, 653914251, 653914261, 653914273, 653914278, 653914294, 653914302, 653914185, 653914195, 653914190 ], "addr:city": "Lakewood", "addr:housenumber": "9601", "addr:postcode": "98498", "addr:street": "Steilacoom Boulevard", "amenity": "hospital", "beds": "nan", "emergency": "no", "gnis:feature_id": "1509437", "healthcare": "hospital", "name": "Western State Hospital", "opening_hours": "nan", "operator": "nan", "phone": "+1 253 582 8900", "website": "https://www.dshs.wa.gov/bha/division-state-hospitals/western-state-hospital", "wikidata": "Q7988334", "wikipedia": "en:Western State Hospital (Washington)", "wheelchair": "nan", "alt_name": "nan", "fixme": "nan", "healthcare:speciality": "psychiatry", "access": "nan", "ele": "nan", "gnis:county_id": "nan", "gnis:created": "nan", "gnis:state_id": "nan", "old_name": "nan", "addr:state": "nan", "operator:type": "nan", "brand": "nan", "brand:wikidata": "nan", "brand:wikipedia": "nan", "healthcare:for": "nan", "operator:short": "nan", "operator:wikidata": "nan", "short_name": "nan", "addr:country": "nan", "operator:wikipedia": "nan", "source": "nan", "contact:phone": "nan", "contact:website": "nan", "ways": "nan", "type": "nan", "building": "nan", "wikimedia_commons": "nan" }, "geometry": { "type": "Polygon", "coordinates": [ [ [ -122.5740909, 47.1769302 ], [ -122.5742708, 47.1770591 ], [ -122.5742708, 47.1786773 ], [ -122.5741382, 47.1790963 ], [ -122.5742045, 47.1799666 ], [ -122.5740814, 47.1805983 ], [ -122.572206, 47.1805854 ], [ -122.5721681, 47.181185 ], [ -122.5655378, 47.1813912 ], [ -122.5653957, 47.1833897 ], [ -122.5620334, 47.1833968 ], [ -122.5532151, 47.1834155 ], [ -122.5532246, 47.1817587 ], [ -122.5540012, 47.1816104 ], [ -122.5540202, 47.1810173 ], [ -122.553234, 47.181127 ], [ -122.5532246, 47.1803211 ], [ -122.5534613, 47.1793993 ], [ -122.553736, 47.1792767 ], [ -122.5615692, 47.1778392 ], [ -122.5667124, 47.1768722 ], [ -122.5740909, 47.1769302 ] ] ] } },
{ "type": "Feature", "properties": { "element_type": "way", "osmid": "25108936", "nodes": [ 4780226654, 4780226655, 4780226656, 273342307, 4780226657, 273342311, 273342316, 273342319, 273342320, 273342324, 273342330, 273342344, 273342346, 273342350, 273342353, 273342358, 5460286882, 5460286881, 4780226658, 4780226659, 4780226660, 4780226661, 4780226662, 4780226663, 4780226675, 4780226676, 2101094254, 6373549179, 2101094255, 5373658192, 6262879938, 4780226653, 4780226652, 5373658193, 4780226651, 4780226650, 4780226649, 4780226648, 4780226647, 4780226646, 6240570830, 4780226654 ], "addr:city": "Puyallup", "addr:housenumber": "401", "addr:postcode": "98372", "addr:street": "15th Avenue Southeast", "amenity": "hospital", "beds": "275", "emergency": "yes", "gnis:feature_id": "1505177", "healthcare": "hospital", "name": "MultiCare Good Samaritan Hospital", "opening_hours": "24/7", "operator": "MultiCare Health System", "phone": "+1 253 697 4000", "website": "https://www.multicare.org/good-samaritan-hospital/", "wikidata": "Q30254188", "wikipedia": "nan", "wheelchair": "nan", "alt_name": "nan", "fixme": "nan", "healthcare:speciality": "nan", "access": "nan", "ele": "nan", "gnis:county_id": "nan", "gnis:created": "nan", "gnis:state_id": "nan", "old_name": "nan", "addr:state": "nan", "operator:type": "nan", "brand": "nan", "brand:wikidata": "nan", "brand:wikipedia": "nan", "healthcare:for": "nan", "operator:short": "nan", "operator:wikidata": "nan", "short_name": "nan", "addr:country": "nan", "operator:wikipedia": "nan", "source": "nan", "contact:phone": "nan", "contact:website": "nan", "ways": "nan", "type": "nan", "building": "nan", "wikimedia_commons": "nan" }, "geometry": { "type": "Polygon", "coordinates": [ [ [ -122.2910915, 47.1795019 ], [ -122.2910754, 47.1795676 ], [ -122.2910174, 47.1795983 ], [ -122.2903118, 47.1796333 ], [ -122.2902635, 47.1798677 ], [ -122.290199, 47.1799268 ], [ -122.2885848, 47.179975 ], [ -122.2879887, 47.1799706 ], [ -122.2876246, 47.1799465 ], [ -122.2872573, 47.1799115 ], [ -122.2872863, 47.1795304 ], [ -122.2863906, 47.1794932 ], [ -122.285788, 47.1792764 ], [ -122.2855818, 47.1790924 ], [ -122.2855367, 47.1789106 ], [ -122.2855464, 47.1787617 ], [ -122.2869486, 47.1787989 ], [ -122.287213, 47.1787965 ], [ -122.2882992, 47.1787975 ], [ -122.2882906, 47.1783751 ], [ -122.287296, 47.1783609 ], [ -122.2867804, 47.1781112 ], [ -122.286281, 47.1778594 ], [ -122.2862166, 47.1774673 ], [ -122.2873217, 47.1774871 ], [ -122.2883045, 47.1774739 ], [ -122.2882417, 47.1755712 ], [ -122.2900076, 47.1755667 ], [ -122.2910096, 47.1755643 ], [ -122.2910188, 47.1764722 ], [ -122.2911817, 47.1764615 ], [ -122.2922945, 47.1764627 ], [ -122.2922961, 47.1773728 ], [ -122.2913327, 47.1773802 ], [ -122.2909219, 47.1772864 ], [ -122.2907833, 47.1773334 ], [ -122.2908556, 47.1774944 ], [ -122.2909172, 47.1775455 ], [ -122.2909962, 47.177682 ], [ -122.29104, 47.1778625 ], [ -122.2910499, 47.1781765 ], [ -122.2910915, 47.1795019 ] ] ] } },
{ "type": "Feature", "properties": { "element_type": "way", "osmid": "51221374", "nodes": [ 653723375, 653723399, 653723421, 653723443, 653723469, 653723491, 653723505, 653723508, 653723517, 653723545, 653723563, 653723577, 653723592, 653723638, 653723654, 653723668, 653723684, 653723705, 653723719, 653723726, 653723736, 653723746, 653723759, 653723770, 653723780, 653723787, 653723793, 653723799, 653723807, 653723815, 653723821, 653723829, 653723836, 653723842, 653723851, 653723857, 653723872, 653723887, 653723901, 653723923, 653723932, 653723375 ], "addr:city": "Tacoma", "addr:housenumber": "9040", "addr:postcode": "98431", "addr:street": "Jackson Avenue", "amenity": "hospital", "beds": "205", "emergency": "yes", "gnis:feature_id": "1506413", "healthcare": "hospital", "name": "Madigan Army Medical Center", "opening_hours": "24/7", "operator": "nan", "phone": "+1 253 968 1110", "website": "http://www.mamc.amedd.army.mil/", "wikidata": "Q6727718", "wikipedia": "en:Madigan Army Medical Center", "wheelchair": "nan", "alt_name": "nan", "fixme": "nan", "healthcare:speciality": "nan", "access": "private", "ele": "nan", "gnis:county_id": "nan", "gnis:created": "nan", "gnis:state_id": "nan", "old_name": "nan", "addr:state": "nan", "operator:type": "nan", "brand": "nan", "brand:wikidata": "nan", "brand:wikipedia": "nan", "healthcare:for": "nan", "operator:short": "nan", "operator:wikidata": "nan", "short_name": "nan", "addr:country": "nan", "operator:wikipedia": "nan", "source": "nan", "contact:phone": "nan", "contact:website": "nan", "ways": "nan", "type": "nan", "building": "nan", "wikimedia_commons": "nan" }, "geometry": { "type": "Polygon", "coordinates": [ [ [ -122.5509477, 47.113419 ], [ -122.5514685, 47.1131613 ], [ -122.5537413, 47.111782 ], [ -122.554158, 47.1115629 ], [ -122.5547072, 47.1112212 ], [ -122.5549818, 47.1110086 ], [ -122.5553228, 47.1106927 ], [ -122.5555311, 47.1104478 ], [ -122.5557205, 47.1101835 ], [ -122.555853, 47.1099 ], [ -122.5559193, 47.1096808 ], [ -122.5560235, 47.1094423 ], [ -122.5560614, 47.1092103 ], [ -122.5560993, 47.1089397 ], [ -122.5561088, 47.1085658 ], [ -122.5560046, 47.1082113 ], [ -122.5558247, 47.1077795 ], [ -122.5553796, 47.1071285 ], [ -122.5550576, 47.1068707 ], [ -122.5545841, 47.1064969 ], [ -122.554319, 47.1062907 ], [ -122.5531447, 47.1054012 ], [ -122.5529269, 47.1052336 ], [ -122.5525671, 47.1049436 ], [ -122.5523776, 47.1049436 ], [ -122.5512887, 47.105601 ], [ -122.5507868, 47.105891 ], [ -122.5501049, 47.1062907 ], [ -122.5497261, 47.1066065 ], [ -122.5491484, 47.1072961 ], [ -122.5487886, 47.1077408 ], [ -122.5484382, 47.108366 ], [ -122.5482488, 47.1088365 ], [ -122.5481636, 47.109494 ], [ -122.5482204, 47.1101835 ], [ -122.5483625, 47.1107443 ], [ -122.5486181, 47.1112599 ], [ -122.5490727, 47.1119044 ], [ -122.5494799, 47.1123298 ], [ -122.5498492, 47.1126263 ], [ -122.5507868, 47.1133933 ], [ -122.5509477, 47.113419 ] ] ] } },
{ "type": "Feature", "properties": { "element_type": "way", "osmid": "51242100", "nodes": [ 653925410, 653925422, 653925438, 5895466942, 653925453, 653925489, 653925493, 653925504, 653925521, 653925544, 653925569, 653925585, 653925600, 653925618, 653925629, 653925636, 653925644, 653925664, 653925675, 653925685, 653925694, 653925706, 653925715, 653925410 ], "addr:city": "nan", "addr:housenumber": "nan", "addr:postcode": "nan", "addr:street": "nan", "amenity": "hospital", "beds": "nan", "emergency": "no", "gnis:feature_id": "1510195", "healthcare": "hospital", "name": "American Lake VA Medical Center", "opening_hours": "nan", "operator": "nan", "phone": "nan", "website": "nan", "wikidata": "nan", "wikipedia": "nan", "wheelchair": "nan", "alt_name": "nan", "fixme": "nan", "healthcare:speciality": "nan", "access": "nan", "ele": "76", "gnis:county_id": "053", "gnis:created": "09/01/1990", "gnis:state_id": "53", "old_name": "nan", "addr:state": "nan", "operator:type": "nan", "brand": "nan", "brand:wikidata": "nan", "brand:wikipedia": "nan", "healthcare:for": "nan", "operator:short": "nan", "operator:wikidata": "nan", "short_name": "nan", "addr:country": "nan", "operator:wikipedia": "nan", "source": "nan", "contact:phone": "nan", "contact:website": "nan", "ways": "nan", "type": "nan", "building": "nan", "wikimedia_commons": "nan" }, "geometry": { "type": "Polygon", "coordinates": [ [ [ -122.5738405, 47.1376551 ], [ -122.5790946, 47.1376292 ], [ -122.5791325, 47.1353771 ], [ -122.5802636, 47.1345965 ], [ -122.5809386, 47.1341306 ], [ -122.5813428, 47.1328498 ], [ -122.580529, 47.1323981 ], [ -122.5800631, 47.1327647 ], [ -122.5784133, 47.1320818 ], [ -122.5783504, 47.1293373 ], [ -122.5749283, 47.1293595 ], [ -122.5749014, 47.1315002 ], [ -122.5744847, 47.1319386 ], [ -122.5740805, 47.1324114 ], [ -122.5737395, 47.1329272 ], [ -122.5736511, 47.1333828 ], [ -122.5736132, 47.1338985 ], [ -122.5738657, 47.1344316 ], [ -122.5741689, 47.1349988 ], [ -122.5740931, 47.1353685 ], [ -122.5738784, 47.1356436 ], [ -122.5716429, 47.1361937 ], [ -122.572186, 47.1369416 ], [ -122.5738405, 47.1376551 ] ] ] } },
{ "type": "Feature", "properties": { "element_type": "way", "osmid": "264478313", "nodes": [ 272583492, 272583826, 356551268, 356550402, 4780162621, 4780162622, 10022177466, 4780162623, 4780162624, 4780162625, 4780162626, 4780162651, 4780162647, 4780162645, 4780162644, 4780162646, 4780162650, 4780162648, 110483879, 272583832, 4780162649, 272583492 ], "addr:city": "Tacoma", "addr:housenumber": "315", "addr:postcode": "98403", "addr:street": "Martin Luther King Jr Way", "amenity": "hospital", "beds": "437", "emergency": "yes", "gnis:feature_id": "2462528", "healthcare": "hospital", "name": "MultiCare Tacoma General Hospital", "opening_hours": "24/7", "operator": "MultiCare Health System", "phone": "+1 253 403 1000", "website": "https://www.multicare.org/tacoma-general-hospital/", "wikidata": "Q6934525", "wikipedia": "en:MultiCare Tacoma General Hospital", "wheelchair": "nan", "alt_name": "nan", "fixme": "nan", "healthcare:speciality": "nan", "access": "nan", "ele": "nan", "gnis:county_id": "nan", "gnis:created": "nan", "gnis:state_id": "nan", "old_name": "nan", "addr:state": "nan", "operator:type": "nan", "brand": "nan", "brand:wikidata": "nan", "brand:wikipedia": "nan", "healthcare:for": "nan", "operator:short": "nan", "operator:wikidata": "nan", "short_name": "nan", "addr:country": "nan", "operator:wikipedia": "nan", "source": "nan", "contact:phone": "nan", "contact:website": "nan", "ways": "nan", "type": "nan", "building": "nan", "wikimedia_commons": "nan" }, "geometry": { "type": "Polygon", "coordinates": [ [ [ -122.4532264, 47.259081 ], [ -122.4530353, 47.2582573 ], [ -122.4539381, 47.2581608 ], [ -122.4540352, 47.2585796 ], [ -122.4546256, 47.2585166 ], [ -122.4547636, 47.2591115 ], [ -122.4549238, 47.2590943 ], [ -122.4549396, 47.2590927 ], [ -122.4550191, 47.2594355 ], [ -122.4555508, 47.2593787 ], [ -122.4556182, 47.2596685 ], [ -122.4524907, 47.261263 ], [ -122.4523901, 47.260817 ], [ -122.4514936, 47.2609122 ], [ -122.4513746, 47.2604195 ], [ -122.4508274, 47.2604782 ], [ -122.4506226, 47.259598 ], [ -122.4520695, 47.259443 ], [ -122.4518206, 47.2583727 ], [ -122.4524028, 47.2583104 ], [ -122.4525974, 47.2591483 ], [ -122.4532264, 47.259081 ] ] ] } },
{ "type": "Feature", "properties": { "element_type": "node", "osmid": "356551783", "nodes": "nan", "addr:city": "Seattle", "addr:housenumber": "2600", "addr:postcode": "98126", "addr:street": "Southwest Holden Street", "amenity": "hospital", "beds": "nan", "emergency": "no", "gnis:feature_id": "2462543", "healthcare": "hospital", "name": "Navos West Seattle Campus", "opening_hours": "nan", "operator": "Navos Mental Health Solutions", "phone": "+1-206-933-7000", "website": "https://www.navos.org/", "wikidata": "nan", "wikipedia": "nan", "wheelchair": "nan", "alt_name": "nan", "fixme": "nan", "healthcare:speciality": "psychiatry", "access": "nan", "ele": "nan", "gnis:county_id": "nan", "gnis:created": "nan", "gnis:state_id": "nan", "old_name": "West Seattle Psychiatric Hospital", "addr:state": "nan", "operator:type": "nan", "brand": "nan", "brand:wikidata": "nan", "brand:wikipedia": "nan", "healthcare:for": "nan", "operator:short": "nan", "operator:wikidata": "nan", "short_name": "nan", "addr:country": "nan", "operator:wikipedia": "nan", "source": "nan", "contact:phone": "nan", "contact:website": "nan", "ways": "nan", "type": "nan", "building": "nan", "wikimedia_commons": "nan" }, "geometry": { "type": "Point", "coordinates": [ -122.366224, 47.534445 ] } },
{ "type": "Feature", "properties": { "element_type": "node", "osmid": "9525009816", "nodes": "nan", "addr:city": "Seattle", "addr:housenumber": "1101", "addr:postcode": "98104", "addr:street": "Marion Street", "amenity": "hospital", "beds": "nan", "emergency": "nan", "gnis:feature_id": "nan", "healthcare": "hospital", "name": "The Seattle Facial Plastic Surgery Center", "opening_hours": "nan", "operator": "Dr William Portuese", "phone": "nan", "website": "nan", "wikidata": "nan", "wikipedia": "nan", "wheelchair": "nan", "alt_name": "nan", "fixme": "nan", "healthcare:speciality": "plastic_surgery;surgery", "access": "nan", "ele": "nan", "gnis:county_id": "nan", "gnis:created": "nan", "gnis:state_id": "nan", "old_name": "nan", "addr:state": "WA", "operator:type": "business", "brand": "nan", "brand:wikidata": "nan", "brand:wikipedia": "nan", "healthcare:for": "nan", "operator:short": "nan", "operator:wikidata": "nan", "short_name": "nan", "addr:country": "nan", "operator:wikipedia": "nan", "source": "nan", "contact:phone": "nan", "contact:website": "nan", "ways": "nan", "type": "nan", "building": "nan", "wikimedia_commons": "nan" }, "geometry": { "type": "Point", "coordinates": [ -122.3242052, 47.6091703 ] } },
{ "type": "Feature", "properties": { "element_type": "way", "osmid": "53615315", "nodes": [ 342200506, 342200505, 342200503, 342200502, 342200501, 342200500, 677185036, 677185045, 677185055, 677185061, 677185073, 677185085, 677185096, 677185110, 677185119, 677185136, 677185144, 677185147, 677185149, 677185150, 677185155, 677185151, 677185154, 677185152, 342200506 ], "addr:city": "Seattle", "addr:housenumber": "1660", "addr:postcode": "98108", "addr:street": "South Columbian Way", "amenity": "hospital", "beds": "429", "emergency": "yes", "gnis:feature_id": "nan", "healthcare": "hospital", "name": "VA Medical Center - Seattle", "opening_hours": "24/7", "operator": "Veterans Health Administration", "phone": "+1 206 762 1010", "website": "https://www.pugetsound.va.gov/", "wikidata": "nan", "wikipedia": "nan", "wheelchair": "nan", "alt_name": "nan", "fixme": "nan", "healthcare:speciality": "nan", "access": "private", "ele": "nan", "gnis:county_id": "nan", "gnis:created": "nan", "gnis:state_id": "nan", "old_name": "nan", "addr:state": "nan", "operator:type": "government", "brand": "VA", "brand:wikidata": "Q6580225", "brand:wikipedia": "en:Veterans Health Administration", "healthcare:for": "veterans", "operator:short": "VA", "operator:wikidata": "Q6580225", "short_name": "VA", "addr:country": "nan", "operator:wikipedia": "nan", "source": "nan", "contact:phone": "nan", "contact:website": "nan", "ways": "nan", "type": "nan", "building": "nan", "wikimedia_commons": "nan" }, "geometry": { "type": "Polygon", "coordinates": [ [ [ -122.3063422, 47.5647422 ], [ -122.3076739, 47.5647655 ], [ -122.3083362, 47.5647926 ], [ -122.3086558, 47.5647879 ], [ -122.3094548, 47.564802 ], [ -122.3104449, 47.5648209 ], [ -122.3104483, 47.564591 ], [ -122.3112683, 47.5623171 ], [ -122.3107749, 47.5619843 ], [ -122.3103372, 47.561703 ], [ -122.3078498, 47.5616795 ], [ -122.3076205, 47.5616374 ], [ -122.3073704, 47.5615108 ], [ -122.3071759, 47.5614123 ], [ -122.3068076, 47.5612154 ], [ -122.3053068, 47.561192 ], [ -122.3052582, 47.561206 ], [ -122.3054683, 47.5618627 ], [ -122.3055279, 47.5620676 ], [ -122.3058233, 47.5630536 ], [ -122.3058996, 47.5632922 ], [ -122.3060822, 47.563893 ], [ -122.3062126, 47.564329 ], [ -122.3062878, 47.5645816 ], [ -122.3063422, 47.5647422 ] ] ] } },
{ "type": "Feature", "properties": { "element_type": "way", "osmid": "169511257", "nodes": [ 1229464709, 11035186713, 11035186694, 11060868697, 1806727975, 1229464712, 1229464713, 1806727996, 1806727988, 60167236, 1806727955, 1806727990, 1806728003, 1806727992, 1806728001, 8015325477, 1806727986, 1806727970, 1806728006, 60167235, 11035186743, 53070520, 53070522, 53221909, 11014532844, 3874116579, 3874116581, 3874116583, 11035222096, 53114221, 11035222098, 3883968766, 3404864098, 3404863992, 3404864093, 3404863990, 11035186711, 1229464709 ], "addr:city": "Seattle", "addr:housenumber": "325", "addr:postcode": "98104", "addr:street": "9th Avenue", "amenity": "hospital", "beds": "413", "emergency": "yes", "gnis:feature_id": "nan", "healthcare": "hospital", "name": "Harborview Medical Center", "opening_hours": "24/7", "operator": "UW Medicine", "phone": "+1 206 744 3000", "website": "https://www.uwmedicine.org/harborview", "wikidata": "Q5654758", "wikipedia": "en:Harborview Medical Center", "wheelchair": "yes", "alt_name": "nan", "fixme": "nan", "healthcare:speciality": "nan", "access": "nan", "ele": "nan", "gnis:county_id": "nan", "gnis:created": "nan", "gnis:state_id": "nan", "old_name": "nan", "addr:state": "nan", "operator:type": "nan", "brand": "nan", "brand:wikidata": "nan", "brand:wikipedia": "nan", "healthcare:for": "nan", "operator:short": "nan", "operator:wikidata": "nan", "short_name": "nan", "addr:country": "nan", "operator:wikipedia": "nan", "source": "nan", "contact:phone": "nan", "contact:website": "nan", "ways": "nan", "type": "nan", "building": "nan", "wikimedia_commons": "nan" }, "geometry": { "type": "Polygon", "coordinates": [ [ [ -122.3227919, 47.603423 ], [ -122.3229107, 47.6033724 ], [ -122.3239929, 47.6029154 ], [ -122.3240656, 47.6028846 ], [ -122.324143, 47.6028521 ], [ -122.3247104, 47.6026027 ], [ -122.3254468, 47.6033421 ], [ -122.3249181, 47.6035666 ], [ -122.3251093, 47.6037779 ], [ -122.3254382, 47.6041413 ], [ -122.3254488, 47.6041576 ], [ -122.325458, 47.6041733 ], [ -122.3254644, 47.6041887 ], [ -122.3254644, 47.6042077 ], [ -122.325462, 47.6042275 ], [ -122.325449, 47.6042469 ], [ -122.3254351, 47.604264 ], [ -122.3254155, 47.604282 ], [ -122.3253911, 47.6042977 ], [ -122.3253605, 47.6043118 ], [ -122.3242256, 47.6048013 ], [ -122.324104, 47.6048538 ], [ -122.3247477, 47.6055624 ], [ -122.3236525, 47.6060165 ], [ -122.3235895, 47.6059482 ], [ -122.323396, 47.6057367 ], [ -122.3233099, 47.6056413 ], [ -122.323261, 47.6055872 ], [ -122.32307, 47.6053797 ], [ -122.3230066, 47.6053102 ], [ -122.3231014, 47.6052703 ], [ -122.3235514, 47.6050826 ], [ -122.3235569, 47.6050807 ], [ -122.322898, 47.6043574 ], [ -122.3228394, 47.604383 ], [ -122.3221925, 47.6036777 ], [ -122.3226986, 47.6034623 ], [ -122.3227919, 47.603423 ] ] ] } },
{ "type": "Feature", "properties": { "element_type": "way", "osmid": "172783647", "nodes": [ 1836399673, 1836399708, 1836399685, 4779174707, 4779174708, 1836399670, 1836399680, 1836399682, 1836399707, 1836399673 ], "addr:city": "Burien", "addr:housenumber": "16251", "addr:postcode": "98166", "addr:street": "Sylvester Road Southwest", "amenity": "hospital", "beds": "133", "emergency": "yes", "gnis:feature_id": "nan", "healthcare": "hospital", "name": "St. Anne Hospital", "opening_hours": "24/7", "operator": "CHI Franciscan Health", "phone": "+1 206 244 9970", "website": "https://www.chifranciscan.org/st-anne-hospital.html", "wikidata": "nan", "wikipedia": "nan", "wheelchair": "nan", "alt_name": "nan", "fixme": "nan", "healthcare:speciality": "nan", "access": "nan", "ele": "nan", "gnis:county_id": "nan", "gnis:created": "nan", "gnis:state_id": "nan", "old_name": "Highline Medical Center", "addr:state": "WA", "operator:type": "nan", "brand": "nan", "brand:wikidata": "nan", "brand:wikipedia": "nan", "healthcare:for": "nan", "operator:short": "nan", "operator:wikidata": "nan", "short_name": "nan", "addr:country": "US", "operator:wikipedia": "nan", "source": "nan", "contact:phone": "nan", "contact:website": "nan", "ways": "nan", "type": "nan", "building": "nan", "wikimedia_commons": "nan" }, "geometry": { "type": "Polygon", "coordinates": [ [ [ -122.3445043, 47.4588307 ], [ -122.3407827, 47.4587936 ], [ -122.3402848, 47.458411 ], [ -122.3408228, 47.4577093 ], [ -122.3415716, 47.4567636 ], [ -122.3422053, 47.4560939 ], [ -122.3439653, 47.4561105 ], [ -122.3439288, 47.4568999 ], [ -122.3445296, 47.4568854 ], [ -122.3445043, 47.4588307 ] ] ] } },
{ "type": "Feature", "properties": { "element_type": "way", "osmid": "249487376", "nodes": [ 2560801693, 2560801703, 2560801704, 2560801705, 2560801706, 2560801707, 2560801708, 2560801709, 2560801710, 2560801711, 2560801712, 2560801713, 2560801714, 2560801715, 2560801716, 2560801717, 2560801718, 2560801719, 2560801720, 2560801721, 2560801722, 2560801723, 2560801724, 2560801725, 2560801726, 2560801727, 2560801728, 2560801729, 2560801730, 2560801731, 2560801732, 2560801733, 2560801734, 2560801741, 2560801736, 2560801737, 2560801738, 2560801739, 2560801740, 2560801693 ], "addr:city": "Gig Harbor", "addr:housenumber": "11567", "addr:postcode": "98332", "addr:street": "Canterwood Boulevard Northwest", "amenity": "hospital", "beds": "80", "emergency": "yes", "gnis:feature_id": "nan", "healthcare": "hospital", "name": "Saint Anthony Hospital", "opening_hours": "24/7", "operator": "CHI Franciscan Health", "phone": "+1 253 530 2000", "website": "https://www.chifranciscan.org/st-anthony-hospital.html", "wikidata": "Q7587097", "wikipedia": "nan", "wheelchair": "nan", "alt_name": "nan", "fixme": "nan", "healthcare:speciality": "nan", "access": "nan", "ele": "nan", "gnis:county_id": "nan", "gnis:created": "nan", "gnis:state_id": "nan", "old_name": "nan", "addr:state": "nan", "operator:type": "nan", "brand": "nan", "brand:wikidata": "nan", "brand:wikipedia": "nan", "healthcare:for": "nan", "operator:short": "nan", "operator:wikidata": "nan", "short_name": "nan", "addr:country": "nan", "operator:wikipedia": "nan", "source": "nan", "contact:phone": "nan", "contact:website": "nan", "ways": "nan", "type": "nan", "building": "nan", "wikimedia_commons": "nan" }, "geometry": { "type": "Polygon", "coordinates": [ [ [ -122.6150417, 47.365027 ], [ -122.614781, 47.3645233 ], [ -122.6147016, 47.3641468 ], [ -122.6147249, 47.3637261 ], [ -122.614837, 47.3633687 ], [ -122.6141832, 47.3631125 ], [ -122.6138703, 47.3628025 ], [ -122.6140571, 47.3623153 ], [ -122.6140011, 47.3620781 ], [ -122.6138003, 47.3620022 ], [ -122.61338, 47.3619674 ], [ -122.6129923, 47.36198 ], [ -122.6129083, 47.3620465 ], [ -122.6128382, 47.3621572 ], [ -122.6127402, 47.3624166 ], [ -122.6124646, 47.3630144 ], [ -122.6123245, 47.3635332 ], [ -122.6120303, 47.3639602 ], [ -122.6116988, 47.3645486 ], [ -122.6112504, 47.3651369 ], [ -122.6109609, 47.3653773 ], [ -122.6108908, 47.3654975 ], [ -122.6108862, 47.3655671 ], [ -122.6109749, 47.365662 ], [ -122.6113438, 47.3659846 ], [ -122.6114419, 47.3660099 ], [ -122.6116054, 47.3660226 ], [ -122.6116894, 47.3659941 ], [ -122.6118248, 47.365934 ], [ -122.6124273, 47.3654785 ], [ -122.6129223, 47.3652698 ], [ -122.6130998, 47.3651843 ], [ -122.6132679, 47.3651337 ], [ -122.6134453, 47.3651116 ], [ -122.6138563, 47.3651306 ], [ -122.6141925, 47.3651369 ], [ -122.614426, 47.3651401 ], [ -122.6149193, 47.3651405 ], [ -122.6150098, 47.3651116 ], [ -122.6150417, 47.365027 ] ] ] } },
{ "type": "Feature", "properties": { "element_type": "way", "osmid": "297300958", "nodes": [ 4241767441, 4241767442, 4241767440, 4241767439, 4241767435, 4241767434, 4241767409, 4241767412, 4241767438, 4241767441 ], "addr:city": "Seattle", "addr:housenumber": "201", "addr:postcode": "98112", "addr:street": "16th Avenue East", "amenity": "hospital", "beds": "nan", "emergency": "no", "gnis:feature_id": "nan", "healthcare": "hospital", "name": "Kaiser Permanente Capitol Hill Campus", "opening_hours": "nan", "operator": "Kaiser Permanente", "phone": "nan", "website": "nan", "wikidata": "nan", "wikipedia": "nan", "wheelchair": "nan", "alt_name": "nan", "fixme": "nan", "healthcare:speciality": "nan", "access": "nan", "ele": "nan", "gnis:county_id": "nan", "gnis:created": "nan", "gnis:state_id": "nan", "old_name": "nan", "addr:state": "WA", "operator:type": "nan", "brand": "nan", "brand:wikidata": "nan", "brand:wikipedia": "nan", "healthcare:for": "nan", "operator:short": "KP", "operator:wikidata": "Q1721601", "short_name": "nan", "addr:country": "nan", "operator:wikipedia": "en:Kaiser Permanente", "source": "King County GIS;data.seattle.gov", "contact:phone": "nan", "contact:website": "nan", "ways": "nan", "type": "nan", "building": "nan", "wikimedia_commons": "nan" }, "geometry": { "type": "Polygon", "coordinates": [ [ [ -122.3125947, 47.6212909 ], [ -122.312068, 47.6212917 ], [ -122.3120729, 47.6204248 ], [ -122.3115093, 47.6204227 ], [ -122.3115149, 47.6197298 ], [ -122.3115544, 47.6195992 ], [ -122.3115607, 47.6186211 ], [ -122.3126479, 47.6186276 ], [ -122.312635, 47.6200401 ], [ -122.3125947, 47.6212909 ] ] ] } },
{ "type": "Feature", "properties": { "element_type": "way", "osmid": "297302349", "nodes": [ 3011709246, 3011709252, 3011709247, 3011709248, 3011709249, 3011709251, 3011709250, 3011709246 ], "addr:city": "Seattle", "addr:housenumber": "1100", "addr:postcode": "98101", "addr:street": "9th Avenue", "amenity": "hospital", "beds": "336", "emergency": "no", "gnis:feature_id": "nan", "healthcare": "hospital", "name": "Virginia Mason Hospital & Seattle Medical Center", "opening_hours": "24/7", "operator": "nan", "phone": "+1 206 223 6600", "website": "https://www.virginiamason.org", "wikidata": "Q7934401", "wikipedia": "en:Virginia Mason Hospital", "wheelchair": "nan", "alt_name": "VM Seattle", "fixme": "nan", "healthcare:speciality": "nan", "access": "nan", "ele": "nan", "gnis:county_id": "nan", "gnis:created": "nan", "gnis:state_id": "nan", "old_name": "nan", "addr:state": "WA", "operator:type": "nan", "brand": "nan", "brand:wikidata": "nan", "brand:wikipedia": "nan", "healthcare:for": "nan", "operator:short": "nan", "operator:wikidata": "nan", "short_name": "nan", "addr:country": "nan", "operator:wikipedia": "nan", "source": "nan", "contact:phone": "nan", "contact:website": "nan", "ways": "nan", "type": "nan", "building": "nan", "wikimedia_commons": "nan" }, "geometry": { "type": "Polygon", "coordinates": [ [ [ -122.3276231, 47.6111979 ], [ -122.3280638, 47.6110132 ], [ -122.329836, 47.6102704 ], [ -122.3286123, 47.6089434 ], [ -122.3259345, 47.6100658 ], [ -122.3264941, 47.6106726 ], [ -122.326959, 47.6104777 ], [ -122.3276231, 47.6111979 ] ] ] } },
{ "type": "Feature", "properties": { "element_type": "way", "osmid": "333369584", "nodes": [ 53184118, 4272325296, 10932556420, 53184121, 10932556421, 11004965702, 53212908, 11004965701, 3404809523, 3404809509, 3404809508, 3379043291, 3798496998, 3798496981, 3798496996, 3798496993, 53209848, 53184118 ], "addr:city": "Seattle", "addr:housenumber": "747", "addr:postcode": "98122", "addr:street": "Broadway", "amenity": "hospital", "beds": "830", "emergency": "yes", "gnis:feature_id": "nan", "healthcare": "hospital", "name": "Swedish First Hill Medical Center", "opening_hours": "24/7", "operator": "Swedish", "phone": "nan", "website": "nan", "wikidata": "Q7654755", "wikipedia": "nan", "wheelchair": "nan", "alt_name": "nan", "fixme": "nan", "healthcare:speciality": "nan", "access": "nan", "ele": "nan", "gnis:county_id": "nan", "gnis:created": "nan", "gnis:state_id": "nan", "old_name": "nan", "addr:state": "nan", "operator:type": "nan", "brand": "nan", "brand:wikidata": "nan", "brand:wikipedia": "nan", "healthcare:for": "nan", "operator:short": "nan", "operator:wikidata": "nan", "short_name": "nan", "addr:country": "nan", "operator:wikipedia": "nan", "source": "King County GIS", "contact:phone": "+1 (206) 386-6000", "contact:website": "http://www.swedish.org/locations/first-hill-campus", "ways": "nan", "type": "nan", "building": "nan", "wikimedia_commons": "nan" }, "geometry": { "type": "Polygon", "coordinates": [ [ [ -122.3251272, 47.6093391 ], [ -122.3223102, 47.6105224 ], [ -122.321919, 47.6106873 ], [ -122.3218255, 47.6107272 ], [ -122.3217521, 47.6106512 ], [ -122.3212126, 47.6100908 ], [ -122.3211505, 47.6100257 ], [ -122.321269, 47.6099797 ], [ -122.3208112, 47.6094675 ], [ -122.3207879, 47.6080217 ], [ -122.3193906, 47.6080155 ], [ -122.3193906, 47.6078016 ], [ -122.319415, 47.6078863 ], [ -122.3209214, 47.6072768 ], [ -122.3214013, 47.6070752 ], [ -122.3224839, 47.6066445 ], [ -122.322528, 47.6064931 ], [ -122.3251272, 47.6093391 ] ] ] } },
{ "type": "Feature", "properties": { "element_type": "way", "osmid": "391949890", "nodes": [ 3952195305, 9721286743, 9721286742, 4777987658, 9721771737, 4777987657, 3952195306, 5017183576, 5017183577, 5017183578, 7018389319, 7018389320, 9723317526, 7018389322, 7018389328, 7018389323, 7018389321, 1592278840, 3952195303, 3952195302, 3952195300, 3952195298, 3952195305 ], "addr:city": "Bellevue", "addr:housenumber": "1035", "addr:postcode": "98004", "addr:street": "116th Avenue Northeast", "amenity": "hospital", "beds": "347", "emergency": "yes", "gnis:feature_id": "nan", "healthcare": "hospital", "name": "Overlake Medical Center", "opening_hours": "24/7", "operator": "nan", "phone": "+1 425 688 5000", "website": "https://www.overlakehospital.org/", "wikidata": "Q7113724", "wikipedia": "en:Overlake Hospital Medical Center", "wheelchair": "nan", "alt_name": "nan", "fixme": "nan", "healthcare:speciality": "nan", "access": "nan", "ele": "nan", "gnis:county_id": "nan", "gnis:created": "nan", "gnis:state_id": "nan", "old_name": "Overlake Memorial Hospital", "addr:state": "nan", "operator:type": "nan", "brand": "nan", "brand:wikidata": "nan", "brand:wikipedia": "nan", "healthcare:for": "nan", "operator:short": "nan", "operator:wikidata": "nan", "short_name": "nan", "addr:country": "nan", "operator:wikipedia": "nan", "source": "nan", "contact:phone": "nan", "contact:website": "nan", "ways": "nan", "type": "nan", "building": "nan", "wikimedia_commons": "nan" }, "geometry": { "type": "Polygon", "coordinates": [ [ [ -122.1880801, 47.6193664 ], [ -122.1880439, 47.619344 ], [ -122.1873278, 47.6193283 ], [ -122.1867282, 47.6193648 ], [ -122.1864385, 47.6193887 ], [ -122.1863465, 47.6193963 ], [ -122.1859855, 47.619386 ], [ -122.1859436, 47.6193957 ], [ -122.1859121, 47.6194324 ], [ -122.1859037, 47.6194808 ], [ -122.1858601, 47.6198739 ], [ -122.1858552, 47.6199625 ], [ -122.1858415, 47.6201501 ], [ -122.185807, 47.6201651 ], [ -122.1858025, 47.6203893 ], [ -122.1857985, 47.6205837 ], [ -122.1857963, 47.620693 ], [ -122.1858594, 47.6216808 ], [ -122.1858915, 47.6225879 ], [ -122.1859987, 47.622606 ], [ -122.1868624, 47.6224686 ], [ -122.1880863, 47.6218977 ], [ -122.1880801, 47.6193664 ] ] ] } },
{ "type": "Feature", "properties": { "element_type": "way", "osmid": "436667677", "nodes": [ 4345466326, 4345466261, 4345466259, 4345466258, 4345466363, 4345466364, 356550574, 4345466326 ], "addr:city": "Auburn", "addr:housenumber": "202", "addr:postcode": "98001", "addr:street": "North Division Street", "amenity": "hospital", "beds": "195", "emergency": "yes", "gnis:feature_id": "2461624", "healthcare": "hospital", "name": "Multicare Auburn Medical Center", "opening_hours": "24/7", "operator": "MultiCare Health System", "phone": "+1 253 833 7711", "website": "https://www.multicare.org/auburn-medical-center/", "wikidata": "nan", "wikipedia": "nan", "wheelchair": "nan", "alt_name": "nan", "fixme": "nan", "healthcare:speciality": "nan", "access": "nan", "ele": "nan", "gnis:county_id": "nan", "gnis:created": "nan", "gnis:state_id": "nan", "old_name": "nan", "addr:state": "nan", "operator:type": "nan", "brand": "nan", "brand:wikidata": "nan", "brand:wikipedia": "nan", "healthcare:for": "nan", "operator:short": "nan", "operator:wikidata": "nan", "short_name": "nan", "addr:country": "nan", "operator:wikipedia": "nan", "source": "nan", "contact:phone": "nan", "contact:website": "nan", "ways": "nan", "type": "nan", "building": "nan", "wikimedia_commons": "nan" }, "geometry": { "type": "Polygon", "coordinates": [ [ [ -122.2278034, 47.3090806 ], [ -122.2282674, 47.3082302 ], [ -122.228364, 47.3081968 ], [ -122.2297134, 47.3081873 ], [ -122.2297424, 47.3100842 ], [ -122.2286654, 47.3100918 ], [ -122.2286499, 47.3090766 ], [ -122.2278034, 47.3090806 ] ] ] } },
{ "type": "Feature", "properties": { "element_type": "way", "osmid": "485061269", "nodes": [ 4778232384, 4778232381, 4778232380, 4778232378, 4778232376, 4778232374, 4778232370, 4778232371, 4778232373, 4778232377, 4778232386, 356551781, 4778232407, 4778232410, 4778232415, 4778232727, 5657593562, 4778232736, 4778232414, 4778232412, 4778232384 ], "addr:city": "Renton", "addr:housenumber": "400", "addr:postcode": "98055", "addr:street": "South 43rd Street", "amenity": "hospital", "beds": "303", "emergency": "yes", "gnis:feature_id": "2462541", "healthcare": "hospital", "name": "Valley Medical Center", "opening_hours": "24/7", "operator": "nan", "phone": "+1 425 228 3450", "website": "https://www.valleymed.org/", "wikidata": "nan", "wikipedia": "nan", "wheelchair": "nan", "alt_name": "nan", "fixme": "nan", "healthcare:speciality": "nan", "access": "nan", "ele": "nan", "gnis:county_id": "nan", "gnis:created": "nan", "gnis:state_id": "nan", "old_name": "nan", "addr:state": "nan", "operator:type": "nan", "brand": "nan", "brand:wikidata": "nan", "brand:wikipedia": "nan", "healthcare:for": "nan", "operator:short": "nan", "operator:wikidata": "nan", "short_name": "nan", "addr:country": "nan", "operator:wikipedia": "nan", "source": "nan", "contact:phone": "nan", "contact:website": "nan", "ways": "nan", "type": "nan", "building": "nan", "wikimedia_commons": "nan" }, "geometry": { "type": "Polygon", "coordinates": [ [ [ -122.2157208, 47.4413339 ], [ -122.2156591, 47.4412886 ], [ -122.2156336, 47.4412795 ], [ -122.2155732, 47.4412668 ], [ -122.2152199, 47.4412514 ], [ -122.2149878, 47.441245 ], [ -122.213113, 47.4412242 ], [ -122.213066, 47.4412287 ], [ -122.2130278, 47.441245 ], [ -122.213003, 47.4412659 ], [ -122.2129105, 47.4415026 ], [ -122.2127931, 47.4417312 ], [ -122.2120146, 47.4430264 ], [ -122.211729, 47.4435924 ], [ -122.2115895, 47.4441457 ], [ -122.2114762, 47.4448273 ], [ -122.2115584, 47.4448485 ], [ -122.2147585, 47.4456762 ], [ -122.2161372, 47.4441017 ], [ -122.2161533, 47.4438804 ], [ -122.2157208, 47.4413339 ] ] ] } },
{ "type": "Feature", "properties": { "element_type": "way", "osmid": "485149429", "nodes": [ 356551755, 356551751, 4779165601, 4779165587, 4779165600, 4779165599, 4779165598, 356541742, 4779165597, 4779165596, 4779165595, 4779165594, 4779165593, 4779165592, 4779165591, 4779165590, 4779165589, 4779165588, 356551755 ], "addr:city": "Tukwila", "addr:housenumber": "12844", "addr:postcode": "98168", "addr:street": "Military Road South", "amenity": "hospital", "beds": "nan", "emergency": "no", "gnis:feature_id": "1510105", "healthcare": "hospital", "name": "Cascade Behavioral Health", "opening_hours": "nan", "operator": "nan", "phone": "+1 206 244 0180", "website": "https://www.cascadebh.com/", "wikidata": "nan", "wikipedia": "nan", "wheelchair": "nan", "alt_name": "nan", "fixme": "nan", "healthcare:speciality": "psychiatry", "access": "nan", "ele": "nan", "gnis:county_id": "nan", "gnis:created": "nan", "gnis:state_id": "nan", "old_name": "Highline Medical Center", "addr:state": "nan", "operator:type": "nan", "brand": "nan", "brand:wikidata": "nan", "brand:wikipedia": "nan", "healthcare:for": "nan", "operator:short": "nan", "operator:wikidata": "nan", "short_name": "nan", "addr:country": "nan", "operator:wikipedia": "nan", "source": "nan", "contact:phone": "nan", "contact:website": "nan", "ways": "nan", "type": "nan", "building": "nan", "wikimedia_commons": "nan" }, "geometry": { "type": "Polygon", "coordinates": [ [ [ -122.2948093, 47.4886428 ], [ -122.2953313, 47.4886391 ], [ -122.2953388, 47.4883776 ], [ -122.2962189, 47.4883166 ], [ -122.2969333, 47.4883179 ], [ -122.2967418, 47.4878128 ], [ -122.2963404, 47.4868 ], [ -122.2961613, 47.4861892 ], [ -122.2957181, 47.4862426 ], [ -122.2949485, 47.4862451 ], [ -122.2950761, 47.4868178 ], [ -122.2952639, 47.487002 ], [ -122.2953302, 47.4875967 ], [ -122.2952639, 47.488067 ], [ -122.2949987, 47.488281 ], [ -122.2946637, 47.4884154 ], [ -122.2945679, 47.4885373 ], [ -122.2946084, 47.4885945 ], [ -122.2948093, 47.4886428 ] ] ] } },
{ "type": "Feature", "properties": { "element_type": "way", "osmid": "485155451", "nodes": [ 412371339, 4779224812, 356551762, 6511207683, 356551764, 4413622721, 4413622722, 4413622723, 4413622724, 412371340, 412371339 ], "addr:city": "Seattle", "addr:housenumber": "12101", "addr:postcode": "98146", "addr:street": "Ambaum Boulevard Southwest", "amenity": "hospital", "beds": "nan", "emergency": "no", "gnis:feature_id": "2462525", "healthcare": "hospital", "name": "Schick Shadel Hospital", "opening_hours": "nan", "operator": "nan", "phone": "+1 206 966 6273", "website": "https://www.schickshadel.com/", "wikidata": "nan", "wikipedia": "nan", "wheelchair": "nan", "alt_name": "nan", "fixme": "nan", "healthcare:speciality": "nan", "access": "nan", "ele": "nan", "gnis:county_id": "nan", "gnis:created": "nan", "gnis:state_id": "nan", "old_name": "nan", "addr:state": "WA", "operator:type": "nan", "brand": "nan", "brand:wikidata": "nan", "brand:wikipedia": "nan", "healthcare:for": "nan", "operator:short": "nan", "operator:wikidata": "nan", "short_name": "nan", "addr:country": "US", "operator:wikipedia": "nan", "source": "nan", "contact:phone": "nan", "contact:website": "nan", "ways": "nan", "type": "nan", "building": "nan", "wikimedia_commons": "nan" }, "geometry": { "type": "Polygon", "coordinates": [ [ [ -122.3511986, 47.4939072 ], [ -122.3501378, 47.4939151 ], [ -122.3501559, 47.4947252 ], [ -122.3502561, 47.495019 ], [ -122.3504421, 47.4952475 ], [ -122.3504695, 47.4951191 ], [ -122.3507049, 47.4946999 ], [ -122.3508551, 47.4945984 ], [ -122.3512345, 47.4946026 ], [ -122.3512302, 47.4942288 ], [ -122.3511986, 47.4939072 ] ] ] } },
{ "type": "Feature", "properties": { "element_type": "way", "osmid": "1066764914", "nodes": [ 9795415344, 9795415345, 9795415346, 9795415347, 9795415344 ], "addr:city": "Seattle", "addr:housenumber": "500", "addr:postcode": "98122", "addr:street": "17th Avenue", "amenity": "hospital", "beds": "385", "emergency": "yes", "gnis:feature_id": "nan", "healthcare": "hospital", "name": "Swedish Medical Center Cherry Hill Campus", "opening_hours": "24/7", "operator": "Swedish", "phone": "nan", "website": "nan", "wikidata": "nan", "wikipedia": "nan", "wheelchair": "nan", "alt_name": "nan", "fixme": "nan", "healthcare:speciality": "nan", "access": "nan", "ele": "nan", "gnis:county_id": "nan", "gnis:created": "nan", "gnis:state_id": "nan", "old_name": "nan", "addr:state": "nan", "operator:type": "nan", "brand": "nan", "brand:wikidata": "nan", "brand:wikipedia": "nan", "healthcare:for": "nan", "operator:short": "nan", "operator:wikidata": "nan", "short_name": "nan", "addr:country": "nan", "operator:wikipedia": "nan", "source": "nan", "contact:phone": "+1 (206) 320-2000", "contact:website": "http://www.swedish.org/locations/cherry-hill-campus", "ways": "nan", "type": "nan", "building": "nan", "wikimedia_commons": "nan" }, "geometry": { "type": "Polygon", "coordinates": [ [ [ -122.3090771, 47.6079285 ], [ -122.3127189, 47.6079408 ], [ -122.3127309, 47.6062958 ], [ -122.3090891, 47.606284 ], [ -122.3090771, 47.6079285 ] ] ] } },
{ "type": "Feature", "properties": { "element_type": "relation", "osmid": "5319902", "nodes": [ [ [ 3618474199, 3618474210, 3618474211, 3618474212, 3618474214, 3618474215, 3618474216, 3618474218, 3618474219, 3618474220, 3618474221, 3618474223, 3618474224, 3618474225, 3618474226, 3618474228, 3618474229, 3618474230, 3618474231, 3618474233, 3618474234, 3618474235, 3618474237, 3618474238, 3618474239, 3618474240, 3618474242, 3618474243, 3618474244, 3618474245, 3618474247, 3618474248, 3618474249, 3618474250, 3618474251, 3618474253, 3618474254, 3618474255, 3618474257, 3618474259, 3618474260, 3618474261, 3618474262, 3618474263, 3618474265, 3618474266, 3618474267, 3618474268, 3618474269, 3618474270, 9451064407, 3618474451, 3618474463, 3618474511, 3618474512 ], [ 48581923, 48581925, 3618474508, 9497305275, 48581927, 8410898069, 3618474509, 48581929, 3618474510, 48581931, 8410898058, 1057931219, 48581933, 3618474512 ], [ 48536911, 48588976, 48588978, 8737612502, 1057931221, 7321699658, 48581923 ], [ 48536911, 48574498, 9451064411, 3618462465, 48574501, 3618462462, 3618462463, 9451064409, 3618462464, 48574503, 3618462466, 9451064410, 3618462467, 9451064406, 9451064408, 3618474199 ] ] ], "addr:city": "Bremerton", "addr:housenumber": "2520", "addr:postcode": "98310", "addr:street": "Cherry Avenue", "amenity": "hospital", "beds": "297", "emergency": "yes", "gnis:feature_id": "1531461", "healthcare": "nan", "name": "St. Michael Medical Center Bremerton", "opening_hours": "nan", "operator": "Franciscan Health System", "phone": "+1 360 7443911", "website": "https://www.chifranciscan.org/harrison-medical-center-bremerton.html", "wikidata": "nan", "wikipedia": "nan", "wheelchair": "nan", "alt_name": "nan", "fixme": "nan", "healthcare:speciality": "nan", "access": "nan", "ele": "51", "gnis:county_id": "035", "gnis:created": "09/10/1979", "gnis:state_id": "53", "old_name": "Harrison Bremerton", "addr:state": "WA", "operator:type": "nan", "brand": "nan", "brand:wikidata": "nan", "brand:wikipedia": "nan", "healthcare:for": "nan", "operator:short": "nan", "operator:wikidata": "nan", "short_name": "nan", "addr:country": "US", "operator:wikipedia": "nan", "source": "nan", "contact:phone": "nan", "contact:website": "nan", "ways": [ 356382883, 5918733, 356382886, 5918176 ], "type": "multipolygon", "building": "nan", "wikimedia_commons": "nan" }, "geometry": { "type": "Polygon", "coordinates": [ [ [ -122.6260478, 47.5818159 ], [ -122.62598, 47.58197 ], [ -122.625971, 47.582104 ], [ -122.6259717, 47.5824184 ], [ -122.625974, 47.5834661 ], [ -122.6259746, 47.5837052 ], [ -122.625975, 47.583896 ], [ -122.6255213, 47.583885 ], [ -122.6253101, 47.5839125 ], [ -122.6252631, 47.5839207 ], [ -122.6251303, 47.5839437 ], [ -122.6250557, 47.583969 ], [ -122.6249782, 47.5839954 ], [ -122.624846, 47.5840594 ], [ -122.6247373, 47.5841231 ], [ -122.6246545, 47.5842033 ], [ -122.6245497, 47.58432 ], [ -122.6244385, 47.584445 ], [ -122.624307, 47.584599 ], [ -122.6242665, 47.5846683 ], [ -122.6241882, 47.5846476 ], [ -122.6242334, 47.5834434 ], [ -122.6242421, 47.5832133 ], [ -122.6243083, 47.5823386 ], [ -122.6243119, 47.5822009 ], [ -122.6243141, 47.582199 ], [ -122.6243162, 47.5821971 ], [ -122.6243183, 47.5821952 ], [ -122.6243204, 47.5821932 ], [ -122.6243224, 47.5821912 ], [ -122.6243243, 47.5821892 ], [ -122.6243262, 47.5821872 ], [ -122.624328, 47.5821852 ], [ -122.6243298, 47.5821831 ], [ -122.6243316, 47.582181 ], [ -122.6243332, 47.5821789 ], [ -122.6243348, 47.5821768 ], [ -122.6243364, 47.5821746 ], [ -122.6243379, 47.5821725 ], [ -122.6243394, 47.5821703 ], [ -122.6243408, 47.5821681 ], [ -122.6243421, 47.5821659 ], [ -122.6243434, 47.5821637 ], [ -122.6243446, 47.5821614 ], [ -122.6243458, 47.5821592 ], [ -122.6243469, 47.5821569 ], [ -122.624348, 47.5821546 ], [ -122.6243489, 47.5821523 ], [ -122.6243499, 47.58215 ], [ -122.6243507, 47.5821477 ], [ -122.6243516, 47.5821454 ], [ -122.6243523, 47.582143 ], [ -122.624353, 47.5821407 ], [ -122.6243536, 47.5821383 ], [ -122.6243542, 47.582136 ], [ -122.6243547, 47.5821336 ], [ -122.6243552, 47.5821312 ], [ -122.6243556, 47.5821288 ], [ -122.6243559, 47.5821265 ], [ -122.6243561, 47.5821241 ], [ -122.6243563, 47.5821217 ], [ -122.6243565, 47.5821193 ], [ -122.6243566, 47.5821169 ], [ -122.6243566, 47.5821145 ], [ -122.6243565, 47.5821121 ], [ -122.6243564, 47.5821097 ], [ -122.6243563, 47.5821073 ], [ -122.624356, 47.5821049 ], [ -122.6243558, 47.5821026 ], [ -122.6243554, 47.5821002 ], [ -122.624355, 47.5820978 ], [ -122.6243545, 47.5820954 ], [ -122.6243536, 47.5820916 ], [ -122.6243144, 47.5820428 ], [ -122.6243615, 47.5820259 ], [ -122.6246269, 47.5819013 ], [ -122.6248993, 47.5817849 ], [ -122.624962, 47.5817628 ], [ -122.6249862, 47.5817544 ], [ -122.625099, 47.581728 ], [ -122.6251878, 47.5817146 ], [ -122.6252363, 47.5817097 ], [ -122.6252939, 47.581704 ], [ -122.6253878, 47.5817005 ], [ -122.6254926, 47.5817044 ], [ -122.6256329, 47.5817204 ], [ -122.6257333, 47.5817392 ], [ -122.6257731, 47.5817466 ], [ -122.6260478, 47.5818159 ] ] ] } },
{ "type": "Feature", "properties": { "element_type": "way", "osmid": "38522975", "nodes": [ 455886833, 455886834, 455886835, 9663852112, 455886836, 455886838, 5419998298, 5419998297, 409433722, 409433718, 4346296047, 455886833 ], "addr:city": "Seattle", "addr:housenumber": "nan", "addr:postcode": "nan", "addr:street": "nan", "amenity": "hospital", "beds": "231", "emergency": "yes", "gnis:feature_id": "1509819", "healthcare": "hospital", "name": "University of Washington Medical Center - Northwest", "opening_hours": "nan", "operator": "UW Medicine", "phone": "nan", "website": "https://www.uwmedicine.org/locations/northwest-hospital", "wikidata": "Q7060076", "wikipedia": "nan", "wheelchair": "nan", "alt_name": "UW Medical Center - Northwest", "fixme": "nan", "healthcare:speciality": "nan", "access": "nan", "ele": "121", "gnis:county_id": "033", "gnis:created": "08/01/1990", "gnis:state_id": "53", "old_name": "Northwest Hospital & Medical Center", "addr:state": "nan", "operator:type": "nan", "brand": "nan", "brand:wikidata": "nan", "brand:wikipedia": "nan", "healthcare:for": "nan", "operator:short": "nan", "operator:wikidata": "nan", "short_name": "nan", "addr:country": "nan", "operator:wikipedia": "nan", "source": "nan", "contact:phone": "nan", "contact:website": "nan", "ways": "nan", "type": "nan", "building": "nan", "wikimedia_commons": "nan" }, "geometry": { "type": "Polygon", "coordinates": [ [ [ -122.3394579, 47.7158806 ], [ -122.3355502, 47.71586 ], [ -122.3355313, 47.7151083 ], [ -122.3353643, 47.7151087 ], [ -122.334887, 47.7151094 ], [ -122.334784, 47.712381 ], [ -122.335583, 47.7123839 ], [ -122.3357992, 47.7123848 ], [ -122.3394155, 47.7123893 ], [ -122.3394298, 47.7136082 ], [ -122.3394617, 47.7141465 ], [ -122.3394579, 47.7158806 ] ] ] } },
{ "type": "Feature", "properties": { "element_type": "way", "osmid": "242182549", "nodes": [ 2316556517, 2316556521, 2316556525, 2316556527, 2316556532, 2316556544, 2316556547, 2316556549, 2316556553, 2316556556, 2316556558, 2316556561, 2316556563, 2316556566, 2316556568, 2316556570, 2316556573, 2316556575, 2316556578, 2316556583, 2316556587, 2316556592, 2316556597, 2316556599, 2316556602, 2316556605, 2316556616, 2316556621, 2316556612, 2316556614, 2316556629, 2316556640, 2497005535, 2497005536, 2497005537, 2497005542, 2497005543, 2497005544, 2497005545, 2497005546, 2497005547, 2497005548, 2497005549, 2497005534, 8628406275, 2497005530, 2497005529, 2497005528, 2497005527, 4684782668, 4684782666, 4684782667, 2497005510, 2497005511, 2497005512, 2497005513, 2497005514, 2497005515, 2497005517, 2497005518, 2497005519, 2497005520, 2497005521, 8628406273, 2497005522, 2498965332, 2497005523, 8628406256, 2497005524, 2497005525, 2316556650, 2316556634, 2316556647, 2316556627, 2316556613, 2316556611, 2316556608, 2316556604, 2316556606, 2316556595, 2316556590, 2316556586, 2316556593, 2316556584, 2316556610, 2316556607, 2316556603, 2316556601, 2316556591, 2316556577, 4117793070, 2316556565, 2761504957, 2316556529, 2316577243, 5754425906, 2316577240, 4117793069, 2316556546, 5754425907, 2316556514, 2497005505, 2316556513, 2316556531, 2316556517 ], "addr:city": "Seattle", "addr:housenumber": "1959", "addr:postcode": "98195", "addr:street": "Northeast Pacific Street", "amenity": "hospital", "beds": "450", "emergency": "yes", "gnis:feature_id": "nan", "healthcare": "hospital", "name": "University of Washington Medical Center - Montlake", "opening_hours": "24/7", "operator": "UW Medicine", "phone": "+1 206 598 3300", "website": "https://www.uwmedicine.org/uw-medical-center", "wikidata": "Q7896576", "wikipedia": "en:University of Washington Medical Center", "wheelchair": "nan", "alt_name": "UW Medical Center - Montlake", "fixme": "nan", "healthcare:speciality": "nan", "access": "nan", "ele": "nan", "gnis:county_id": "nan", "gnis:created": "nan", "gnis:state_id": "nan", "old_name": "nan", "addr:state": "nan", "operator:type": "nan", "brand": "nan", "brand:wikidata": "nan", "brand:wikipedia": "nan", "healthcare:for": "nan", "operator:short": "nan", "operator:wikidata": "nan", "short_name": "nan", "addr:country": "nan", "operator:wikipedia": "nan", "source": "nan", "contact:phone": "nan", "contact:website": "nan", "ways": "nan", "type": "nan", "building": "yes", "wikimedia_commons": "Category:University of Washington Medical Center" }, "geometry": { "type": "Polygon", "coordinates": [ [ [ -122.3058174, 47.6486234 ], [ -122.3057359, 47.6486963 ], [ -122.3058045, 47.6487311 ], [ -122.3057752, 47.6487573 ], [ -122.3057506, 47.6487793 ], [ -122.3059235, 47.648867 ], [ -122.3059096, 47.6488794 ], [ -122.3059382, 47.6488939 ], [ -122.3059166, 47.6489132 ], [ -122.3059461, 47.6489282 ], [ -122.3059247, 47.6489473 ], [ -122.3059524, 47.6489614 ], [ -122.305931, 47.6489805 ], [ -122.3059612, 47.6489957 ], [ -122.3059388, 47.6490157 ], [ -122.3059689, 47.649031 ], [ -122.3059464, 47.649051 ], [ -122.3059776, 47.6490669 ], [ -122.3059534, 47.6490885 ], [ -122.305985, 47.6491045 ], [ -122.3059641, 47.6491231 ], [ -122.3059941, 47.6491383 ], [ -122.3059712, 47.6491587 ], [ -122.3059982, 47.6491724 ], [ -122.3059747, 47.6491935 ], [ -122.3060164, 47.6492146 ], [ -122.3058704, 47.6493453 ], [ -122.3059743, 47.649398 ], [ -122.3060891, 47.6492952 ], [ -122.3061588, 47.6493305 ], [ -122.3060498, 47.6494281 ], [ -122.3061595, 47.6494838 ], [ -122.3062719, 47.6493833 ], [ -122.3062193, 47.6493566 ], [ -122.3063725, 47.6492196 ], [ -122.3067778, 47.6494251 ], [ -122.3067308, 47.6494672 ], [ -122.3067985, 47.6495015 ], [ -122.3067435, 47.6495507 ], [ -122.306815, 47.649587 ], [ -122.3067594, 47.6496367 ], [ -122.3069054, 47.6497107 ], [ -122.3068763, 47.6497368 ], [ -122.306948, 47.6497732 ], [ -122.3069114, 47.649806 ], [ -122.3069605, 47.649831 ], [ -122.306998, 47.6497974 ], [ -122.3071314, 47.6498651 ], [ -122.3074108, 47.6496151 ], [ -122.3074406, 47.6496302 ], [ -122.3077674, 47.6497959 ], [ -122.3079862, 47.6499068 ], [ -122.308206, 47.6500183 ], [ -122.3081433, 47.6500745 ], [ -122.30812, 47.6500627 ], [ -122.3078974, 47.6502619 ], [ -122.3078249, 47.6502251 ], [ -122.3077428, 47.6502987 ], [ -122.3078289, 47.6503424 ], [ -122.3078538, 47.6503201 ], [ -122.3080686, 47.6504291 ], [ -122.308299, 47.650223 ], [ -122.3083309, 47.6502392 ], [ -122.3083764, 47.6501984 ], [ -122.3083462, 47.6501831 ], [ -122.3085237, 47.6500243 ], [ -122.3085959, 47.6500609 ], [ -122.3088104, 47.6498689 ], [ -122.3088336, 47.6498481 ], [ -122.3089816, 47.6499232 ], [ -122.3093119, 47.6496275 ], [ -122.3089648, 47.6494515 ], [ -122.3088075, 47.6495923 ], [ -122.3084986, 47.6494356 ], [ -122.3086579, 47.6492931 ], [ -122.3085847, 47.6492559 ], [ -122.3086243, 47.6492205 ], [ -122.3085883, 47.6492022 ], [ -122.3085762, 47.649213 ], [ -122.3084424, 47.6491452 ], [ -122.3084552, 47.6491338 ], [ -122.3084192, 47.6491156 ], [ -122.3083816, 47.6491493 ], [ -122.3082993, 47.6491075 ], [ -122.3081551, 47.6492366 ], [ -122.3081182, 47.6492178 ], [ -122.3081355, 47.6492024 ], [ -122.3080781, 47.6491733 ], [ -122.3080983, 47.6491553 ], [ -122.3079632, 47.6490868 ], [ -122.3081069, 47.6489582 ], [ -122.3081477, 47.6489217 ], [ -122.3077106, 47.6487001 ], [ -122.3071119, 47.6483965 ], [ -122.3070388, 47.6484619 ], [ -122.3070231, 47.648454 ], [ -122.3070001, 47.6484423 ], [ -122.3069797, 47.6484605 ], [ -122.3069313, 47.6485039 ], [ -122.306943, 47.6485098 ], [ -122.3069512, 47.648514 ], [ -122.3068736, 47.6485835 ], [ -122.3067709, 47.6485314 ], [ -122.3063604, 47.6488988 ], [ -122.3058174, 47.6486234 ] ] ] } },
{ "type": "Feature", "properties": { "element_type": "way", "osmid": "292245531", "nodes": [ 2957984090, 3610139433, 3610139434, 2957984092, 4458625545, 4410698992, 4788720280, 4458625543, 3610085759, 2957984093, 2957984094, 2957984095, 2957984096, 3406037573, 3406037570, 2957984097, 2957984098, 2957984099, 2957984100, 3664971738, 2957984101, 2957984090 ], "addr:city": "Seattle", "addr:housenumber": "5300", "addr:postcode": "98107", "addr:street": "Tallman Avenue Northwest", "amenity": "hospital", "beds": "163", "emergency": "yes", "gnis:feature_id": "nan", "healthcare": "hospital", "name": "Swedish Medical Center Ballard Campus", "opening_hours": "24/7", "operator": "Swedish Medical Center", "phone": "+1 206 782 2700", "website": "https://www.swedish.org/locations/ballard-campus", "wikidata": "nan", "wikipedia": "nan", "wheelchair": "nan", "alt_name": "nan", "fixme": "nan", "healthcare:speciality": "nan", "access": "nan", "ele": "nan", "gnis:county_id": "nan", "gnis:created": "nan", "gnis:state_id": "nan", "old_name": "nan", "addr:state": "nan", "operator:type": "nan", "brand": "nan", "brand:wikidata": "nan", "brand:wikipedia": "nan", "healthcare:for": "nan", "operator:short": "nan", "operator:wikidata": "nan", "short_name": "nan", "addr:country": "nan", "operator:wikipedia": "nan", "source": "nan", "contact:phone": "nan", "contact:website": "nan", "ways": "nan", "type": "nan", "building": "nan", "wikimedia_commons": "nan" }, "geometry": { "type": "Polygon", "coordinates": [ [ [ -122.3811571, 47.6682611 ], [ -122.3811258, 47.6682771 ], [ -122.3806113, 47.6685397 ], [ -122.3803689, 47.6685381 ], [ -122.3798963, 47.6681464 ], [ -122.3797209, 47.6682389 ], [ -122.3793765, 47.6684265 ], [ -122.3793032, 47.6683593 ], [ -122.3792355, 47.668359 ], [ -122.3790318, 47.6683582 ], [ -122.3790592, 47.6667438 ], [ -122.3792415, 47.6666426 ], [ -122.3796257, 47.6669643 ], [ -122.3797072, 47.6669215 ], [ -122.3800202, 47.6667571 ], [ -122.3800853, 47.6667246 ], [ -122.3805064, 47.6670778 ], [ -122.3808509, 47.6668955 ], [ -122.3814478, 47.6674066 ], [ -122.3807801, 47.6677679 ], [ -122.38067, 47.6678275 ], [ -122.3811571, 47.6682611 ] ] ] } },
{ "type": "Feature", "properties": { "element_type": "way", "osmid": "485031802", "nodes": [ 4777883126, 4777883125, 4777883124, 4777883123, 4777883122, 7075823181, 4777883121, 4777883126 ], "addr:city": "Everett", "addr:housenumber": "13020", "addr:postcode": "98208", "addr:street": "Meridian Avenue South", "amenity": "hospital", "beds": "0", "emergency": "yes", "gnis:feature_id": "nan", "healthcare": "hospital", "name": "Swedish Medical Center - Mill Creek", "opening_hours": "24/7", "operator": "Swedish Medical Center", "phone": "+1 425 357 3700", "website": "https://www.swedish.org/locations/mill-creek-campus", "wikidata": "nan", "wikipedia": "nan", "wheelchair": "nan", "alt_name": "nan", "fixme": "nan", "healthcare:speciality": "nan", "access": "nan", "ele": "nan", "gnis:county_id": "nan", "gnis:created": "nan", "gnis:state_id": "nan", "old_name": "nan", "addr:state": "WA", "operator:type": "nan", "brand": "nan", "brand:wikidata": "nan", "brand:wikipedia": "nan", "healthcare:for": "nan", "operator:short": "nan", "operator:wikidata": "nan", "short_name": "nan", "addr:country": "nan", "operator:wikipedia": "nan", "source": "nan", "contact:phone": "nan", "contact:website": "nan", "ways": "nan", "type": "nan", "building": "nan", "wikimedia_commons": "nan" }, "geometry": { "type": "Polygon", "coordinates": [ [ [ -122.2335255, 47.8782179 ], [ -122.2346734, 47.8782249 ], [ -122.2350517, 47.8782996 ], [ -122.2360287, 47.878284 ], [ -122.2360494, 47.8791964 ], [ -122.234608, 47.8792043 ], [ -122.2335177, 47.8792103 ], [ -122.2335255, 47.8782179 ] ] ] } },
{ "type": "Feature", "properties": { "element_type": "way", "osmid": "485036588", "nodes": [ 4777927510, 4777927509, 4777927508, 4777927507, 4777927506, 4777927505, 356543069, 4777927504, 4777927510 ], "addr:city": "Edmonds", "addr:housenumber": "21601", "addr:postcode": "98026", "addr:street": "76th Avenue West", "amenity": "hospital", "beds": "217", "emergency": "yes", "gnis:feature_id": "1514488", "healthcare": "hospital", "name": "Swedish Medical Center Edmonds Campus", "opening_hours": "24/7", "operator": "Swedish Medical Center", "phone": "+1 425 640 4000", "website": "https://www.swedish.org/locations/edmonds-campus", "wikidata": "nan", "wikipedia": "nan", "wheelchair": "nan", "alt_name": "nan", "fixme": "nan", "healthcare:speciality": "nan", "access": "nan", "ele": "nan", "gnis:county_id": "nan", "gnis:created": "nan", "gnis:state_id": "nan", "old_name": "Stevens Memorial Hospital", "addr:state": "nan", "operator:type": "nan", "brand": "nan", "brand:wikidata": "nan", "brand:wikipedia": "nan", "healthcare:for": "nan", "operator:short": "nan", "operator:wikidata": "nan", "short_name": "nan", "addr:country": "nan", "operator:wikipedia": "nan", "source": "nan", "contact:phone": "nan", "contact:website": "nan", "ways": "nan", "type": "nan", "building": "nan", "wikimedia_commons": "nan" }, "geometry": { "type": "Polygon", "coordinates": [ [ [ -122.3355831, 47.8042448 ], [ -122.3329036, 47.8042318 ], [ -122.3329146, 47.8031999 ], [ -122.3315796, 47.8031934 ], [ -122.3315979, 47.8014726 ], [ -122.3344655, 47.8014864 ], [ -122.3344556, 47.8024117 ], [ -122.3356027, 47.8024173 ], [ -122.3355831, 47.8042448 ] ] ] } },
{ "type": "Feature", "properties": { "element_type": "way", "osmid": "485040439", "nodes": [ 4777971531, 4777971530, 4777971529, 4777971528, 4777971527, 4777971526, 4777971525, 4777971524, 4777971523, 4777971522, 4777971521, 4777971320, 4777971319, 4777971318, 4777971317, 4777971316, 4777971315, 4777971314, 4777971313, 4777971311, 4777971312, 4777971531 ], "addr:city": "Kirkland", "addr:housenumber": "12040", "addr:postcode": "98034", "addr:street": "Northeast 128th Street", "amenity": "hospital", "beds": "318", "emergency": "yes", "gnis:feature_id": "1510108", "healthcare": "hospital", "name": "EvergreenHealth Kirkland", "opening_hours": "24/7", "operator": "EvergreenHealth", "phone": "+1 425 899 1000", "website": "https://www.evergreenhealth.com/", "wikidata": "nan", "wikipedia": "nan", "wheelchair": "nan", "alt_name": "nan", "fixme": "nan", "healthcare:speciality": "nan", "access": "nan", "ele": "nan", "gnis:county_id": "nan", "gnis:created": "nan", "gnis:state_id": "nan", "old_name": "Evergreen General Hospital", "addr:state": "nan", "operator:type": "nan", "brand": "nan", "brand:wikidata": "nan", "brand:wikipedia": "nan", "healthcare:for": "nan", "operator:short": "nan", "operator:wikidata": "nan", "short_name": "nan", "addr:country": "nan", "operator:wikipedia": "nan", "source": "nan", "contact:phone": "nan", "contact:website": "nan", "ways": "nan", "type": "nan", "building": "nan", "wikimedia_commons": "nan" }, "geometry": { "type": "Polygon", "coordinates": [ [ [ -122.1808988, 47.7150226 ], [ -122.180823, 47.7149814 ], [ -122.1789875, 47.7150176 ], [ -122.1787672, 47.7150061 ], [ -122.1785396, 47.7149748 ], [ -122.1783683, 47.7149172 ], [ -122.1780624, 47.7147575 ], [ -122.1778862, 47.7146011 ], [ -122.1775656, 47.714275 ], [ -122.177502, 47.7142404 ], [ -122.1773086, 47.7141235 ], [ -122.177059, 47.7140461 ], [ -122.1768485, 47.7140198 ], [ -122.1765867, 47.714028 ], [ -122.1760066, 47.7141169 ], [ -122.1759063, 47.7141976 ], [ -122.17585, 47.71428 ], [ -122.1757815, 47.7166576 ], [ -122.1808083, 47.7165852 ], [ -122.1808523, 47.7165654 ], [ -122.1809062, 47.7150901 ], [ -122.1808988, 47.7150226 ] ] ] } },
{ "type": "Feature", "properties": { "element_type": "way", "osmid": "485042186", "nodes": [ 356542723, 4777991064, 4777991063, 4777991062, 1713437306, 4777991061, 1768125458, 1768125457, 356542723 ], "addr:city": "Kirkland", "addr:housenumber": "10200", "addr:postcode": "98034", "addr:street": "Northeast 132nd Street", "amenity": "hospital", "beds": "nan", "emergency": "no", "gnis:feature_id": "1514181", "healthcare": "hospital", "name": "Fairfax Hospital", "opening_hours": "nan", "operator": "nan", "phone": "+1 425 821 2000", "website": "https://www.fairfaxhospital.com/", "wikidata": "nan", "wikipedia": "nan", "wheelchair": "nan", "alt_name": "nan", "fixme": "nan", "healthcare:speciality": "psychiatry", "access": "nan", "ele": "nan", "gnis:county_id": "nan", "gnis:created": "nan", "gnis:state_id": "nan", "old_name": "nan", "addr:state": "nan", "operator:type": "nan", "brand": "nan", "brand:wikidata": "nan", "brand:wikipedia": "nan", "healthcare:for": "nan", "operator:short": "nan", "operator:wikidata": "nan", "short_name": "nan", "addr:country": "nan", "operator:wikipedia": "nan", "source": "nan", "contact:phone": "nan", "contact:website": "nan", "ways": "nan", "type": "nan", "building": "nan", "wikimedia_commons": "nan" }, "geometry": { "type": "Polygon", "coordinates": [ [ [ -122.2050763, 47.7185572 ], [ -122.2050668, 47.719652 ], [ -122.2056092, 47.7196552 ], [ -122.2055902, 47.7203082 ], [ -122.2047081, 47.7202787 ], [ -122.203744, 47.7202858 ], [ -122.2037484, 47.7193237 ], [ -122.2037492, 47.7185438 ], [ -122.2050763, 47.7185572 ] ] ] } },
{ "type": "Feature", "properties": { "element_type": "way", "osmid": "606899516", "nodes": [ 5753014820, 5753014823, 5753014824, 5753014821, 5753014820 ], "addr:city": "Kirkland", "addr:housenumber": "830", "addr:postcode": "98033", "addr:street": "6th Street South", "amenity": "hospital", "beds": "nan", "emergency": "no", "gnis:feature_id": "nan", "healthcare": "hospital", "name": "Eastside Therapeutic Resource", "opening_hours": "nan", "operator": "Eastside Therapeutic Resource", "phone": "nan", "website": "nan", "wikidata": "nan", "wikipedia": "nan", "wheelchair": "nan", "alt_name": "nan", "fixme": "nan", "healthcare:speciality": "dentistry", "access": "nan", "ele": "nan", "gnis:county_id": "nan", "gnis:created": "nan", "gnis:state_id": "nan", "old_name": "nan", "addr:state": "WA", "operator:type": "nan", "brand": "nan", "brand:wikidata": "nan", "brand:wikipedia": "nan", "healthcare:for": "nan", "operator:short": "nan", "operator:wikidata": "nan", "short_name": "nan", "addr:country": "nan", "operator:wikipedia": "nan", "source": "nan", "contact:phone": "nan", "contact:website": "nan", "ways": "nan", "type": "nan", "building": "nan", "wikimedia_commons": "nan" }, "geometry": { "type": "Polygon", "coordinates": [ [ [ -122.1959075, 47.6685013 ], [ -122.1959076, 47.668324 ], [ -122.1956031, 47.668324 ], [ -122.1956134, 47.6685086 ], [ -122.1959075, 47.6685013 ] ] ] } },
{ "type": "Feature", "properties": { "element_type": "relation", "osmid": "7528363", "nodes": [ [ [ 5072001091, 5072001092, 3620791371, 5072001094, 5072001093, 5072001095, 5072001096, 5072001091 ], [ 676964054, 676964075, 676964089, 676964102, 676964140, 676964143, 676964159, 676964171, 676964184, 2716460071, 676964054 ] ] ], "addr:city": "Seattle", "addr:housenumber": "4800", "addr:postcode": "98105", "addr:street": "Sand Point Way Northeast", "amenity": "hospital", "beds": "407", "emergency": "yes", "gnis:feature_id": "2461625", "healthcare": "hospital", "name": "Seattle Children's Hospital", "opening_hours": "24/7", "operator": "nan", "phone": "+1-206-987-2000", "website": "https://www.seattlechildrens.org/", "wikidata": "Q7442069", "wikipedia": "nan", "wheelchair": "nan", "alt_name": "nan", "fixme": "nan", "healthcare:speciality": "paediatrics", "access": "nan", "ele": "nan", "gnis:county_id": "nan", "gnis:created": "nan", "gnis:state_id": "nan", "old_name": "nan", "addr:state": "nan", "operator:type": "nan", "brand": "nan", "brand:wikidata": "nan", "brand:wikipedia": "nan", "healthcare:for": "nan", "operator:short": "nan", "operator:wikidata": "nan", "short_name": "nan", "addr:country": "nan", "operator:wikipedia": "nan", "source": "nan", "contact:phone": "nan", "contact:website": "http://www.seattlechildrens.org/", "ways": [ 520373679, 53589175 ], "type": "multipolygon", "building": "nan", "wikimedia_commons": "nan" }, "geometry": { "type": "MultiPolygon", "coordinates": [ [ [ [ -122.2859493, 47.6621907 ], [ -122.2862146, 47.6622877 ], [ -122.2863533, 47.6626891 ], [ -122.2861549, 47.6628508 ], [ -122.2857499, 47.6630441 ], [ -122.2851705, 47.6630486 ], [ -122.2850106, 47.6630361 ], [ -122.2859493, 47.6621907 ] ] ], [ [ [ -122.2847257, 47.6629124 ], [ -122.2846681, 47.6629666 ], [ -122.2826801, 47.6648384 ], [ -122.280546, 47.6648361 ], [ -122.2805633, 47.6631612 ], [ -122.2805445, 47.6630695 ], [ -122.2804135, 47.663021 ], [ -122.2795344, 47.6630194 ], [ -122.2794993, 47.6613606 ], [ -122.2846888, 47.6613536 ], [ -122.2847257, 47.6629124 ] ] ] ] } },
{ "type": "Feature", "properties": { "element_type": "node", "osmid": "3518714008", "nodes": "nan", "addr:city": "nan", "addr:housenumber": "nan", "addr:postcode": "nan", "addr:street": "nan", "amenity": "hospital", "beds": "nan", "emergency": "no", "gnis:feature_id": "nan", "healthcare": "hospital", "name": "Kaiser Permanente Redmond Medical Center at Riverpark", "opening_hours": "nan", "operator": "Kaiser Permanente", "phone": "+1-888-901-4636", "website": "nan", "wikidata": "nan", "wikipedia": "nan", "wheelchair": "nan", "alt_name": "nan", "fixme": "nan", "healthcare:speciality": "nan", "access": "nan", "ele": "nan", "gnis:county_id": "nan", "gnis:created": "nan", "gnis:state_id": "nan", "old_name": "nan", "addr:state": "nan", "operator:type": "nan", "brand": "nan", "brand:wikidata": "nan", "brand:wikipedia": "nan", "healthcare:for": "nan", "operator:short": "KP", "operator:wikidata": "Q1721601", "short_name": "nan", "addr:country": "nan", "operator:wikipedia": "en:Kaiser Permanente", "source": "nan", "contact:phone": "nan", "contact:website": "nan", "ways": "nan", "type": "nan", "building": "nan", "wikimedia_commons": "nan" }, "geometry": { "type": "Point", "coordinates": [ -122.129091, 47.6732863 ] } },
{ "type": "Feature", "properties": { "element_type": "way", "osmid": "148894456", "nodes": [ 1619532265, 1619532190, 1619532192, 1619532208, 1619532265 ], "addr:city": "Redmond", "addr:housenumber": "18100", "addr:postcode": "98052", "addr:street": "Northeast Union Hill Road", "amenity": "hospital", "beds": "18", "emergency": "yes", "gnis:feature_id": "nan", "healthcare": "hospital", "name": "Swedish Hospital", "opening_hours": "24/7", "operator": "Swedish Medical Center", "phone": "+1 206 320 5190", "website": "https://www.swedish.org/locations/redmond-campus", "wikidata": "nan", "wikipedia": "nan", "wheelchair": "nan", "alt_name": "nan", "fixme": "nan", "healthcare:speciality": "nan", "access": "nan", "ele": "nan", "gnis:county_id": "nan", "gnis:created": "nan", "gnis:state_id": "nan", "old_name": "nan", "addr:state": "nan", "operator:type": "nan", "brand": "nan", "brand:wikidata": "nan", "brand:wikipedia": "nan", "healthcare:for": "nan", "operator:short": "nan", "operator:wikidata": "nan", "short_name": "nan", "addr:country": "nan", "operator:wikipedia": "nan", "source": "nan", "contact:phone": "nan", "contact:website": "nan", "ways": "nan", "type": "nan", "building": "yes", "wikimedia_commons": "nan" }, "geometry": { "type": "Polygon", "coordinates": [ [ [ -122.0996002, 47.6761932 ], [ -122.0985219, 47.676332 ], [ -122.0986002, 47.6766077 ], [ -122.0996785, 47.6764689 ], [ -122.0996002, 47.6761932 ] ] ] } },
{ "type": "Feature", "properties": { "element_type": "way", "osmid": "485032829", "nodes": [ 356551780, 4777892361, 4777892360, 4777892359, 4777892358, 356545887, 356551780 ], "addr:city": "Monroe", "addr:housenumber": "14701", "addr:postcode": "98272", "addr:street": "179th Avenue Southeast", "amenity": "hospital", "beds": "112", "emergency": "yes", "gnis:feature_id": "1523321", "healthcare": "hospital", "name": "EvergreenHealth Monroe", "opening_hours": "24/7", "operator": "EvergreenHealth", "phone": "+1 360 794 7497", "website": "https://www.evergreenhealthmonroe.com/", "wikidata": "nan", "wikipedia": "nan", "wheelchair": "nan", "alt_name": "nan", "fixme": "nan", "healthcare:speciality": "nan", "access": "nan", "ele": "nan", "gnis:county_id": "nan", "gnis:created": "nan", "gnis:state_id": "nan", "old_name": "Valley General Hospital", "addr:state": "nan", "operator:type": "nan", "brand": "nan", "brand:wikidata": "nan", "brand:wikipedia": "nan", "healthcare:for": "nan", "operator:short": "nan", "operator:wikidata": "nan", "short_name": "nan", "addr:country": "nan", "operator:wikipedia": "nan", "source": "nan", "contact:phone": "nan", "contact:website": "nan", "ways": "nan", "type": "nan", "building": "nan", "wikimedia_commons": "nan" }, "geometry": { "type": "Polygon", "coordinates": [ [ [ -121.9905546, 47.8647688 ], [ -121.9897445, 47.8647655 ], [ -121.9869522, 47.8636737 ], [ -121.9864798, 47.8634816 ], [ -121.9864602, 47.8625982 ], [ -121.9905913, 47.8625982 ], [ -121.9905546, 47.8647688 ] ] ] } },
{ "type": "Feature", "properties": { "element_type": "node", "osmid": "5970443480", "nodes": "nan", "addr:city": "Snoqualmie", "addr:housenumber": "37624", "addr:postcode": "nan", "addr:street": "Fury Street Southeast", "amenity": "hospital", "beds": "nan", "emergency": "nan", "gnis:feature_id": "nan", "healthcare": "hospital", "name": "Swedish Snoqualmie Primary care", "opening_hours": "nan", "operator": "nan", "phone": "nan", "website": "nan", "wikidata": "nan", "wikipedia": "nan", "wheelchair": "nan", "alt_name": "nan", "fixme": "nan", "healthcare:speciality": "nan", "access": "nan", "ele": "nan", "gnis:county_id": "nan", "gnis:created": "nan", "gnis:state_id": "nan", "old_name": "nan", "addr:state": "nan", "operator:type": "nan", "brand": "nan", "brand:wikidata": "nan", "brand:wikipedia": "nan", "healthcare:for": "nan", "operator:short": "nan", "operator:wikidata": "nan", "short_name": "nan", "addr:country": "nan", "operator:wikipedia": "nan", "source": "nan", "contact:phone": "nan", "contact:website": "nan", "ways": "nan", "type": "nan", "building": "nan", "wikimedia_commons": "nan" }, "geometry": { "type": "Point", "coordinates": [ -121.838407, 47.5340433 ] } },
{ "type": "Feature", "properties": { "element_type": "node", "osmid": "9236455016", "nodes": "nan", "addr:city": "North Bend", "addr:housenumber": "42804", "addr:postcode": "98045", "addr:street": "Southeast 172nd Street", "amenity": "hospital", "beds": "nan", "emergency": "yes", "gnis:feature_id": "nan", "healthcare": "hospital", "name": "Eastside Fire & Rescue Station88", "opening_hours": "nan", "operator": "nan", "phone": "nan", "website": "nan", "wikidata": "nan", "wikipedia": "nan", "wheelchair": "nan", "alt_name": "nan", "fixme": "nan", "healthcare:speciality": "nan", "access": "nan", "ele": "nan", "gnis:county_id": "nan", "gnis:created": "nan", "gnis:state_id": "nan", "old_name": "nan", "addr:state": "WA", "operator:type": "nan", "brand": "nan", "brand:wikidata": "nan", "brand:wikipedia": "nan", "healthcare:for": "nan", "operator:short": "nan", "operator:wikidata": "nan", "short_name": "nan", "addr:country": "nan", "operator:wikipedia": "nan", "source": "nan", "contact:phone": "nan", "contact:website": "nan", "ways": "nan", "type": "nan", "building": "nan", "wikimedia_commons": "nan" }, "geometry": { "type": "Point", "coordinates": [ -121.7638743, 47.4449555 ] } },
{ "type": "Feature", "properties": { "element_type": "way", "osmid": "152833564", "nodes": [ 1656109932, 1656109941, 1656109945, 1656109935, 1656109934, 1656109929, 1656109943, 1656109927, 4795955525, 1656109931, 1656109933, 1656109932 ], "addr:city": "nan", "addr:housenumber": "nan", "addr:postcode": "nan", "addr:street": "nan", "amenity": "hospital", "beds": "nan", "emergency": "no", "gnis:feature_id": "nan", "healthcare": "hospital", "name": "Eastgate Public Health Center", "opening_hours": "nan", "operator": "nan", "phone": "nan", "website": "nan", "wikidata": "nan", "wikipedia": "nan", "wheelchair": "nan", "alt_name": "nan", "fixme": "nan", "healthcare:speciality": "nan", "access": "nan", "ele": "nan", "gnis:county_id": "nan", "gnis:created": "nan", "gnis:state_id": "nan", "old_name": "nan", "addr:state": "nan", "operator:type": "nan", "brand": "nan", "brand:wikidata": "nan", "brand:wikipedia": "nan", "healthcare:for": "nan", "operator:short": "nan", "operator:wikidata": "nan", "short_name": "nan", "addr:country": "nan", "operator:wikipedia": "nan", "source": "http://www.kingcounty.gov/healthservices/health/locations/eastgate.aspx", "contact:phone": "nan", "contact:website": "nan", "ways": "nan", "type": "nan", "building": "hospital", "wikimedia_commons": "nan" }, "geometry": { "type": "Polygon", "coordinates": [ [ [ -122.1503137, 47.5812375 ], [ -122.1498431, 47.5815546 ], [ -122.1497819, 47.5815152 ], [ -122.1497107, 47.5815585 ], [ -122.1495522, 47.5814499 ], [ -122.1495187, 47.5814711 ], [ -122.1493027, 47.5813203 ], [ -122.1497732, 47.5810109 ], [ -122.1500239, 47.5811742 ], [ -122.1501961, 47.5812294 ], [ -122.1502518, 47.5811926 ], [ -122.1503137, 47.5812375 ] ] ] } },
{ "type": "Feature", "properties": { "element_type": "way", "osmid": "384088396", "nodes": [ 3874108641, 4778814526, 4778814525, 4778814524, 4778814523, 3873844998, 3873844993, 3873845036, 3873845037, 3873845038, 3873844994, 2312196785, 3874108632, 2312196786, 3873818267, 3873818268, 3873818269, 3874108633, 3874108634, 3874108635, 9659827262, 3874108638, 9659827267, 8833149084, 3874108636, 3874108640, 3874108641 ], "addr:city": "Issaquah", "addr:housenumber": "751", "addr:postcode": "98029", "addr:street": "Northeast Blakely Drive", "amenity": "hospital", "beds": "120", "emergency": "yes", "gnis:feature_id": "nan", "healthcare": "hospital", "name": "Swedish Issaquah", "opening_hours": "24/7", "operator": "Swedish Medical Center", "phone": "+1 425 313 4000", "website": "https://www.swedish.org/locations/issaquah-campus", "wikidata": "nan", "wikipedia": "nan", "wheelchair": "nan", "alt_name": "nan", "fixme": "nan", "healthcare:speciality": "nan", "access": "nan", "ele": "nan", "gnis:county_id": "nan", "gnis:created": "nan", "gnis:state_id": "nan", "old_name": "nan", "addr:state": "nan", "operator:type": "nan", "brand": "nan", "brand:wikidata": "nan", "brand:wikipedia": "nan", "healthcare:for": "nan", "operator:short": "nan", "operator:wikidata": "nan", "short_name": "nan", "addr:country": "nan", "operator:wikipedia": "nan", "source": "nan", "contact:phone": "nan", "contact:website": "nan", "ways": "nan", "type": "nan", "building": "nan", "wikimedia_commons": "nan" }, "geometry": { "type": "Polygon", "coordinates": [ [ [ -122.0226096, 47.5348737 ], [ -122.0229557, 47.5350234 ], [ -122.0238426, 47.5355327 ], [ -122.0238364, 47.5365036 ], [ -122.023704, 47.5364683 ], [ -122.0206456, 47.5364625 ], [ -122.020507, 47.5364766 ], [ -122.0204872, 47.5364765 ], [ -122.020426, 47.5364788 ], [ -122.0203984, 47.5364438 ], [ -122.01977, 47.5357832 ], [ -122.0196193, 47.535641 ], [ -122.0197253, 47.5355749 ], [ -122.0197937, 47.5355595 ], [ -122.0198902, 47.5354989 ], [ -122.0200431, 47.5353483 ], [ -122.0201129, 47.535198 ], [ -122.0201424, 47.5351409 ], [ -122.0202219, 47.5350903 ], [ -122.0203296, 47.5350533 ], [ -122.0209354, 47.5349357 ], [ -122.0210362, 47.5348783 ], [ -122.021258, 47.5348547 ], [ -122.0219018, 47.5349043 ], [ -122.021987, 47.5349067 ], [ -122.0225293, 47.5348909 ], [ -122.0226096, 47.5348737 ] ] ] } },
{ "type": "Feature", "properties": { "element_type": "way", "osmid": "472880243", "nodes": [ 4670658633, 4670658632, 4670658647, 7805123290, 7805123289, 7805123291, 7805123292, 4670658646, 4670658594, 4670658595, 4670658266, 4670658268, 4670658226, 4670658229, 4670658220, 4670658278, 4670658281, 4670658285, 4670658671, 4670658633 ], "addr:city": "Covington", "addr:housenumber": "17700", "addr:postcode": "98042", "addr:street": "Southeast 272nd Street", "amenity": "hospital", "beds": "58", "emergency": "yes", "gnis:feature_id": "nan", "healthcare": "hospital", "name": "MultiCare Covington Medical Center", "opening_hours": "24/7", "operator": "MultiCare Health System", "phone": "+1 253 372 7100", "website": "https://www.multicare.org/multicare-covington-medical-center/", "wikidata": "nan", "wikipedia": "nan", "wheelchair": "nan", "alt_name": "nan", "fixme": "nan", "healthcare:speciality": "nan", "access": "nan", "ele": "nan", "gnis:county_id": "nan", "gnis:created": "nan", "gnis:state_id": "nan", "old_name": "nan", "addr:state": "nan", "operator:type": "nan", "brand": "nan", "brand:wikidata": "nan", "brand:wikipedia": "nan", "healthcare:for": "nan", "operator:short": "nan", "operator:wikidata": "nan", "short_name": "nan", "addr:country": "nan", "operator:wikipedia": "nan", "source": "nan", "contact:phone": "nan", "contact:website": "nan", "ways": "nan", "type": "nan", "building": "nan", "wikimedia_commons": "nan" }, "geometry": { "type": "Polygon", "coordinates": [ [ [ -122.1028173, 47.3598833 ], [ -122.1027109, 47.3598736 ], [ -122.1027126, 47.3601307 ], [ -122.1023631, 47.3601227 ], [ -122.1023569, 47.3602745 ], [ -122.1014575, 47.3602574 ], [ -122.1014558, 47.3601926 ], [ -122.1013843, 47.360164 ], [ -122.1017826, 47.3597303 ], [ -122.1026523, 47.3597377 ], [ -122.1026617, 47.3585869 ], [ -122.1039657, 47.3585917 ], [ -122.1045452, 47.3582187 ], [ -122.1058702, 47.3582441 ], [ -122.1060338, 47.358206 ], [ -122.1060124, 47.3588855 ], [ -122.105897, 47.3589673 ], [ -122.1058514, 47.3590417 ], [ -122.1036567, 47.3604789 ], [ -122.1028173, 47.3598833 ] ] ] } },
{ "type": "Feature", "properties": { "element_type": "way", "osmid": "485118348", "nodes": [ 4778865308, 4778865307, 4778865306, 4778865305, 4778865304, 4778865303, 3474057435, 4778865302, 4778865301, 4778865300, 4778865299, 4778865298, 4778865297, 4778865296, 4778865295, 4778865294, 4778865293, 4778865292, 4778865291, 4778865290, 4778865308 ], "addr:city": "Snoqualmie", "addr:housenumber": "9801", "addr:postcode": "98065", "addr:street": "Frontier Avenue Southeast", "amenity": "hospital", "beds": "25", "emergency": "yes", "gnis:feature_id": "nan", "healthcare": "hospital", "name": "Snoqualmie Valley Hospital", "opening_hours": "24/7", "operator": "nan", "phone": "+1 425 831 2300", "website": "https://snoqualmiehospital.org/", "wikidata": "nan", "wikipedia": "nan", "wheelchair": "nan", "alt_name": "nan", "fixme": "nan", "healthcare:speciality": "nan", "access": "nan", "ele": "nan", "gnis:county_id": "nan", "gnis:created": "nan", "gnis:state_id": "nan", "old_name": "nan", "addr:state": "WA", "operator:type": "nan", "brand": "nan", "brand:wikidata": "nan", "brand:wikipedia": "nan", "healthcare:for": "nan", "operator:short": "nan", "operator:wikidata": "nan", "short_name": "nan", "addr:country": "nan", "operator:wikipedia": "nan", "source": "nan", "contact:phone": "nan", "contact:website": "nan", "ways": "nan", "type": "nan", "building": "nan", "wikimedia_commons": "nan" }, "geometry": { "type": "Polygon", "coordinates": [ [ [ -121.8859948, 47.5136811 ], [ -121.8859517, 47.5135077 ], [ -121.8858479, 47.513329 ], [ -121.8857078, 47.5132273 ], [ -121.8855054, 47.5131502 ], [ -121.8853653, 47.5130871 ], [ -121.8851941, 47.512975 ], [ -121.8847893, 47.5124493 ], [ -121.884836, 47.5123476 ], [ -121.8847997, 47.5122635 ], [ -121.884644, 47.5122144 ], [ -121.884452, 47.5119551 ], [ -121.8848101, 47.5118569 ], [ -121.8851525, 47.5117903 ], [ -121.8866055, 47.5117588 ], [ -121.8866574, 47.5122285 ], [ -121.8866218, 47.5132706 ], [ -121.8865203, 47.5134991 ], [ -121.8863876, 47.5136168 ], [ -121.8862041, 47.5136761 ], [ -121.8859948, 47.5136811 ] ] ] } },
{ "type": "Feature", "properties": { "element_type": "way", "osmid": "485252295", "nodes": [ 4780303093, 5197185340, 4780303092, 4780303091, 4780303090, 4780303089, 4780303088, 356550576, 4780303087, 4780303086, 4780303085, 4780303084, 4780303083, 4780303082, 4780303081, 4780303080, 5197185342, 5197185344, 4780303079, 4780303078, 4780303077, 4780303076, 5197185343, 5197185341, 4780303093 ], "addr:city": "Enumclaw", "addr:housenumber": "1455", "addr:postcode": "98022", "addr:street": "Battersby Avenue", "amenity": "hospital", "beds": "38", "emergency": "yes", "gnis:feature_id": "2461626", "healthcare": "hospital", "name": "St. Elizabeth Hospital", "opening_hours": "24/7", "operator": "CHI Franciscan Health", "phone": "+1 360 802 8800", "website": "https://www.chifranciscan.org/st-elizabeth-hospital.html", "wikidata": "Q7587851", "wikipedia": "nan", "wheelchair": "nan", "alt_name": "nan", "fixme": "nan", "healthcare:speciality": "nan", "access": "nan", "ele": "nan", "gnis:county_id": "nan", "gnis:created": "nan", "gnis:state_id": "nan", "old_name": "nan", "addr:state": "nan", "operator:type": "nan", "brand": "nan", "brand:wikidata": "nan", "brand:wikipedia": "nan", "healthcare:for": "nan", "operator:short": "nan", "operator:wikidata": "nan", "short_name": "nan", "addr:country": "nan", "operator:wikipedia": "nan", "source": "nan", "contact:phone": "nan", "contact:website": "nan", "ways": "nan", "type": "nan", "building": "nan", "wikimedia_commons": "nan" }, "geometry": { "type": "Polygon", "coordinates": [ [ [ -121.9883519, 47.2077326 ], [ -121.9879111, 47.2081509 ], [ -121.9877079, 47.2083438 ], [ -121.9873501, 47.2087101 ], [ -121.9873118, 47.208783 ], [ -121.9872734, 47.2088594 ], [ -121.987253, 47.2089358 ], [ -121.9872632, 47.209125 ], [ -121.9872658, 47.2098472 ], [ -121.9877846, 47.2098403 ], [ -121.9877871, 47.2101562 ], [ -121.988265, 47.2101562 ], [ -121.9883136, 47.2101128 ], [ -121.9882982, 47.2088038 ], [ -121.9883059, 47.2086858 ], [ -121.9885308, 47.208474 ], [ -121.9885832, 47.2084997 ], [ -121.9887474, 47.2085803 ], [ -121.9892847, 47.2088438 ], [ -121.9893588, 47.2087656 ], [ -121.9894994, 47.2087639 ], [ -121.9895045, 47.2082795 ], [ -121.9891743, 47.2081228 ], [ -121.9890327, 47.2080556 ], [ -121.9883519, 47.2077326 ] ] ] } }
]
}
