{
"type": "FeatureCollection",
"crs": { "type": "name", "properties": { "name": "urn:ogc:def:crs:OGC:1.3:CRS84" } },
"features": [
{ "type": "Feature", "properties": { "element_type": "node", "osmid": "5653310673", "amenity": "university", "name": "City University of Seattle", "nodes": "nan", "addr:city": "nan", "addr:country": "nan", "addr:housenumber": "nan", "addr:postcode": "nan", "addr:street": "nan", "ele": "nan", "gnis:county_id": "nan", "gnis:created": "nan", "gnis:feature_id": "nan", "gnis:state_id": "nan", "website": "nan", "wheelchair": "nan", "wikidata": "nan", "wikipedia": "nan", "addr:state": "nan", "operator": "nan", "source": "nan", "addr:suite": "nan", "brand": "nan", "brand:wikidata": "nan", "brand:wikipedia": "nan", "short_name": "nan", "ways": "nan", "start_date": "nan", "type": "nan", "gnis:edited": "nan", "addr:housename": "nan", "building": "nan", "alt_name": "nan", "alt_name:zh": "nan", "alt_name:zh-Hans": "nan", "alt_name:zh-Hant": "nan", "internet_access": "nan", "name:en": "nan", "name:zh": "nan", "name:zh-Hans": "nan", "name:zh-Hant": "nan" }, "geometry": { "type": "Point", "coordinates": [ -122.4395451, 47.2515717 ] } },
{ "type": "Feature", "properties": { "element_type": "way", "osmid": "24727532", "amenity": "university", "name": "University of Puget Sound", "nodes": [ 268755269, 5397693542, 110472923, 110472925, 110472928, 256000502, 5397693533, 110472893, 5397693563, 5397693562, 5397693561, 5397693564, 5397693560, 5397693559, 110472817, 2111817887, 110459482, 5395390817, 4534703148, 110783284, 110685252, 5397693558, 5397693557, 5397693556, 5397693555, 5404053545, 5397693554, 110767029, 5397693553, 5397693552, 5397693551, 5397693550, 5397693549, 5397693548, 110685239, 10019964110, 5397693546, 5397693544, 5397693545, 110761613, 5397693543, 268755269 ], "addr:city": "Tacoma", "addr:country": "US", "addr:housenumber": "1500", "addr:postcode": "98416", "addr:street": "North Warner Street", "ele": "102", "gnis:county_id": "053", "gnis:created": "07/01/1994", "gnis:feature_id": "1509184", "gnis:state_id": "53", "website": "https://www.pugetsound.edu/", "wheelchair": "limited", "wikidata": "Q956780", "wikipedia": "en:University of Puget Sound", "addr:state": "nan", "operator": "nan", "source": "nan", "addr:suite": "nan", "brand": "nan", "brand:wikidata": "nan", "brand:wikipedia": "nan", "short_name": "nan", "ways": "nan", "start_date": "nan", "type": "nan", "gnis:edited": "nan", "addr:housename": "nan", "building": "nan", "alt_name": "nan", "alt_name:zh": "nan", "alt_name:zh-Hans": "nan", "alt_name:zh-Hant": "nan", "internet_access": "nan", "name:en": "nan", "name:zh": "nan", "name:zh-Hans": "nan", "name:zh-Hant": "nan" }, "geometry": { "type": "Polygon", "coordinates": [ [ [ -122.4822182, 47.2581709 ], [ -122.4834792, 47.2581636 ], [ -122.4835718, 47.258076 ], [ -122.4837504, 47.2581111 ], [ -122.4838747, 47.2583944 ], [ -122.4841058, 47.2588085 ], [ -122.4842853, 47.2590886 ], [ -122.4842893, 47.2600206 ], [ -122.4842616, 47.2618537 ], [ -122.4855294, 47.2618579 ], [ -122.4855363, 47.2626629 ], [ -122.4848314, 47.2626582 ], [ -122.4848694, 47.2636121 ], [ -122.4842452, 47.2636089 ], [ -122.4842894, 47.2654175 ], [ -122.4833341, 47.2654458 ], [ -122.4826332, 47.2654445 ], [ -122.4825115, 47.2654442 ], [ -122.4822604, 47.2654437 ], [ -122.4810732, 47.2654415 ], [ -122.4794067, 47.2654383 ], [ -122.4778365, 47.2654354 ], [ -122.4778809, 47.2652324 ], [ -122.4779093, 47.2650453 ], [ -122.4779227, 47.2640693 ], [ -122.4779222, 47.2637359 ], [ -122.4779217, 47.2634095 ], [ -122.4778908, 47.2627176 ], [ -122.4779232, 47.2622267 ], [ -122.4779101, 47.2613322 ], [ -122.4779115, 47.2609144 ], [ -122.4779268, 47.2603792 ], [ -122.4779449, 47.2599563 ], [ -122.479462, 47.2599745 ], [ -122.4794313, 47.2579705 ], [ -122.479492, 47.2579706 ], [ -122.4807544, 47.2579716 ], [ -122.4807781, 47.2576197 ], [ -122.4818521, 47.2576176 ], [ -122.4819337, 47.2576629 ], [ -122.4819244, 47.2581681 ], [ -122.4822182, 47.2581709 ] ] ] } },
{ "type": "Feature", "properties": { "element_type": "way", "osmid": "25103544", "amenity": "university", "name": "Pacific Lutheran University", "nodes": [ 110485735, 5845644443, 5845644444, 5845644445, 6412885389, 5845644446, 5845644799, 5845644800, 356547822, 5845644798, 5845644447, 6412634607, 5845644794, 5845644793, 5845644425, 5845644796, 6415306273, 6415306274, 5845644448, 5845644679, 5845644449, 5845644450, 5845644665, 5845644664, 5845644663, 5845644451, 6415223998, 5845644452, 6554150683, 5845644453, 5845644707, 5845644708, 5845644709, 5845644710, 5845644711, 5845644719, 273246086, 273246082, 5845644716, 5845644717, 5845645187, 273246079, 4093361745, 5845645179, 110685652, 110685650, 5845644916, 110685648, 5845644933, 110685644, 110492338, 110492331, 110646066, 110485735 ], "addr:city": "Tacoma", "addr:country": "nan", "addr:housenumber": "12180", "addr:postcode": "98447", "addr:street": "Park Avenue South", "ele": "100", "gnis:county_id": "053", "gnis:created": "09/10/1979", "gnis:feature_id": "1507249", "gnis:state_id": "53", "website": "nan", "wheelchair": "nan", "wikidata": "Q3439925", "wikipedia": "nan", "addr:state": "WA", "operator": "nan", "source": "nan", "addr:suite": "nan", "brand": "nan", "brand:wikidata": "nan", "brand:wikipedia": "nan", "short_name": "nan", "ways": "nan", "start_date": "nan", "type": "nan", "gnis:edited": "nan", "addr:housename": "nan", "building": "nan", "alt_name": "nan", "alt_name:zh": "nan", "alt_name:zh-Hans": "nan", "alt_name:zh-Hant": "nan", "internet_access": "nan", "name:en": "nan", "name:zh": "nan", "name:zh-Hans": "nan", "name:zh-Hant": "nan" }, "geometry": { "type": "Polygon", "coordinates": [ [ [ -122.4450054, 47.147653 ], [ -122.4449444, 47.147736 ], [ -122.4449497, 47.1483271 ], [ -122.4371552, 47.1482623 ], [ -122.437195, 47.1475189 ], [ -122.4371975, 47.1474893 ], [ -122.4369634, 47.1474873 ], [ -122.4346468, 47.1474691 ], [ -122.4346385, 47.1469316 ], [ -122.434654, 47.1462161 ], [ -122.4346608, 47.1460638 ], [ -122.4346293, 47.1460644 ], [ -122.4346207, 47.1460635 ], [ -122.4346302, 47.1454811 ], [ -122.4360993, 47.1454922 ], [ -122.437021, 47.1454992 ], [ -122.4370307, 47.1454992 ], [ -122.4372213, 47.1454999 ], [ -122.4372491, 47.1455 ], [ -122.43725, 47.1453685 ], [ -122.437274, 47.1433648 ], [ -122.4388001, 47.1433767 ], [ -122.4388019, 47.1432669 ], [ -122.4388123, 47.1426495 ], [ -122.4397478, 47.1426567 ], [ -122.4399364, 47.1426582 ], [ -122.4399465, 47.1420565 ], [ -122.4399478, 47.1419772 ], [ -122.4399537, 47.1419772 ], [ -122.4426325, 47.1419981 ], [ -122.4426385, 47.140245 ], [ -122.44378, 47.1402465 ], [ -122.4437806, 47.1400189 ], [ -122.4446927, 47.1400201 ], [ -122.4446931, 47.1398951 ], [ -122.4462735, 47.1399074 ], [ -122.4462442, 47.1409368 ], [ -122.4501753, 47.1409887 ], [ -122.4501843, 47.1406733 ], [ -122.451526, 47.140691 ], [ -122.4515299, 47.1424562 ], [ -122.451502, 47.1441471 ], [ -122.4507476, 47.1441414 ], [ -122.4502794, 47.1441378 ], [ -122.450307, 47.144352 ], [ -122.450292, 47.14487 ], [ -122.4502877, 47.1449695 ], [ -122.450262, 47.145716 ], [ -122.4502601, 47.145772 ], [ -122.450253, 47.145962 ], [ -122.4502501, 47.1469915 ], [ -122.447695, 47.146966 ], [ -122.4476798, 47.147681 ], [ -122.4450054, 47.147653 ] ] ] } },
{ "type": "Feature", "properties": { "element_type": "way", "osmid": "431788141", "amenity": "university", "name": "University of Washington Tacoma", "nodes": [ 110822071, 4310054847, 5429918333, 10021474579, 5429918335, 5429918334, 5429918330, 5429918331, 3807411690, 5429918341, 5429918340, 10791320685, 5430076841, 9508432255, 5430076839, 5429918338, 5429918336, 110822071 ], "addr:city": "Tacoma", "addr:country": "nan", "addr:housenumber": "1900", "addr:postcode": "98402", "addr:street": "Commerce Street", "ele": "nan", "gnis:county_id": "nan", "gnis:created": "nan", "gnis:feature_id": "nan", "gnis:state_id": "nan", "website": "https://www.tacoma.uw.edu/urban-studies/ms-program-overview", "wheelchair": "nan", "wikidata": "Q7896583", "wikipedia": "en:University of Washington Tacoma", "addr:state": "WA", "operator": "University of Washington", "source": "nan", "addr:suite": "nan", "brand": "nan", "brand:wikidata": "nan", "brand:wikipedia": "nan", "short_name": "nan", "ways": "nan", "start_date": "nan", "type": "nan", "gnis:edited": "nan", "addr:housename": "nan", "building": "nan", "alt_name": "nan", "alt_name:zh": "nan", "alt_name:zh-Hans": "nan", "alt_name:zh-Hant": "nan", "internet_access": "nan", "name:en": "nan", "name:zh": "nan", "name:zh-Hans": "nan", "name:zh-Hant": "nan" }, "geometry": { "type": "Polygon", "coordinates": [ [ [ -122.4430325, 47.2465889 ], [ -122.442097, 47.2424697 ], [ -122.4370872, 47.2430363 ], [ -122.4371005, 47.2430942 ], [ -122.4372606, 47.243776 ], [ -122.4371813, 47.2437845 ], [ -122.4366684, 47.2438382 ], [ -122.4365857, 47.2438461 ], [ -122.4373678, 47.2470713 ], [ -122.4381674, 47.2477974 ], [ -122.4380819, 47.2474806 ], [ -122.438116, 47.2474768 ], [ -122.4382243, 47.2474651 ], [ -122.4385603, 47.2474356 ], [ -122.4386491, 47.2474265 ], [ -122.4387053, 47.2474192 ], [ -122.4386236, 47.2470474 ], [ -122.4430325, 47.2465889 ] ] ] } },
{ "type": "Feature", "properties": { "element_type": "node", "osmid": "356552238", "amenity": "university", "name": "Embry - Riddle Aeronautical University", "nodes": "nan", "addr:city": "nan", "addr:country": "nan", "addr:housenumber": "nan", "addr:postcode": "nan", "addr:street": "nan", "ele": "9", "gnis:county_id": "033", "gnis:created": "11/03/2008", "gnis:feature_id": "2494361", "gnis:state_id": "53", "website": "nan", "wheelchair": "nan", "wikidata": "nan", "wikipedia": "nan", "addr:state": "nan", "operator": "nan", "source": "nan", "addr:suite": "nan", "brand": "nan", "brand:wikidata": "nan", "brand:wikipedia": "nan", "short_name": "nan", "ways": "nan", "start_date": "nan", "type": "nan", "gnis:edited": "nan", "addr:housename": "nan", "building": "nan", "alt_name": "nan", "alt_name:zh": "nan", "alt_name:zh-Hans": "nan", "alt_name:zh-Hant": "nan", "internet_access": "nan", "name:en": "nan", "name:zh": "nan", "name:zh-Hans": "nan", "name:zh-Hant": "nan" }, "geometry": { "type": "Point", "coordinates": [ -122.2336364, 47.470543 ] } },
{ "type": "Feature", "properties": { "element_type": "node", "osmid": "4425878402", "amenity": "university", "name": "University of Washington - Professional & Continuing Education", "nodes": "nan", "addr:city": "Seattle", "addr:country": "nan", "addr:housenumber": "1325", "addr:postcode": "nan", "addr:street": "4th Avenue", "ele": "nan", "gnis:county_id": "nan", "gnis:created": "nan", "gnis:feature_id": "nan", "gnis:state_id": "nan", "website": "https://www.pce.uw.edu/", "wheelchair": "nan", "wikidata": "nan", "wikipedia": "nan", "addr:state": "nan", "operator": "University of Washington", "source": "nan", "addr:suite": "400", "brand": "nan", "brand:wikidata": "nan", "brand:wikipedia": "nan", "short_name": "nan", "ways": "nan", "start_date": "nan", "type": "nan", "gnis:edited": "nan", "addr:housename": "nan", "building": "nan", "alt_name": "nan", "alt_name:zh": "nan", "alt_name:zh-Hans": "nan", "alt_name:zh-Hant": "nan", "internet_access": "nan", "name:en": "nan", "name:zh": "nan", "name:zh-Hans": "nan", "name:zh-Hant": "nan" }, "geometry": { "type": "Point", "coordinates": [ -122.3358609, 47.6087111 ] } },
{ "type": "Feature", "properties": { "element_type": "node", "osmid": "6312094607", "amenity": "university", "name": "University of Phoenix - Western Washington Campus", "nodes": "nan", "addr:city": "Tukwila", "addr:country": "nan", "addr:housenumber": "7100", "addr:postcode": "98188", "addr:street": "Fort Dent Way", "ele": "nan", "gnis:county_id": "nan", "gnis:created": "nan", "gnis:feature_id": "nan", "gnis:state_id": "nan", "website": "https://www.phoenix.edu/campus-locations/wa/seattle-tacoma-campus.html", "wheelchair": "nan", "wikidata": "nan", "wikipedia": "nan", "addr:state": "WA", "operator": "nan", "source": "nan", "addr:suite": "nan", "brand": "University of Phoenix", "brand:wikidata": "Q1889100", "brand:wikipedia": "en:University of Phoenix", "short_name": "UOPX", "ways": "nan", "start_date": "nan", "type": "nan", "gnis:edited": "nan", "addr:housename": "nan", "building": "nan", "alt_name": "nan", "alt_name:zh": "nan", "alt_name:zh-Hans": "nan", "alt_name:zh-Hant": "nan", "internet_access": "nan", "name:en": "nan", "name:zh": "nan", "name:zh-Hans": "nan", "name:zh-Hant": "nan" }, "geometry": { "type": "Point", "coordinates": [ -122.246496, 47.4683963 ] } },
{ "type": "Feature", "properties": { "element_type": "way", "osmid": "25795860", "amenity": "university", "name": "Green River College", "nodes": [ 281368867, 281369816, 281369817, 281368868, 281369771, 281369773, 281369810, 281368869, 281369796, 281369774, 281369777, 281369775, 281369815, 281369772, 4738205878, 281368870, 281368871, 281369764, 281368872, 281368873, 281369763, 281369762, 281368874, 281369761, 281369731, 281369735, 281369729, 281369734, 281369727, 281369736, 281369728, 281369737, 281369730, 281369733, 281369745, 281369726, 281368879, 281368880, 281368881, 4738205948, 4809330256, 281368883, 5179215374, 4809330255, 4809330254, 281368888, 4738206007, 4738206033, 4738206041, 281368890, 281368891, 4738206040, 281368892, 281368893, 281368894, 281368895, 281368896, 4738206053, 281368897, 4738206059, 281368899, 281368900, 281368901, 281368902, 281368903, 281368905, 4807473681, 5087006000, 4714749315, 4807473688, 4807473682, 4714749385, 4958111909, 4738206213, 4958219561, 4807473685, 4807473720, 4714749457, 4807473686, 4807473679, 281368907, 5138750099, 5138750101, 281368908, 281368909, 281369279, 281368910, 281369281, 281368911, 281369283, 281368912, 281368913, 281368914, 4807473786, 4807473785, 281368915, 281369289, 281369287, 281369291, 281368916, 281369293, 281369285, 4738205908, 281368917, 4738205911, 281368918, 281368921, 281369295, 4807473839, 281368923, 4807473846, 4807473842, 281368926, 281369306, 281369297, 281369303, 281368927, 281369299, 281369308, 4738205934, 281369301, 281369310, 281368949, 281369313, 4738205933, 281368960, 281368961, 281368962, 281368963, 281368964, 281368965, 281369770, 281369769, 281368966, 7341004824, 281369768, 7341004822, 281368975, 281369767, 281369766, 281368976, 281369765, 281368977, 281369818, 281368867 ], "addr:city": "nan", "addr:country": "nan", "addr:housenumber": "nan", "addr:postcode": "nan", "addr:street": "nan", "ele": "nan", "gnis:county_id": "nan", "gnis:created": "nan", "gnis:feature_id": "nan", "gnis:state_id": "nan", "website": "nan", "wheelchair": "nan", "wikidata": "Q5603127", "wikipedia": "nan", "addr:state": "nan", "operator": "nan", "source": "nan", "addr:suite": "nan", "brand": "nan", "brand:wikidata": "nan", "brand:wikipedia": "nan", "short_name": "nan", "ways": "nan", "start_date": "nan", "type": "nan", "gnis:edited": "nan", "addr:housename": "nan", "building": "nan", "alt_name": "nan", "alt_name:zh": "nan", "alt_name:zh-Hans": "nan", "alt_name:zh-Hant": "nan", "internet_access": "nan", "name:en": "nan", "name:zh": "nan", "name:zh-Hans": "nan", "name:zh-Hant": "nan" }, "geometry": { "type": "Polygon", "coordinates": [ [ [ -122.1825253, 47.3100972 ], [ -122.1826472, 47.310144 ], [ -122.1827135, 47.3101795 ], [ -122.182779, 47.3102264 ], [ -122.1828589, 47.3103039 ], [ -122.1828747, 47.3103243 ], [ -122.1828817, 47.310337 ], [ -122.1828862, 47.3103522 ], [ -122.1828874, 47.3103639 ], [ -122.1828861, 47.310379 ], [ -122.1828828, 47.3103919 ], [ -122.1828758, 47.3104061 ], [ -122.1828641, 47.3104203 ], [ -122.1828477, 47.3104363 ], [ -122.1827358, 47.3105193 ], [ -122.1826627, 47.3105736 ], [ -122.1828308, 47.3106996 ], [ -122.1828747, 47.3107396 ], [ -122.1829165, 47.3107954 ], [ -122.1829843, 47.3109448 ], [ -122.1829921, 47.3109699 ], [ -122.1829977, 47.3109892 ], [ -122.1830036, 47.3110119 ], [ -122.183007, 47.3110302 ], [ -122.1830086, 47.3110454 ], [ -122.1830087, 47.3110603 ], [ -122.1830071, 47.3110762 ], [ -122.1830036, 47.31109 ], [ -122.1829978, 47.3111044 ], [ -122.1829912, 47.3111137 ], [ -122.1829821, 47.3111236 ], [ -122.1829711, 47.3111312 ], [ -122.1829579, 47.3111385 ], [ -122.18294, 47.311146 ], [ -122.1829241, 47.3111516 ], [ -122.1829059, 47.3111568 ], [ -122.1825082, 47.3113293 ], [ -122.1819847, 47.3114111 ], [ -122.1815255, 47.3113541 ], [ -122.1808659, 47.3114111 ], [ -122.1800166, 47.3114391 ], [ -122.1800184, 47.3117827 ], [ -122.1797182, 47.3119831 ], [ -122.1797787, 47.3120773 ], [ -122.1806051, 47.3121063 ], [ -122.181409, 47.3124931 ], [ -122.1814732, 47.3125755 ], [ -122.1814736, 47.3126506 ], [ -122.1814737, 47.3126569 ], [ -122.1814752, 47.3129166 ], [ -122.1813164, 47.3131341 ], [ -122.1812507, 47.3131968 ], [ -122.1811589, 47.3132844 ], [ -122.1811671, 47.3133645 ], [ -122.1813512, 47.3133869 ], [ -122.1814082, 47.3135358 ], [ -122.1814391, 47.3137014 ], [ -122.1814482, 47.3137204 ], [ -122.1814702, 47.3137662 ], [ -122.1815156, 47.3138952 ], [ -122.1815823, 47.3140417 ], [ -122.1816694, 47.314234 ], [ -122.1817077, 47.3145384 ], [ -122.1816975, 47.3147282 ], [ -122.181676, 47.3151316 ], [ -122.1816658, 47.3153214 ], [ -122.1792676, 47.3152363 ], [ -122.1791656, 47.3157683 ], [ -122.1791656, 47.315942 ], [ -122.1791602, 47.3161756 ], [ -122.17877, 47.3161775 ], [ -122.1788343, 47.3168939 ], [ -122.1788456, 47.3171072 ], [ -122.1785794, 47.3171007 ], [ -122.1784153, 47.3170991 ], [ -122.1776992, 47.3170922 ], [ -122.1776856, 47.3178941 ], [ -122.1765365, 47.3178772 ], [ -122.1765484, 47.3170401 ], [ -122.176541, 47.3160552 ], [ -122.1764586, 47.3160595 ], [ -122.1763302, 47.3160532 ], [ -122.1747492, 47.3160324 ], [ -122.1740606, 47.3160583 ], [ -122.1738348, 47.3160608 ], [ -122.1737154, 47.3159755 ], [ -122.1736224, 47.3158742 ], [ -122.1735571, 47.3157508 ], [ -122.1735163, 47.3156103 ], [ -122.1734924, 47.3153985 ], [ -122.1734777, 47.3150505 ], [ -122.1731559, 47.3150508 ], [ -122.1731559, 47.3144296 ], [ -122.1732617, 47.3144294 ], [ -122.1735861, 47.3144288 ], [ -122.1736567, 47.3144287 ], [ -122.1737072, 47.3143486 ], [ -122.1737755, 47.3142662 ], [ -122.17384, 47.3142038 ], [ -122.1739107, 47.3141449 ], [ -122.1739857, 47.3140912 ], [ -122.1740714, 47.3140368 ], [ -122.1742122, 47.3139628 ], [ -122.1742899, 47.3139219 ], [ -122.1741614, 47.3133542 ], [ -122.174185, 47.3132311 ], [ -122.1747825, 47.3130434 ], [ -122.1748804, 47.3130548 ], [ -122.17501, 47.3130011 ], [ -122.1755504, 47.3128963 ], [ -122.1762524, 47.3129191 ], [ -122.1765671, 47.3129243 ], [ -122.1765694, 47.3126028 ], [ -122.1765788, 47.312464 ], [ -122.1765928, 47.3123285 ], [ -122.1766214, 47.3121975 ], [ -122.1766628, 47.312076 ], [ -122.1767245, 47.3119605 ], [ -122.1767844, 47.3118752 ], [ -122.1768507, 47.3118021 ], [ -122.176978, 47.3117045 ], [ -122.1770773, 47.3116449 ], [ -122.1772003, 47.3115687 ], [ -122.1773518, 47.3114923 ], [ -122.1775255, 47.3114127 ], [ -122.1779098, 47.3112665 ], [ -122.1778764, 47.3106816 ], [ -122.1791715, 47.3106022 ], [ -122.1801825, 47.3105145 ], [ -122.1800757, 47.3113078 ], [ -122.1806801, 47.3112633 ], [ -122.1807145, 47.3109052 ], [ -122.1807607, 47.3107244 ], [ -122.180846, 47.310555 ], [ -122.1809429, 47.3104626 ], [ -122.1810054, 47.3104194 ], [ -122.1811236, 47.3103265 ], [ -122.1811768, 47.3102847 ], [ -122.1813697, 47.3101706 ], [ -122.1815446, 47.3100882 ], [ -122.1816698, 47.3100417 ], [ -122.1818291, 47.3100251 ], [ -122.1820857, 47.3100363 ], [ -122.1824038, 47.3100708 ], [ -122.1825253, 47.3100972 ] ] ] } },
{ "type": "Feature", "properties": { "element_type": "relation", "osmid": "5282350", "amenity": "university", "name": "Seattle University", "nodes": [ [ [ 4793938498, 11036409477, 53145416 ], [ 53145416, 11036409478, 4317299321, 11036409486, 53224255, 11036409485, 4560893264, 4560893257, 11036409501, 53107161 ], [ 53107161, 11036409499, 5440513408, 11015046346, 53062788 ], [ 53062787, 11015046341, 11015046348, 53062788 ], [ 53062787, 11015046339, 4317297736, 11009907997, 53222977 ], [ 53145421, 11009907983, 4317297755, 5923141188, 4317297756, 11009907995, 53222977 ], [ 53189940, 11009907972, 5923141189, 4160312789, 11009907982, 53145421 ], [ 53189940, 11009907973, 4689550648 ], [ 4689550648, 11002431272, 53189941 ], [ 53189941, 11002431271, 4689550649 ], [ 4689550649, 3595033544, 10988372342, 53128458, 10988372343, 9706368130, 829673826 ], [ 829673826, 5466048585 ], [ 5466048585, 10915213370, 53189942 ], [ 829673827, 4580654832, 10915213369, 53189942 ], [ 53068790, 829673827 ], [ 4272325299, 53062912, 3885290422, 10917066486, 53208463, 4306371076, 60408334, 10917066503, 1778667979, 53068790 ], [ 53073251, 7083416503, 7083416513, 10932556446, 4272325299 ], [ 9277592372, 1809473111, 7083416497, 10932556440, 53073251 ], [ 53073250, 11004971712, 246758466, 9277592372 ], [ 10290896620, 53073249, 4560969275, 4560969253, 11004971717, 53073250 ], [ 10290896619, 10290896620 ], [ 53073248, 11004971737, 3404809523, 10290896619 ], [ 4322065164, 11004971735, 53073248 ], [ 3379043291, 3404809508, 4322065152, 4322065153, 4322065154, 4322065163, 2447537809, 2447537817, 2159323124, 4322065164 ], [ 1810747295, 1806527539, 3379043291 ], [ 53073247, 3798496987, 4386603569, 7083263560, 11014873846, 3379043288, 1810747295 ], [ 53073247, 7083263554, 7083263559, 1806527532, 11014873845, 1806527530, 11014873823, 1730789485 ], [ 1730789485, 11014873817, 11014873819, 11035238361, 246758462 ], [ 246758462, 11035238369, 53208456, 246758479, 1810752885, 53068780, 11035238387, 246758486, 4560893267, 5440428907, 11035238403, 53189938, 11035238402, 4560893269, 3669099193, 4793938498 ] ] ], "addr:city": "Seattle", "addr:country": "nan", "addr:housenumber": "nan", "addr:postcode": "nan", "addr:street": "nan", "ele": "nan", "gnis:county_id": "nan", "gnis:created": "nan", "gnis:feature_id": "nan", "gnis:state_id": "nan", "website": "https://www.seattleu.edu/", "wheelchair": "nan", "wikidata": "Q615873", "wikipedia": "en:Seattle University", "addr:state": "WA", "operator": "Seattle University", "source": "nan", "addr:suite": "nan", "brand": "nan", "brand:wikidata": "nan", "brand:wikipedia": "nan", "short_name": "nan", "ways": [ 486844941, 486844942, 353690149, 353690152, 353690147, 353690157, 353690155, 475161300, 475161306, 475161304, 293775903, 568043367, 395714916, 395714915, 462700211, 6475815, 428089348, 1125341247, 353690151, 1125341246, 1125341245, 1125341244, 433500388, 353690145, 332223493, 6425670, 22917206, 156745205, 353690159 ], "start_date": "1891", "type": "multipolygon", "gnis:edited": "nan", "addr:housename": "nan", "building": "nan", "alt_name": "nan", "alt_name:zh": "nan", "alt_name:zh-Hans": "nan", "alt_name:zh-Hant": "nan", "internet_access": "nan", "name:en": "nan", "name:zh": "nan", "name:zh-Hans": "nan", "name:zh-Hant": "nan" }, "geometry": { "type": "Polygon", "coordinates": [ [ [ -122.3208162, 47.6111538 ], [ -122.320772, 47.6111717 ], [ -122.3206914, 47.6112055 ], [ -122.3206334, 47.6112293 ], [ -122.3204527, 47.6113043 ], [ -122.3198574, 47.6115508 ], [ -122.3195334, 47.611685 ], [ -122.3194457, 47.6117217 ], [ -122.3193643, 47.611756 ], [ -122.3193346, 47.6117685 ], [ -122.318446, 47.6121417 ], [ -122.31824, 47.6122281 ], [ -122.3182304, 47.6122324 ], [ -122.3180452, 47.6123094 ], [ -122.3177239, 47.6124372 ], [ -122.317486, 47.6125422 ], [ -122.316988, 47.6127501 ], [ -122.3168033, 47.6128274 ], [ -122.3168011, 47.6127184 ], [ -122.3167959, 47.6123592 ], [ -122.31679, 47.6119876 ], [ -122.3167898, 47.6119656 ], [ -122.3167874, 47.6116443 ], [ -122.316787, 47.6115645 ], [ -122.3167861, 47.6114623 ], [ -122.3167846, 47.6112286 ], [ -122.3167813, 47.6107585 ], [ -122.3167817, 47.6104985 ], [ -122.316782, 47.6103924 ], [ -122.3167823, 47.6103109 ], [ -122.3167853, 47.6095619 ], [ -122.3167857, 47.6093167 ], [ -122.3167865, 47.6092228 ], [ -122.3166505, 47.6092221 ], [ -122.3160818, 47.6092189 ], [ -122.3160105, 47.6092184 ], [ -122.3155867, 47.6092193 ], [ -122.3154669, 47.6092195 ], [ -122.3153698, 47.6092193 ], [ -122.3151842, 47.6092189 ], [ -122.3148508, 47.6092161 ], [ -122.3144739, 47.6092156 ], [ -122.3142724, 47.6092157 ], [ -122.3141617, 47.6092158 ], [ -122.3141617, 47.6091435 ], [ -122.3141703, 47.6082249 ], [ -122.3141707, 47.6081089 ], [ -122.3141718, 47.6080481 ], [ -122.3140787, 47.6080479 ], [ -122.3129674, 47.6080448 ], [ -122.3128556, 47.6080445 ], [ -122.3128546, 47.6079507 ], [ -122.3128523, 47.6073801 ], [ -122.3128474, 47.6062825 ], [ -122.3128474, 47.6061924 ], [ -122.3129839, 47.606193 ], [ -122.3131924, 47.6061938 ], [ -122.3137496, 47.6061959 ], [ -122.3140798, 47.6061971 ], [ -122.314173, 47.6061975 ], [ -122.3142833, 47.6061979 ], [ -122.315243, 47.6062013 ], [ -122.3153711, 47.6062016 ], [ -122.3154777, 47.6062019 ], [ -122.3155863, 47.6062024 ], [ -122.3160713, 47.6062047 ], [ -122.3162329, 47.6062054 ], [ -122.3163941, 47.6062061 ], [ -122.316643, 47.6062072 ], [ -122.3167772, 47.6062078 ], [ -122.3169625, 47.6062081 ], [ -122.3170835, 47.6062083 ], [ -122.3171806, 47.6062084 ], [ -122.3174415, 47.6062088 ], [ -122.31802, 47.6062097 ], [ -122.3181203, 47.6062098 ], [ -122.3181952, 47.60621 ], [ -122.3187545, 47.6062108 ], [ -122.3194197, 47.6062119 ], [ -122.3195254, 47.6062121 ], [ -122.320072, 47.6062129 ], [ -122.3200729, 47.6062915 ], [ -122.3200832, 47.6071464 ], [ -122.3200837, 47.6071874 ], [ -122.3200938, 47.6072018 ], [ -122.3205864, 47.6072065 ], [ -122.3206017, 47.6072066 ], [ -122.3206268, 47.6072078 ], [ -122.3206489, 47.6072087 ], [ -122.3206671, 47.6072124 ], [ -122.320731, 47.6072254 ], [ -122.3207746, 47.6072341 ], [ -122.320732, 47.6072479 ], [ -122.3206719, 47.6072729 ], [ -122.3206564, 47.6072793 ], [ -122.3206155, 47.6072961 ], [ -122.3206033, 47.6073013 ], [ -122.3204125, 47.6073761 ], [ -122.3197572, 47.6076483 ], [ -122.3193906, 47.6078016 ], [ -122.3193906, 47.6080155 ], [ -122.3193901, 47.6081201 ], [ -122.3198257, 47.6081218 ], [ -122.319825, 47.6081634 ], [ -122.3198278, 47.6086575 ], [ -122.320105, 47.6086575 ], [ -122.3201049, 47.6088214 ], [ -122.3205578, 47.6088189 ], [ -122.3208077, 47.6088187 ], [ -122.3208092, 47.6091305 ], [ -122.32081, 47.6092355 ], [ -122.3208102, 47.6092885 ], [ -122.3208112, 47.6094675 ], [ -122.3208112, 47.609541 ], [ -122.3208119, 47.609733 ], [ -122.3208128, 47.6097642 ], [ -122.3208136, 47.6099055 ], [ -122.3208137, 47.6099208 ], [ -122.3208136, 47.6100353 ], [ -122.3208142, 47.6101221 ], [ -122.3208148, 47.6102325 ], [ -122.3208162, 47.6103987 ], [ -122.3208148, 47.6107076 ], [ -122.3208146, 47.610916 ], [ -122.3208154, 47.611042 ], [ -122.3208151, 47.6110545 ], [ -122.3208162, 47.6111538 ] ] ] } },
{ "type": "Feature", "properties": { "element_type": "way", "osmid": "6452560", "amenity": "university", "name": "Seattle Pacific University", "nodes": [ 59705105, 656976528, 10296627564, 59705302, 4818747297, 53082578, 244285038, 10296627604, 10316300337, 244285039, 9161587866, 4020206007, 10316300457, 53017944, 504886127, 508037691, 53017941, 3405792592, 3405792590, 3405792591, 3405792587, 3405792588, 3405792585, 53071962, 10281871623, 10281759805, 53205445, 10281759804, 3804136870, 3804136875, 4114940239, 4114940238, 4114940234, 3804136881, 10281759803, 53151182, 356541223, 3405792578, 3405792575, 3405792574, 5648536022, 3405792571, 4154247255, 1811677065, 4154247254, 4154247253, 4154247252, 4154247251, 5541392322, 5541392323, 5541392219, 5541392324, 5541392218, 3405792572, 10281871672, 657749232, 657749233, 53178697, 244275149, 657752097, 244275148, 244275147, 2498745360, 10992872557, 657253793, 2498745364, 53151181, 10007342438, 657253796, 244275151, 9246435064, 657752103, 10281871670, 53091089, 2498745359, 10296531591, 10296531599, 53129939, 10296531601, 53091088, 10296542328, 53129937, 59705682, 59705105 ], "addr:city": "nan", "addr:country": "nan", "addr:housenumber": "nan", "addr:postcode": "nan", "addr:street": "nan", "ele": "21", "gnis:county_id": "033", "gnis:created": "12/31/1992", "gnis:feature_id": "1508194", "gnis:state_id": "53", "website": "https://spu.edu", "wheelchair": "nan", "wikidata": "Q2904851", "wikipedia": "nan", "addr:state": "nan", "operator": "nan", "source": "nan", "addr:suite": "nan", "brand": "nan", "brand:wikidata": "nan", "brand:wikipedia": "nan", "short_name": "nan", "ways": "nan", "start_date": "nan", "type": "nan", "gnis:edited": "11/03/2008", "addr:housename": "nan", "building": "nan", "alt_name": "nan", "alt_name:zh": "nan", "alt_name:zh-Hans": "nan", "alt_name:zh-Hant": "nan", "internet_access": "nan", "name:en": "nan", "name:zh": "nan", "name:zh-Hans": "nan", "name:zh-Hant": "nan" }, "geometry": { "type": "Polygon", "coordinates": [ [ [ -122.3609, 47.6458088 ], [ -122.3607457, 47.6458902 ], [ -122.3607423, 47.6459217 ], [ -122.3607364, 47.645997 ], [ -122.3607202, 47.6466386 ], [ -122.3607121, 47.6468962 ], [ -122.360697, 47.6482297 ], [ -122.3606518, 47.6482292 ], [ -122.3578113, 47.6482183 ], [ -122.3576944, 47.6482179 ], [ -122.3576887, 47.6486634 ], [ -122.3576553, 47.6503739 ], [ -122.3576046, 47.6503738 ], [ -122.357375, 47.6503732 ], [ -122.3573368, 47.6504145 ], [ -122.3596013, 47.6514151 ], [ -122.3608273, 47.6519247 ], [ -122.3619801, 47.6521786 ], [ -122.3624711, 47.6511991 ], [ -122.3651834, 47.6518098 ], [ -122.365798, 47.650605 ], [ -122.3660368, 47.6506596 ], [ -122.3661388, 47.6504534 ], [ -122.3662381, 47.6504536 ], [ -122.3662386, 47.6504235 ], [ -122.3662504, 47.6498258 ], [ -122.3662519, 47.649794 ], [ -122.366251, 47.6497384 ], [ -122.3662513, 47.6496228 ], [ -122.3662507, 47.6494638 ], [ -122.3662507, 47.6494518 ], [ -122.36625, 47.6492793 ], [ -122.3662494, 47.6491329 ], [ -122.3662492, 47.6490717 ], [ -122.3662466, 47.6485756 ], [ -122.3662463, 47.6485177 ], [ -122.366245, 47.6479124 ], [ -122.3659921, 47.6478841 ], [ -122.3659879, 47.6476377 ], [ -122.3659349, 47.6476033 ], [ -122.3659313, 47.6475821 ], [ -122.3659138, 47.6474491 ], [ -122.3658842, 47.6473819 ], [ -122.3658756, 47.6473623 ], [ -122.3658662, 47.6471876 ], [ -122.3661438, 47.6471899 ], [ -122.3661384, 47.6469091 ], [ -122.365726, 47.6469073 ], [ -122.3652635, 47.6469065 ], [ -122.3652578, 47.647398 ], [ -122.364739, 47.6472311 ], [ -122.3646613, 47.6472061 ], [ -122.3642799, 47.6472095 ], [ -122.3643604, 47.6474655 ], [ -122.3638124, 47.6471889 ], [ -122.3637264, 47.6471453 ], [ -122.363644, 47.6471096 ], [ -122.3635111, 47.6470907 ], [ -122.3636556, 47.6477344 ], [ -122.3636917, 47.6478024 ], [ -122.3637118, 47.6478381 ], [ -122.3638038, 47.6479456 ], [ -122.3639076, 47.6480255 ], [ -122.3640191, 47.6480828 ], [ -122.3648216, 47.6484931 ], [ -122.3648586, 47.6485365 ], [ -122.3648657, 47.6485888 ], [ -122.3648083, 47.648582 ], [ -122.3647211, 47.6485715 ], [ -122.3641197, 47.6483442 ], [ -122.3636957, 47.648185 ], [ -122.3636471, 47.6481732 ], [ -122.3635996, 47.6481739 ], [ -122.3635901, 47.648174 ], [ -122.3634374, 47.6481778 ], [ -122.3632483, 47.6481791 ], [ -122.3622576, 47.6481858 ], [ -122.3622177, 47.6481861 ], [ -122.3622169, 47.6481244 ], [ -122.3622142, 47.6468455 ], [ -122.362208, 47.6467201 ], [ -122.3622053, 47.6466573 ], [ -122.3609087, 47.6466522 ], [ -122.3609, 47.6458088 ] ] ] } },
{ "type": "Feature", "properties": { "element_type": "way", "osmid": "41656208", "amenity": "university", "name": "University of Washington-Bothell", "nodes": [ 511974266, 511974267, 454623979, 7530658179, 454624144, 53219587, 454624081, 454624085, 6238847333, 454624090, 6238847327, 454624092, 454624093, 10048405688, 1834912464, 454624094, 1834912510, 454624098, 454624104, 5173310724, 53189480, 511974276, 511974277, 1729116684, 511974278, 511974279, 5788783874, 511974280, 511974281, 511974282, 511974283, 511974284, 511974285, 511974286, 511974288, 511974289, 511974291, 511974292, 511974293, 511974294, 511974295, 511974296, 511974297, 511974266 ], "addr:city": "nan", "addr:country": "nan", "addr:housenumber": "nan", "addr:postcode": "nan", "addr:street": "nan", "ele": "nan", "gnis:county_id": "nan", "gnis:created": "nan", "gnis:feature_id": "nan", "gnis:state_id": "nan", "website": "nan", "wheelchair": "nan", "wikidata": "Q7896565", "wikipedia": "nan", "addr:state": "nan", "operator": "nan", "source": "nan", "addr:suite": "nan", "brand": "nan", "brand:wikidata": "nan", "brand:wikipedia": "nan", "short_name": "nan", "ways": "nan", "start_date": "nan", "type": "nan", "gnis:edited": "nan", "addr:housename": "nan", "building": "nan", "alt_name": "nan", "alt_name:zh": "nan", "alt_name:zh-Hans": "nan", "alt_name:zh-Hant": "nan", "internet_access": "nan", "name:en": "nan", "name:zh": "nan", "name:zh-Hans": "nan", "name:zh-Hant": "nan" }, "geometry": { "type": "Polygon", "coordinates": [ [ [ -122.1931313, 47.7627018 ], [ -122.1932652, 47.7627011 ], [ -122.1932696, 47.7626213 ], [ -122.1932754, 47.7624736 ], [ -122.1932667, 47.7623236 ], [ -122.1932301, 47.7619845 ], [ -122.1931729, 47.7615911 ], [ -122.1931807, 47.761476 ], [ -122.1932639, 47.7613317 ], [ -122.1933228, 47.7611912 ], [ -122.1933295, 47.7611613 ], [ -122.1933992, 47.7608481 ], [ -122.193454, 47.7605872 ], [ -122.1934615, 47.7605146 ], [ -122.1934284, 47.7601468 ], [ -122.1934446, 47.7599706 ], [ -122.1933952, 47.7593837 ], [ -122.1933603, 47.7589641 ], [ -122.1933321, 47.7582805 ], [ -122.1935822, 47.7582836 ], [ -122.193706, 47.7582852 ], [ -122.1937287, 47.7573854 ], [ -122.1930187, 47.7573859 ], [ -122.1930262, 47.7564809 ], [ -122.1930274, 47.7563414 ], [ -122.1919364, 47.7563356 ], [ -122.1914606, 47.7563479 ], [ -122.1912611, 47.7563531 ], [ -122.1908628, 47.7564523 ], [ -122.189971, 47.7568433 ], [ -122.1891918, 47.7572634 ], [ -122.1890446, 47.7576427 ], [ -122.1890965, 47.7582029 ], [ -122.1894602, 47.7585822 ], [ -122.1895727, 47.7588097 ], [ -122.189287, 47.7590723 ], [ -122.1888021, 47.7592007 ], [ -122.1885424, 47.7595916 ], [ -122.1882653, 47.7599709 ], [ -122.1895121, 47.7619608 ], [ -122.1911919, 47.7623109 ], [ -122.1919711, 47.7625793 ], [ -122.192378, 47.7626726 ], [ -122.1931313, 47.7627018 ] ] ] } },
{ "type": "Feature", "properties": { "element_type": "way", "osmid": "181548845", "amenity": "university", "name": "Northwest University", "nodes": [ 1919627039, 1919627031, 356540749, 1919627061, 9722002719, 1919627034, 1919627073, 1919627029, 1919627044, 1919627028, 1919627041, 1919627057, 1919627058, 1919627049, 1919627062, 1919627027, 1919627037, 1919627054, 1919627046, 1919627051, 1919627032, 1919627056, 1919627040, 1919627070, 1919627026, 1919627071, 1919627053, 1919627025, 1919627047, 1919627067, 1919627060, 1919627045, 1919627043, 1919627064, 1919627068, 1919627035, 1919627063, 1919627033, 1919627055, 1919627042, 1919627030, 2475999486, 2475999485, 1919627048, 1919627039 ], "addr:city": "nan", "addr:country": "nan", "addr:housenumber": "5520", "addr:postcode": "98033", "addr:street": "108th Avenue Northeast", "ele": "97", "gnis:county_id": "033", "gnis:created": "09/10/1979", "gnis:feature_id": "1507111", "gnis:state_id": "53", "website": "nan", "wheelchair": "nan", "wikidata": "Q7060260", "wikipedia": "nan", "addr:state": "nan", "operator": "nan", "source": "nan", "addr:suite": "nan", "brand": "nan", "brand:wikidata": "nan", "brand:wikipedia": "nan", "short_name": "nan", "ways": "nan", "start_date": "nan", "type": "nan", "gnis:edited": "11/03/2008", "addr:housename": "nan", "building": "nan", "alt_name": "nan", "alt_name:zh": "nan", "alt_name:zh-Hans": "nan", "alt_name:zh-Hant": "nan", "internet_access": "nan", "name:en": "nan", "name:zh": "nan", "name:zh-Hans": "nan", "name:zh-Hant": "nan" }, "geometry": { "type": "Polygon", "coordinates": [ [ [ -122.1960844, 47.6598897 ], [ -122.1961112, 47.6572532 ], [ -122.194394, 47.6572329 ], [ -122.1944335, 47.6559318 ], [ -122.1927788, 47.6559283 ], [ -122.1916416, 47.655919 ], [ -122.191558, 47.6559199 ], [ -122.1914349, 47.6558936 ], [ -122.1912804, 47.655862 ], [ -122.1910412, 47.6557279 ], [ -122.1908067, 47.6556322 ], [ -122.1907113, 47.655587 ], [ -122.1906604, 47.6555635 ], [ -122.1906014, 47.6555545 ], [ -122.1905262, 47.6555527 ], [ -122.1900059, 47.6555508 ], [ -122.1884207, 47.6555418 ], [ -122.188241, 47.65554 ], [ -122.1873103, 47.6555274 ], [ -122.1873037, 47.6566133 ], [ -122.1882955, 47.6566121 ], [ -122.1882988, 47.6569818 ], [ -122.187321, 47.6569781 ], [ -122.1873091, 47.6582591 ], [ -122.1882961, 47.6582681 ], [ -122.1882947, 47.6584126 ], [ -122.1908845, 47.6584307 ], [ -122.1908925, 47.6594009 ], [ -122.1908764, 47.6601343 ], [ -122.1922187, 47.6601324 ], [ -122.192208, 47.6594315 ], [ -122.1930356, 47.6594334 ], [ -122.1930317, 47.6597036 ], [ -122.1935759, 47.6597097 ], [ -122.193654, 47.6597079 ], [ -122.1936483, 47.6599391 ], [ -122.194166, 47.6599446 ], [ -122.1941675, 47.6600928 ], [ -122.19461, 47.6600892 ], [ -122.19461, 47.6603439 ], [ -122.1951219, 47.660348 ], [ -122.1951327, 47.6596562 ], [ -122.1956656, 47.6596521 ], [ -122.1956675, 47.6598874 ], [ -122.1960844, 47.6598897 ] ] ] } },
{ "type": "Feature", "properties": { "element_type": "way", "osmid": "181549027", "amenity": "university", "name": "Northwest University Graduate & Professional Studies Building", "nodes": [ 1919627983, 1919627988, 3336513156, 3336513162, 1919627986, 1919627987, 1919628177, 1919627985, 1919627984, 1919627983 ], "addr:city": "Kirkland", "addr:country": "nan", "addr:housenumber": "6710", "addr:postcode": "98033", "addr:street": "108th Avenue Northeast", "ele": "nan", "gnis:county_id": "nan", "gnis:created": "nan", "gnis:feature_id": "nan", "gnis:state_id": "nan", "website": "nan", "wheelchair": "nan", "wikidata": "nan", "wikipedia": "nan", "addr:state": "nan", "operator": "nan", "source": "nan", "addr:suite": "nan", "brand": "nan", "brand:wikidata": "nan", "brand:wikipedia": "nan", "short_name": "nan", "ways": "nan", "start_date": "nan", "type": "nan", "gnis:edited": "nan", "addr:housename": "6710 Building", "building": "yes", "alt_name": "nan", "alt_name:zh": "nan", "alt_name:zh-Hans": "nan", "alt_name:zh-Hant": "nan", "internet_access": "nan", "name:en": "nan", "name:zh": "nan", "name:zh-Hans": "nan", "name:zh-Hant": "nan" }, "geometry": { "type": "Polygon", "coordinates": [ [ [ -122.1951215, 47.6660607 ], [ -122.1951208, 47.6658239 ], [ -122.195584, 47.6658233 ], [ -122.195584, 47.6658352 ], [ -122.1956587, 47.6658351 ], [ -122.1956587, 47.6658486 ], [ -122.1957928, 47.6658477 ], [ -122.1960367, 47.6658472 ], [ -122.1960373, 47.6660595 ], [ -122.1951215, 47.6660607 ] ] ] } },
{ "type": "Feature", "properties": { "element_type": "way", "osmid": "412521866", "amenity": "university", "name": "Center for Urban Horticulture", "nodes": [ 4139303343, 4139303334, 4139303335, 4139303336, 4139303337, 4139303340, 4139303339, 4827903931, 7373925261, 4139303338, 1724817631, 2464035966, 4139303343 ], "addr:city": "Seattle", "addr:country": "nan", "addr:housenumber": "3501", "addr:postcode": "98105", "addr:street": "Northeast 41st Street", "ele": "nan", "gnis:county_id": "nan", "gnis:created": "nan", "gnis:feature_id": "nan", "gnis:state_id": "nan", "website": "nan", "wheelchair": "nan", "wikidata": "nan", "wikipedia": "nan", "addr:state": "nan", "operator": "nan", "source": "King County GIS;data.seattle.gov", "addr:suite": "nan", "brand": "nan", "brand:wikidata": "nan", "brand:wikipedia": "nan", "short_name": "nan", "ways": "nan", "start_date": "nan", "type": "nan", "gnis:edited": "nan", "addr:housename": "nan", "building": "nan", "alt_name": "nan", "alt_name:zh": "nan", "alt_name:zh-Hans": "nan", "alt_name:zh-Hant": "nan", "internet_access": "nan", "name:en": "nan", "name:zh": "nan", "name:zh-Hans": "nan", "name:zh-Hant": "nan" }, "geometry": { "type": "Polygon", "coordinates": [ [ [ -122.2909366, 47.6588116 ], [ -122.2913121, 47.6585948 ], [ -122.2914087, 47.6582191 ], [ -122.2925245, 47.6570628 ], [ -122.2913336, 47.6562462 ], [ -122.2895955, 47.6562823 ], [ -122.2886407, 47.6566231 ], [ -122.2883802, 47.6575286 ], [ -122.2883788, 47.6575889 ], [ -122.288366, 47.6583375 ], [ -122.2902118, 47.6583425 ], [ -122.2905611, 47.6584286 ], [ -122.2909366, 47.6588116 ] ] ] } },
{ "type": "Feature", "properties": { "element_type": "relation", "osmid": "5268488", "amenity": "university", "name": "University of Washington", "nodes": [ [ [ 3600937833, 3873638569, 3873638568, 3600937835, 11147133823, 11147133806, 11147133813, 11147133820, 11147133829, 11147133811, 11147133818, 11147133827, 11147133835, 11147133816, 11147133825, 11147133833, 11147133838, 11147133821, 11147133830, 11147133837, 11147133808, 11147133807, 11147133814, 11147133822, 11147133831, 11147133812, 11147133819, 11147133828, 11147133836, 11147133817, 11147133826, 11147133834, 11147133805, 11147133824, 11147133832, 11147133810, 3600937819, 11147133815, 11147133809, 3600937816, 3873638557, 4975889322, 3873638558, 3600937827, 3600937833 ], [ 11147133698, 11147133736, 11147133702, 11147133713, 11147133731, 11147133715, 11147133740, 11147133742, 11147133704, 11147133709, 11147133711, 11147133717, 11147133734, 11147133712, 11147133690, 11147133737, 11147133733, 11147133741, 11147133718, 11147133739, 11147133701, 11147133696, 11147133724, 11147133691, 11147133716, 11147133738, 11147133700, 11147133722, 11147133706, 11147133705, 11147133726, 11147133720, 11147133710, 11147133723, 11147133693, 11147133719, 11147133699, 11147133725, 11147133728, 11147133707, 11147133730, 11147133697, 11147133695, 11147133721, 11147133694, 11147133692, 11147133732, 11147133703, 11147133729, 11147133727, 11147133714, 11147133708, 11147133735, 3988869852 ], [ 3988869852, 11147133762, 11147133766, 11147133752, 11147133750, 11147133764, 11147133760, 11147133761, 11147133751, 11147133758, 11147133754, 11147133744, 11147133757, 11147133768, 11147133755, 11147133747, 11147133759, 11147133756, 11147133763, 11147133749, 11147133743, 11147133767, 11147133746, 11147133769, 11147133765, 11147133748, 11147133753, 11147133745, 3988869855, 11147133770, 3999787939, 11147133774, 11147133772, 11147133773, 11147133775, 11147133771, 11147133776, 11147140819, 11147140820, 1724817569 ], [ 1724817569, 11147133785, 11147133788, 11147133778, 11147133780, 11147133787, 11147133789, 11147140818, 11147133783, 11147133781, 11147133786, 11147133782, 11147065314, 11147133784, 11147133779, 1724817586, 10896595660, 1724817625, 10896595661, 1724817624, 1724817633, 11147133797, 11147133794, 11147133798, 11147133793, 10876669066, 10876669064, 10876669065, 10876669112, 10876669105, 10876669071, 10876669097, 10876669098, 10876669078, 11147133792, 11147133795, 11147133799, 11147133791, 10876669062, 4723314736, 10876669060, 10876669059, 10876669061, 10876669058, 10876669063, 11147133796, 11147065319, 11147065318, 11147065320, 11147065321, 3146674029, 3146674030, 4593519895, 4593519902, 3146674033, 1724817631, 4139303338, 1724817629 ], [ 1724817629, 11147065375, 11147133617, 11147133507, 11147133649, 11147133688, 11147133442, 11147133478, 11147133513, 11147133546, 11147065353, 11147065390, 11147133425, 11147133460, 11147133571, 11147133601, 11147133636, 11147133674, 11147133432, 11147133467, 11147133501, 11147133535, 11147133643, 11147133682, 11147065361, 11147065397, 11147133453, 11147133487, 11147133521, 11147133557, 11147133667, 11147065348, 11147065383, 11147133418, 11147133527, 11147133564, 11147133595, 11147133631, 11147065389, 11147133424, 11147133459, 11147133493, 11147133655, 11147065339, 11147065371, 11147133409, 11147133516, 11147133552, 11147133584, 11147133620, 11147065377, 11147133413, 11147133447, 11147133482, 11147133588, 11147133624, 11147133660, 11147065343, 11147133608, 11147133644, 11147133683, 11147065362, 11147133472, 11147133541, 11147133578, 11147133689, 11147065367, 11147065404, 11147133437, 11147133547, 11147133614, 11147133650, 11147133461, 11147133494, 11147133528, 11147133565, 11147133675, 11147065354, 11147065391, 11147133426, 11147133536, 11147133572, 11147133602, 11147133637, 11147065398, 11147133433, 11147133502, 11147133558, 11147133589, 11147133625, 11147133661, 11147065363, 11147133473, 11147133508, 11147133542, 11147133579, 11147133632, 11147133668, 11147065349, 11147065384, 11147133495, 11147133529, 11147065355, 11147065392, 11147133427, 11147133462, 11147133573, 11147133603, 11147133638, 11147133676, 11147133483, 11147133517, 11147133553, 11147133585, 11147065344, 11147065378, 11147133414, 11147133448, 11147133559, 11147133590, 11147133626, 11147133662, 11147133419, 11147133454, 11147133488, 11147133522, 11147133438, 11147133474, 11147133509, 11147133543, 11147133651, 11147065335, 11147065368, 11147133405, 11147133514, 11147133548, 11147133582, 11147133615, 11147065373, 11147133410, 11147133443, 11147133479, 11147133639, 11147133678, 11147065357, 11147065393, 11147133503, 11147133537, 11147133574, 11147133604, 11147065364, 11147065400, 11147133434, 11147133468, 11147133610, 11147133645, 11147133684, 11147065385, 11147133420, 11147133455, 11147133489, 11147133596, 11147133633, 11147133669, 11147065350, 11147133463, 11147133496, 11147133530, 11147133566, 11147133677, 11147065356, 11147133428, 11147133586, 11147133621, 11147133656, 11147065340, 11147133449, 11147133484, 11147133518, 11147133554, 11147133663, 11147065345, 11147065379, 11147133415, 11147133523, 11147133560, 11147133591, 11147133627, 11147133544, 11147133580, 11147133611, 11147133646, 11147133406, 11147133439, 11147133475, 11147133510, 11147133616, 11147133652, 11147065336, 11147065369, 11147133480, 11147133515, 11147133549, 11147065394, 11147133498, 11147133605, 11147133640, 11147133679, 11147065358, 11147133469, 11147133504, 11147133538, 11147133575, 11147133685, 11147065365, 11147065401, 11147133435, 11147133490, 11147133524, 11147133561, 11147133592, 11147065351, 11147065386, 11147133421, 11147133456, 11147133567, 11147133597, 11147133634, 11147133670, 11147133429, 11147133464, 11147133497, 11147133531, 11147065341, 11147065374, 11147133411, 11147133444, 11147133555, 11147133587, 11147133622, 11147133657, 11147133416, 11147133450, 11147133485, 11147133519, 11147133628, 11147133664, 11147065380, 11147133647, 11147133686, 11147065366, 11147065402, 11147133511, 11147133545, 11147133581, 11147133612, 11147133407, 11147133440, 11147133476, 11147133583, 11147133618, 11147133653, 11147065337, 11147133499, 11147133533, 11147133569, 11147133599, 11147065359, 11147065395, 11147133430, 11147133465, 11147133576, 11147133606, 11147133641, 11147133680, 11147133470, 11147133505, 11147133539, 11147133593, 11147133629, 11147133665, 11147065346, 11147133457, 11147133491, 11147133525, 11147133562, 11147133671, 11147065352, 11147065387, 11147133422, 11147133532, 11147133568, 11147133598, 11147133635, 11147133445, 11147133481, 11147133550, 11147133658, 11147065342, 11147065376, 11147133520, 11147133556, 11147133623, 11147065381, 11147133451, 11147133486, 11147065403, 11147133436, 11147133471, 11147133506, 11147133613, 11147133648, 11147133687, 11147133477, 11147133512, 11147065338, 11147065370, 11147133408, 11147133441, 11147133600, 11147133673, 11147133466, 11147133500, 11147133534, 11147133570, 11147133681, 11147065360, 11147065396, 11147133431, 11147133540, 11147133577, 11147133607, 11147133642, 11147065347, 11147065382, 11147133417, 11147133452, 11147133563, 11147133594, 11147133630, 11147133666, 11147133423, 11147133458, 11147133492, 11147133526, 11147133672, 11147065388, 11147133551, 11147133619, 11147133654, 11147133412, 11147133446, 11147133659, 11147065372, 11147065399, 11147133609, 11147133698 ] ] ], "addr:city": "nan", "addr:country": "nan", "addr:housenumber": "nan", "addr:postcode": "nan", "addr:street": "nan", "ele": "nan", "gnis:county_id": "nan", "gnis:created": "nan", "gnis:feature_id": "nan", "gnis:state_id": "nan", "website": "http://www.washington.edu", "wheelchair": "nan", "wikidata": "Q219563", "wikipedia": "en:University of Washington", "addr:state": "nan", "operator": "nan", "source": "nan", "addr:suite": "nan", "brand": "nan", "brand:wikidata": "nan", "brand:wikipedia": "nan", "short_name": "nan", "ways": [ 1202405706, 1202405703, 1202405704, 835195085, 1202405702 ], "start_date": "nan", "type": "multipolygon", "gnis:edited": "nan", "addr:housename": "nan", "building": "nan", "alt_name": "UW", "alt_name:zh": "華大", "alt_name:zh-Hans": "华大", "alt_name:zh-Hant": "華大", "internet_access": "wlan", "name:en": "University of Washington", "name:zh": "華盛頓大學", "name:zh-Hans": "华盛顿大学", "name:zh-Hant": "華盛頓大學" }, "geometry": { "type": "MultiPolygon", "coordinates": [ [ [ [ -122.3186201, 47.6546225 ], [ -122.3190837, 47.6547927 ], [ -122.3196968, 47.6549216 ], [ -122.31994, 47.6549802 ], [ -122.3201356, 47.6550315 ], [ -122.3203375, 47.6550727 ], [ -122.3205436, 47.6551031 ], [ -122.3207509, 47.6551225 ], [ -122.3209945, 47.6551315 ], [ -122.3211365, 47.6551299 ], [ -122.3212741, 47.6551235 ], [ -122.3214338, 47.6551105 ], [ -122.3215129, 47.6550983 ], [ -122.3215962, 47.6550768 ], [ -122.321674, 47.6550474 ], [ -122.3217446, 47.6550106 ], [ -122.3218076, 47.6549664 ], [ -122.3218066, 47.6553833 ], [ -122.3215638, 47.655421 ], [ -122.3213999, 47.6554396 ], [ -122.3212381, 47.6554527 ], [ -122.3209941, 47.655463 ], [ -122.3207507, 47.6554665 ], [ -122.3205881, 47.6554622 ], [ -122.3203449, 47.655448 ], [ -122.3201621, 47.6554311 ], [ -122.319938, 47.6554031 ], [ -122.3196948, 47.6553526 ], [ -122.3189043, 47.6551711 ], [ -122.3183505, 47.6549707 ], [ -122.3182548, 47.6550944 ], [ -122.3181596, 47.6552173 ], [ -122.3180689, 47.6553346 ], [ -122.317741, 47.655779 ], [ -122.3175965, 47.6559102 ], [ -122.3175959, 47.6559321 ], [ -122.3175565, 47.6563705 ], [ -122.3175167, 47.6564255 ], [ -122.3176763, 47.6564817 ], [ -122.3177228, 47.6564822 ], [ -122.3177143, 47.6568113 ], [ -122.3173876, 47.6568074 ], [ -122.3172491, 47.656806 ], [ -122.317247, 47.6569702 ], [ -122.3172413, 47.6571895 ], [ -122.3170086, 47.6571867 ], [ -122.3165795, 47.6571811 ], [ -122.3165709, 47.6575105 ], [ -122.3161532, 47.6575055 ], [ -122.3160993, 47.6573952 ], [ -122.3156816, 47.6573902 ], [ -122.3156931, 47.6569516 ], [ -122.3156974, 47.6567871 ], [ -122.313142, 47.6567559 ], [ -122.3126646, 47.6567501 ], [ -122.3126625, 47.6569146 ], [ -122.3126277, 47.6582312 ], [ -122.3122098, 47.6582262 ], [ -122.3118855, 47.6582226 ], [ -122.3118077, 47.6611715 ], [ -122.3061469, 47.6611665 ], [ -122.3054461, 47.6611107 ], [ -122.3054438, 47.6610969 ], [ -122.3053651, 47.6610965 ], [ -122.3053656, 47.6613577 ], [ -122.3053646, 47.6615133 ], [ -122.3049387, 47.6615128 ], [ -122.3049442, 47.6614967 ], [ -122.30497, 47.6614211 ], [ -122.3049815, 47.6614005 ], [ -122.3050008, 47.6613826 ], [ -122.305041, 47.6613639 ], [ -122.3050888, 47.6613573 ], [ -122.305091, 47.661095 ], [ -122.3049714, 47.6610944 ], [ -122.3037718, 47.661164 ], [ -122.3017901, 47.6611617 ], [ -122.3017941, 47.6613536 ], [ -122.3020271, 47.6619063 ], [ -122.3024908, 47.6630782 ], [ -122.302424, 47.6630781 ], [ -122.3018478, 47.6630776 ], [ -122.3010849, 47.6630768 ], [ -122.3010793, 47.6613528 ], [ -122.3010786, 47.6611609 ], [ -122.3007539, 47.6611606 ], [ -122.2996609, 47.6611591 ], [ -122.2969896, 47.6611571 ], [ -122.2935488, 47.6611538 ], [ -122.292401, 47.6610996 ], [ -122.2901507, 47.6610423 ], [ -122.2901642, 47.6604852 ], [ -122.2902107, 47.6585665 ], [ -122.2902114, 47.6585346 ], [ -122.2902118, 47.6583425 ], [ -122.288366, 47.6583375 ], [ -122.287587, 47.6583353 ], [ -122.2875889, 47.6548489 ], [ -122.2903051, 47.6548525 ], [ -122.2903251, 47.6540792 ], [ -122.2927127, 47.6540611 ], [ -122.292723, 47.6540506 ], [ -122.2927666, 47.6540179 ], [ -122.2928053, 47.6539971 ], [ -122.2928996, 47.653966 ], [ -122.2929654, 47.65395 ], [ -122.2930247, 47.6539458 ], [ -122.2930898, 47.6539487 ], [ -122.2931423, 47.6539403 ], [ -122.2932322, 47.6539199 ], [ -122.2932531, 47.6539004 ], [ -122.2932754, 47.6538868 ], [ -122.2933188, 47.6538814 ], [ -122.29336, 47.6538739 ], [ -122.2933974, 47.6538769 ], [ -122.2934263, 47.6538765 ], [ -122.2934554, 47.6538728 ], [ -122.2934996, 47.6538665 ], [ -122.2935387, 47.6538604 ], [ -122.2935779, 47.653855 ], [ -122.2936079, 47.6538525 ], [ -122.2936452, 47.6538527 ], [ -122.2936825, 47.6538529 ], [ -122.2937373, 47.6538529 ], [ -122.2937787, 47.6538524 ], [ -122.2938295, 47.6538525 ], [ -122.2938774, 47.6538616 ], [ -122.2939252, 47.6538709 ], [ -122.2939686, 47.6538819 ], [ -122.2940686, 47.65389 ], [ -122.2941246, 47.6538916 ], [ -122.2941665, 47.6538846 ], [ -122.294249, 47.6538807 ], [ -122.2943012, 47.6538701 ], [ -122.294351, 47.653866 ], [ -122.2943999, 47.6538607 ], [ -122.2945241, 47.6538393 ], [ -122.2945934, 47.6538268 ], [ -122.2946612, 47.6538201 ], [ -122.2946936, 47.6538069 ], [ -122.294736, 47.6537975 ], [ -122.2947762, 47.6537885 ], [ -122.2948112, 47.6537832 ], [ -122.2948568, 47.6537847 ], [ -122.2948994, 47.6537891 ], [ -122.2949386, 47.6537858 ], [ -122.2949665, 47.6537805 ], [ -122.2950055, 47.6537746 ], [ -122.2950439, 47.6537725 ], [ -122.2950792, 47.6537749 ], [ -122.2951123, 47.6537737 ], [ -122.2951474, 47.6537705 ], [ -122.2952135, 47.6537661 ], [ -122.2952529, 47.6537684 ], [ -122.295278, 47.6537758 ], [ -122.2953124, 47.6537827 ], [ -122.2953522, 47.6537874 ], [ -122.2953788, 47.6537848 ], [ -122.2954356, 47.653785 ], [ -122.2955064, 47.6537953 ], [ -122.2955251, 47.6537992 ], [ -122.2955509, 47.6537968 ], [ -122.2955678, 47.6537906 ], [ -122.2955775, 47.6537839 ], [ -122.2956032, 47.6537786 ], [ -122.2956281, 47.6537804 ], [ -122.2956889, 47.653768 ], [ -122.2957042, 47.6537602 ], [ -122.2957288, 47.6537525 ], [ -122.2957873, 47.653735 ], [ -122.2958122, 47.6537354 ], [ -122.295833, 47.6537386 ], [ -122.2958537, 47.653739 ], [ -122.2958783, 47.6537388 ], [ -122.295921, 47.6537396 ], [ -122.2959499, 47.6537343 ], [ -122.2959759, 47.6537207 ], [ -122.2960159, 47.6537074 ], [ -122.2960389, 47.653699 ], [ -122.2960522, 47.6536917 ], [ -122.2960503, 47.6536932 ], [ -122.2960717, 47.6536859 ], [ -122.2961399, 47.6536794 ], [ -122.2961596, 47.6536812 ], [ -122.2961785, 47.6536901 ], [ -122.2962037, 47.653712 ], [ -122.296262, 47.6537665 ], [ -122.2962973, 47.6537907 ], [ -122.2963471, 47.6538235 ], [ -122.2963878, 47.6538441 ], [ -122.2964155, 47.6538703 ], [ -122.2964295, 47.6538934 ], [ -122.2964426, 47.6539147 ], [ -122.2964532, 47.6539582 ], [ -122.296447, 47.6539821 ], [ -122.2964099, 47.654007 ], [ -122.2963898, 47.6540264 ], [ -122.2963801, 47.6540332 ], [ -122.297668, 47.6540233 ], [ -122.2976792, 47.6539955 ], [ -122.2977039, 47.6539557 ], [ -122.2977272, 47.6539262 ], [ -122.2977602, 47.6538966 ], [ -122.2977683, 47.6538826 ], [ -122.2977808, 47.6538704 ], [ -122.2977942, 47.6538609 ], [ -122.297825, 47.6538388 ], [ -122.2978772, 47.6538095 ], [ -122.2979615, 47.6537817 ], [ -122.298044, 47.6537511 ], [ -122.2980945, 47.6537381 ], [ -122.2981824, 47.6537276 ], [ -122.2982826, 47.6537233 ], [ -122.2983476, 47.6537225 ], [ -122.2984416, 47.6537216 ], [ -122.2985174, 47.6537221 ], [ -122.2985565, 47.6537173 ], [ -122.2985974, 47.6536943 ], [ -122.2986033, 47.6536866 ], [ -122.2986205, 47.6536638 ], [ -122.2986262, 47.6536441 ], [ -122.298632, 47.6536167 ], [ -122.2986291, 47.653599 ], [ -122.2986236, 47.6535886 ], [ -122.2986045, 47.6535768 ], [ -122.2985627, 47.6535496 ], [ -122.2985031, 47.6535076 ], [ -122.2984846, 47.653498 ], [ -122.2984651, 47.6534826 ], [ -122.2984335, 47.6534687 ], [ -122.2984178, 47.6534607 ], [ -122.2983709, 47.6534442 ], [ -122.2983133, 47.6534316 ], [ -122.2982429, 47.6534072 ], [ -122.2981873, 47.6533882 ], [ -122.2981467, 47.6533716 ], [ -122.2981241, 47.6533623 ], [ -122.298072, 47.6533574 ], [ -122.298018, 47.6533623 ], [ -122.2979703, 47.6533678 ], [ -122.297914, 47.6533615 ], [ -122.2979042, 47.6533469 ], [ -122.2979493, 47.6533238 ], [ -122.2980495, 47.6532972 ], [ -122.2982487, 47.6532806 ], [ -122.29844, 47.6532746 ], [ -122.2985459, 47.653269 ], [ -122.2986061, 47.6532648 ], [ -122.2986546, 47.6532501 ], [ -122.2987094, 47.6532367 ], [ -122.2989177, 47.6532087 ], [ -122.2989947, 47.6532065 ], [ -122.2990664, 47.6532089 ], [ -122.2991627, 47.6532046 ], [ -122.2992398, 47.6531962 ], [ -122.2993301, 47.6531786 ], [ -122.2993574, 47.6531684 ], [ -122.299373, 47.6531542 ], [ -122.2993723, 47.6527997 ], [ -122.2994152, 47.6527994 ], [ -122.2994153, 47.6527069 ], [ -122.2994257, 47.6526867 ], [ -122.299428, 47.6526765 ], [ -122.2994455, 47.6526536 ], [ -122.2994519, 47.6526395 ], [ -122.2994576, 47.6526321 ], [ -122.2994637, 47.6526221 ], [ -122.2994734, 47.6526097 ], [ -122.2994836, 47.6526029 ], [ -122.2994963, 47.6525999 ], [ -122.299501, 47.6525988 ], [ -122.2995135, 47.652593 ], [ -122.2995192, 47.6525887 ], [ -122.2995239, 47.6525826 ], [ -122.2995288, 47.6525734 ], [ -122.2995325, 47.6525654 ], [ -122.2995326, 47.6525598 ], [ -122.2995314, 47.6525531 ], [ -122.2995256, 47.6525422 ], [ -122.2994969, 47.6525118 ], [ -122.2994667, 47.65249 ], [ -122.299446, 47.652476 ], [ -122.2994158, 47.6524595 ], [ -122.2993821, 47.6524412 ], [ -122.2993535, 47.6524201 ], [ -122.2993309, 47.6524103 ], [ -122.299302, 47.6523934 ], [ -122.2992628, 47.6523824 ], [ -122.2992219, 47.6523733 ], [ -122.2991772, 47.6523547 ], [ -122.2991554, 47.6523467 ], [ -122.2991338, 47.6523424 ], [ -122.2991146, 47.6523363 ], [ -122.2990849, 47.6523345 ], [ -122.2990384, 47.6523263 ], [ -122.2989984, 47.6523186 ], [ -122.2989638, 47.6523144 ], [ -122.2988944, 47.6522999 ], [ -122.2988698, 47.6522909 ], [ -122.2988188, 47.6522803 ], [ -122.2987736, 47.652262 ], [ -122.2987544, 47.6522565 ], [ -122.2987305, 47.6522431 ], [ -122.2986804, 47.6522248 ], [ -122.2986451, 47.6522088 ], [ -122.2986175, 47.6521982 ], [ -122.2985962, 47.6521872 ], [ -122.2985754, 47.6521738 ], [ -122.2985479, 47.6521547 ], [ -122.2985189, 47.6521291 ], [ -122.2984371, 47.6520857 ], [ -122.298378, 47.6520581 ], [ -122.2983075, 47.6520385 ], [ -122.298261, 47.6520207 ], [ -122.298205, 47.6519903 ], [ -122.2981829, 47.6519805 ], [ -122.2981698, 47.651968 ], [ -122.2981632, 47.6519348 ], [ -122.2981754, 47.6519018 ], [ -122.2981888, 47.6518817 ], [ -122.298187, 47.651868 ], [ -122.2981703, 47.6518536 ], [ -122.2981567, 47.6518501 ], [ -122.2981334, 47.651851 ], [ -122.2981072, 47.6518483 ], [ -122.29808, 47.6518408 ], [ -122.2980482, 47.651832 ], [ -122.2980188, 47.6518305 ], [ -122.2980041, 47.6518329 ], [ -122.2979696, 47.6518345 ], [ -122.2979265, 47.6518245 ], [ -122.2979081, 47.6518104 ], [ -122.2978844, 47.6517441 ], [ -122.2978784, 47.6516615 ], [ -122.297884, 47.6516034 ], [ -122.2978772, 47.6515566 ], [ -122.2978558, 47.6515194 ], [ -122.2978288, 47.6514876 ], [ -122.2978242, 47.6514517 ], [ -122.2978287, 47.6514225 ], [ -122.2978463, 47.6513754 ], [ -122.2978948, 47.6512744 ], [ -122.2979379, 47.6512064 ], [ -122.2979966, 47.6511497 ], [ -122.2980342, 47.6510993 ], [ -122.2980616, 47.6510373 ], [ -122.2980818, 47.6509741 ], [ -122.2980815, 47.65097 ], [ -122.2980812, 47.6509668 ], [ -122.2980778, 47.6509618 ], [ -122.2980254, 47.6509168 ], [ -122.2980027, 47.6508888 ], [ -122.2979958, 47.6508383 ], [ -122.2980251, 47.6507787 ], [ -122.2980412, 47.6507551 ], [ -122.2980642, 47.6507372 ], [ -122.2980793, 47.650728 ], [ -122.2980988, 47.6507223 ], [ -122.2982223, 47.6507132 ], [ -122.2983873, 47.6507047 ], [ -122.2984081, 47.6507026 ], [ -122.2984557, 47.6507041 ], [ -122.2985009, 47.6507055 ], [ -122.2985413, 47.6507028 ], [ -122.2985718, 47.6506969 ], [ -122.2986009, 47.6506812 ], [ -122.2986293, 47.6506572 ], [ -122.2986847, 47.6505966 ], [ -122.2987286, 47.6505135 ], [ -122.2987343, 47.6505074 ], [ -122.2987409, 47.6504952 ], [ -122.2987401, 47.6504683 ], [ -122.2987315, 47.6504512 ], [ -122.2987026, 47.6504186 ], [ -122.298691, 47.6504092 ], [ -122.2986718, 47.6504067 ], [ -122.2986694, 47.6504081 ], [ -122.298643, 47.6504353 ], [ -122.2986259, 47.6504476 ], [ -122.2986074, 47.6504565 ], [ -122.2985872, 47.6504545 ], [ -122.2985708, 47.6504481 ], [ -122.2985617, 47.6504412 ], [ -122.2985572, 47.6504338 ], [ -122.2985589, 47.650419 ], [ -122.2985618, 47.6504067 ], [ -122.2985775, 47.6503717 ], [ -122.2985888, 47.6503546 ], [ -122.2986061, 47.6503206 ], [ -122.2986137, 47.6503019 ], [ -122.2986303, 47.6502743 ], [ -122.2986411, 47.650253 ], [ -122.2986675, 47.6501973 ], [ -122.2987063, 47.6501314 ], [ -122.2987301, 47.6500673 ], [ -122.2987661, 47.6499932 ], [ -122.2987771, 47.6499396 ], [ -122.298795, 47.6498718 ], [ -122.2988029, 47.6497993 ], [ -122.2988096, 47.6497744 ], [ -122.2988134, 47.6497666 ], [ -122.2988168, 47.6497618 ], [ -122.2988231, 47.6497504 ], [ -122.2988299, 47.6497363 ], [ -122.2988435, 47.6497064 ], [ -122.2988541, 47.6496703 ], [ -122.2988737, 47.6496305 ], [ -122.2988881, 47.6495963 ], [ -122.298898, 47.6495323 ], [ -122.2989425, 47.6494186 ], [ -122.2989481, 47.6493936 ], [ -122.2989748, 47.6493221 ], [ -122.2989833, 47.6493025 ], [ -122.2989991, 47.6492555 ], [ -122.2990002, 47.649233 ], [ -122.2990094, 47.6492061 ], [ -122.2990286, 47.6491541 ], [ -122.2990529, 47.6490912 ], [ -122.2990589, 47.6490703 ], [ -122.299059, 47.6490503 ], [ -122.2990722, 47.6490082 ], [ -122.2990873, 47.6489697 ], [ -122.2991047, 47.6489336 ], [ -122.2991141, 47.6489102 ], [ -122.2991262, 47.6488798 ], [ -122.299137, 47.648857 ], [ -122.2991556, 47.6488274 ], [ -122.2991663, 47.6488177 ], [ -122.299178, 47.6487989 ], [ -122.2991917, 47.6487839 ], [ -122.2992033, 47.6487637 ], [ -122.2992212, 47.6487353 ], [ -122.2992342, 47.6487063 ], [ -122.299249, 47.6486831 ], [ -122.2992559, 47.6486698 ], [ -122.2993075, 47.6486043 ], [ -122.2993434, 47.6485686 ], [ -122.2994643, 47.6484199 ], [ -122.2995075, 47.6483567 ], [ -122.2995462, 47.6483245 ], [ -122.2995747, 47.648315 ], [ -122.2996408, 47.6482947 ], [ -122.2996772, 47.6482766 ], [ -122.2996929, 47.6482588 ], [ -122.299704, 47.6482392 ], [ -122.2997107, 47.6482214 ], [ -122.2997139, 47.6481893 ], [ -122.2997148, 47.6481803 ], [ -122.3043095, 47.6481998 ], [ -122.3049181, 47.6482023 ], [ -122.3097663, 47.6482226 ], [ -122.3103749, 47.64822 ], [ -122.3123085, 47.6491859 ], [ -122.3129895, 47.6495359 ], [ -122.3138123, 47.6500352 ], [ -122.3128511, 47.6505003 ], [ -122.3126423, 47.6503025 ], [ -122.3122877, 47.6504693 ], [ -122.3122795, 47.6508497 ], [ -122.3123765, 47.6508533 ], [ -122.3124875, 47.650861 ], [ -122.3125948, 47.6508755 ], [ -122.3127001, 47.6508968 ], [ -122.3128017, 47.6509246 ], [ -122.3128974, 47.650958 ], [ -122.3129914, 47.6509987 ], [ -122.313077, 47.651044 ], [ -122.3131582, 47.651096 ], [ -122.3132646, 47.6511823 ], [ -122.3134545, 47.6513624 ], [ -122.3135138, 47.6514319 ], [ -122.3135538, 47.6514978 ], [ -122.3135818, 47.6515677 ], [ -122.3135962, 47.6516384 ], [ -122.3135975, 47.6517103 ], [ -122.3138561, 47.6517181 ], [ -122.3138672, 47.6517067 ], [ -122.3138852, 47.6516976 ], [ -122.3139046, 47.6516938 ], [ -122.3139247, 47.6516944 ], [ -122.3146877, 47.6519802 ], [ -122.3147096, 47.651974 ], [ -122.314732, 47.6519769 ], [ -122.3166975, 47.6527139 ], [ -122.3173769, 47.6531907 ], [ -122.3174253, 47.6532384 ], [ -122.3174438, 47.6532718 ], [ -122.3174524, 47.6533041 ], [ -122.3174528, 47.653337 ], [ -122.3174438, 47.653372 ], [ -122.3173662, 47.6535354 ], [ -122.3173536, 47.6535461 ], [ -122.3173365, 47.6535534 ], [ -122.3172998, 47.6535556 ], [ -122.3172313, 47.65377 ], [ -122.3173529, 47.6537915 ], [ -122.3174718, 47.6538192 ], [ -122.3175873, 47.6538528 ], [ -122.3176987, 47.6538923 ], [ -122.317802, 47.6539357 ], [ -122.3179027, 47.6539855 ], [ -122.318435, 47.6542891 ], [ -122.3185898, 47.6543643 ], [ -122.3187458, 47.6544298 ], [ -122.3187457, 47.6544602 ], [ -122.3186201, 47.6546225 ] ] ], [ [ [ -122.2974021, 47.6643429 ], [ -122.297405, 47.664891 ], [ -122.2986227, 47.6648923 ], [ -122.2990274, 47.6648928 ], [ -122.3006839, 47.664895 ], [ -122.3004877, 47.6656025 ], [ -122.300062, 47.6656029 ], [ -122.300062, 47.665587 ], [ -122.2986294, 47.6655886 ], [ -122.2986319, 47.6660717 ], [ -122.2985583, 47.6660549 ], [ -122.2984858, 47.666037 ], [ -122.2984141, 47.6660179 ], [ -122.2983431, 47.6659975 ], [ -122.2982728, 47.665976 ], [ -122.2981987, 47.6659522 ], [ -122.2981252, 47.6659276 ], [ -122.2980524, 47.6659021 ], [ -122.2979802, 47.6658757 ], [ -122.2979088, 47.6658485 ], [ -122.2978201, 47.6658122 ], [ -122.2977326, 47.6657747 ], [ -122.2976461, 47.6657361 ], [ -122.2975607, 47.6656964 ], [ -122.2974765, 47.6656556 ], [ -122.2973935, 47.6656137 ], [ -122.2973117, 47.6655707 ], [ -122.2972311, 47.6655266 ], [ -122.2971542, 47.6654846 ], [ -122.2970786, 47.6654416 ], [ -122.2970043, 47.6653975 ], [ -122.2969312, 47.6653524 ], [ -122.2968596, 47.6653064 ], [ -122.2967892, 47.6652594 ], [ -122.2967487, 47.6652312 ], [ -122.2967203, 47.6652115 ], [ -122.2966528, 47.6651627 ], [ -122.2965868, 47.665113 ], [ -122.2965222, 47.6650624 ], [ -122.2964591, 47.6650109 ], [ -122.2963054, 47.6648899 ], [ -122.2957545, 47.6644561 ], [ -122.2957539, 47.6643408 ], [ -122.2971181, 47.6643421 ], [ -122.2974021, 47.6643429 ] ] ] ] } },
{ "type": "Feature", "properties": { "element_type": "way", "osmid": "258348415", "amenity": "university", "name": "Central Washington University - Sammamish", "nodes": [ 2637161912, 2637161914, 2637161916, 2637161918, 2637161912 ], "addr:city": "nan", "addr:country": "nan", "addr:housenumber": "nan", "addr:postcode": "nan", "addr:street": "nan", "ele": "nan", "gnis:county_id": "nan", "gnis:created": "nan", "gnis:feature_id": "nan", "gnis:state_id": "nan", "website": "https://www.cwu.edu/sammamish/", "wheelchair": "nan", "wikidata": "nan", "wikipedia": "nan", "addr:state": "nan", "operator": "nan", "source": "nan", "addr:suite": "nan", "brand": "nan", "brand:wikidata": "nan", "brand:wikipedia": "nan", "short_name": "nan", "ways": "nan", "start_date": "nan", "type": "nan", "gnis:edited": "nan", "addr:housename": "nan", "building": "university", "alt_name": "nan", "alt_name:zh": "nan", "alt_name:zh-Hans": "nan", "alt_name:zh-Hant": "nan", "internet_access": "nan", "name:en": "nan", "name:zh": "nan", "name:zh-Hans": "nan", "name:zh-Hant": "nan" }, "geometry": { "type": "Polygon", "coordinates": [ [ [ -122.033809, 47.6106674 ], [ -122.0334252, 47.6105647 ], [ -122.0337524, 47.6099875 ], [ -122.0341318, 47.6100846 ], [ -122.033809, 47.6106674 ] ] ] } }
]
}
