{
"type": "FeatureCollection",
"crs": { "type": "name", "properties": { "name": "urn:ogc:def:crs:OGC:1.3:CRS84" } },
"features": [
{ "type": "Feature", "properties": { "element_type": "way", "osmid": "13952299", "nodes": [ 7709596265, 7709596268, 5848001733, 5848001773, 7709596267, 132033719, 5745971396, 5745971400, 5745971404, 5857018522, 5857018521, 132008526, 132008525, 7709596266, 7709596265 ], "ele": "96", "gnis:county_id": "053", "gnis:created": "09/10/1979", "gnis:feature_id": "1508893", "gnis:state_id": "53", "landuse": "cemetery", "name": "Tacoma Cemetery", "alt_name": "nan", "amenity": "nan", "wikidata": "nan", "wikipedia": "nan", "city": "nan", "addr:city": "nan", "addr:housenumber": "nan", "addr:postcode": "nan", "addr:street": "nan", "barrier": "nan", "source": "nan", "name:zh": "nan", "name:zh-Hans": "nan", "name:zh-Hant": "nan", "website": "nan", "name_1": "nan", "name_2": "nan", "name_3": "nan", "name_4": "nan", "note": "nan", "religion": "nan", "cemetery": "nan", "start_date": "nan", "ways": "nan", "type": "nan", "wikimedia_commons": "nan", "addr:state": "nan", "denomination": "nan", "fax": "nan", "opening_hours": "nan", "phone": "nan" }, "geometry": { "type": "Polygon", "coordinates": [ [ [ -122.47511, 47.2101344 ], [ -122.4751166, 47.2104833 ], [ -122.4751816, 47.2116831 ], [ -122.4751809, 47.2118284 ], [ -122.4751689, 47.213193 ], [ -122.4751689, 47.2137401 ], [ -122.4770565, 47.2137461 ], [ -122.4791131, 47.2137526 ], [ -122.4799865, 47.2137552 ], [ -122.4826978, 47.213746 ], [ -122.4827485, 47.2138066 ], [ -122.4831711, 47.2136842 ], [ -122.4820742, 47.2124975 ], [ -122.4799894, 47.2101296 ], [ -122.47511, 47.2101344 ] ] ] } },
{ "type": "Feature", "properties": { "element_type": "way", "osmid": "24657761", "nodes": [ 86676963, 4752896060, 5133453552, 5133453547, 4764222957, 4764222735, 4764222736, 4764222751, 86682877, 86682876, 86682875, 86682874, 268017528, 53190330, 268017529, 86682873, 268017530, 86682872, 86682871, 268017531, 8310793216, 53190328, 268017534, 268017532, 268017535, 86682870, 268017533, 86682869, 9027798343, 86682868, 86682867, 86682866, 86682865, 2431537451, 86682864, 6902004258, 86682863, 268017717, 86682862, 268017718, 53190326, 268017719, 86679515, 86679514, 86679512, 2431537446, 53190323, 268013027, 86679510, 268018540, 53190321, 86676965, 86676964, 86676963 ], "ele": "92", "gnis:county_id": "033", "gnis:created": "05/01/1992", "gnis:feature_id": "1511817", "gnis:state_id": "53", "landuse": "cemetery", "name": "Mountain View Cemetery", "alt_name": "Auburn Cemetery", "amenity": "nan", "wikidata": "nan", "wikipedia": "nan", "city": "nan", "addr:city": "nan", "addr:housenumber": "nan", "addr:postcode": "nan", "addr:street": "nan", "barrier": "nan", "source": "nan", "name:zh": "nan", "name:zh-Hans": "nan", "name:zh-Hant": "nan", "website": "nan", "name_1": "nan", "name_2": "nan", "name_3": "nan", "name_4": "nan", "note": "nan", "religion": "nan", "cemetery": "nan", "start_date": "nan", "ways": "nan", "type": "nan", "wikimedia_commons": "nan", "addr:state": "nan", "denomination": "nan", "fax": "nan", "opening_hours": "nan", "phone": "nan" }, "geometry": { "type": "Polygon", "coordinates": [ [ [ -122.2628108, 47.304955 ], [ -122.2627332, 47.3064858 ], [ -122.262769, 47.3071219 ], [ -122.2611923, 47.3071545 ], [ -122.260556, 47.3076882 ], [ -122.2586905, 47.3085001 ], [ -122.2559519, 47.3084848 ], [ -122.2559404, 47.3081647 ], [ -122.2559278, 47.3079831 ], [ -122.2560552, 47.3079767 ], [ -122.2562523, 47.3079776 ], [ -122.2564133, 47.3079594 ], [ -122.2564951, 47.307923 ], [ -122.2565248, 47.307882 ], [ -122.2565308, 47.3078199 ], [ -122.2565147, 47.3077621 ], [ -122.2564592, 47.3076865 ], [ -122.2561625, 47.3074438 ], [ -122.2558929, 47.3072456 ], [ -122.2556488, 47.307071 ], [ -122.2555988, 47.3069508 ], [ -122.2555885, 47.3069246 ], [ -122.2556099, 47.3067663 ], [ -122.2556743, 47.3066518 ], [ -122.2558039, 47.3064663 ], [ -122.255903, 47.306338 ], [ -122.2559989, 47.3062366 ], [ -122.2561893, 47.306057 ], [ -122.256247, 47.3060043 ], [ -122.2565648, 47.305716 ], [ -122.2567257, 47.3055614 ], [ -122.2569081, 47.305385 ], [ -122.2572209, 47.3051311 ], [ -122.2574018, 47.3050067 ], [ -122.2576255, 47.304871 ], [ -122.2577324, 47.3048156 ], [ -122.2577682, 47.304797 ], [ -122.2579742, 47.3047116 ], [ -122.2581517, 47.3046518 ], [ -122.2582866, 47.3046095 ], [ -122.2584199, 47.3045931 ], [ -122.2585719, 47.3046073 ], [ -122.2587222, 47.3046426 ], [ -122.2589758, 47.304727 ], [ -122.2596796, 47.3049772 ], [ -122.2599013, 47.3050396 ], [ -122.2601184, 47.3050897 ], [ -122.2604512, 47.3051441 ], [ -122.2606409, 47.3051518 ], [ -122.2609425, 47.3051715 ], [ -122.2612286, 47.3051712 ], [ -122.2616795, 47.3051169 ], [ -122.2622717, 47.3050228 ], [ -122.2628108, 47.304955 ] ] ] } },
{ "type": "Feature", "properties": { "element_type": "way", "osmid": "24659025", "nodes": [ 268023851, 2550154806, 356543020, 2705002052, 110831724, 2550154819, 53039211, 268024145, 53039212, 268023888, 268023887, 4989625364, 53197136, 4989625363, 2550154956, 268023886, 2550154955, 2550154803, 268023859, 268023851 ], "ele": "26", "gnis:county_id": "033", "gnis:created": "11/01/1992", "gnis:feature_id": "1514454", "gnis:state_id": "53", "landuse": "cemetery", "name": "Gethsemane Cemetery", "alt_name": "nan", "amenity": "grave_yard", "wikidata": "nan", "wikipedia": "nan", "city": "nan", "addr:city": "nan", "addr:housenumber": "nan", "addr:postcode": "nan", "addr:street": "nan", "barrier": "nan", "source": "nan", "name:zh": "nan", "name:zh-Hans": "nan", "name:zh-Hant": "nan", "website": "nan", "name_1": "nan", "name_2": "nan", "name_3": "nan", "name_4": "nan", "note": "nan", "religion": "nan", "cemetery": "nan", "start_date": "nan", "ways": "nan", "type": "nan", "wikimedia_commons": "nan", "addr:state": "nan", "denomination": "nan", "fax": "nan", "opening_hours": "nan", "phone": "nan" }, "geometry": { "type": "Polygon", "coordinates": [ [ [ -122.3323841, 47.2630998 ], [ -122.3335165, 47.2622719 ], [ -122.3350848, 47.2633283 ], [ -122.3358373, 47.2638401 ], [ -122.3356987, 47.2641903 ], [ -122.3356708, 47.264257 ], [ -122.3356149, 47.2643912 ], [ -122.3353917, 47.2649062 ], [ -122.3351774, 47.2653652 ], [ -122.3321414, 47.2653037 ], [ -122.3321362, 47.2646708 ], [ -122.3302456, 47.2645975 ], [ -122.3295468, 47.2645704 ], [ -122.3282742, 47.2645655 ], [ -122.3266104, 47.264559 ], [ -122.3235801, 47.2645363 ], [ -122.3265731, 47.261841 ], [ -122.3270754, 47.2613886 ], [ -122.3317141, 47.2635631 ], [ -122.3323841, 47.2630998 ] ] ] } },
{ "type": "Feature", "properties": { "element_type": "way", "osmid": "25102466", "nodes": [ 273221475, 273221476, 273221477, 273221481, 273221478, 273221482, 273221479, 273221480, 110568259, 110568261, 110568262, 110568263, 2324926115, 110568264, 110568266, 3735321410, 110526830, 6492713976, 110403071, 6492714101, 356543707, 8603714297, 8603714296, 273221475 ], "ele": "nan", "gnis:county_id": "nan", "gnis:created": "nan", "gnis:feature_id": "nan", "gnis:state_id": "nan", "landuse": "cemetery", "name": "Home Of Peace Cemetery", "alt_name": "nan", "amenity": "nan", "wikidata": "nan", "wikipedia": "nan", "city": "nan", "addr:city": "nan", "addr:housenumber": "nan", "addr:postcode": "nan", "addr:street": "nan", "barrier": "nan", "source": "nan", "name:zh": "nan", "name:zh-Hans": "nan", "name:zh-Hant": "nan", "website": "nan", "name_1": "nan", "name_2": "nan", "name_3": "nan", "name_4": "nan", "note": "nan", "religion": "nan", "cemetery": "nan", "start_date": "nan", "ways": "nan", "type": "nan", "wikimedia_commons": "nan", "addr:state": "nan", "denomination": "nan", "fax": "nan", "opening_hours": "nan", "phone": "nan" }, "geometry": { "type": "Polygon", "coordinates": [ [ [ -122.5103884, 47.1793424 ], [ -122.5095041, 47.1790304 ], [ -122.509187, 47.1789297 ], [ -122.5089993, 47.1788856 ], [ -122.5087945, 47.1788693 ], [ -122.508583, 47.1788663 ], [ -122.5083946, 47.1788785 ], [ -122.5081202, 47.1788995 ], [ -122.507929, 47.178435 ], [ -122.507889, 47.178272 ], [ -122.507872, 47.178183 ], [ -122.507854, 47.178092 ], [ -122.5078262, 47.1776152 ], [ -122.507823, 47.177561 ], [ -122.507827, 47.177243 ], [ -122.5078046, 47.1764984 ], [ -122.5086311, 47.1764946 ], [ -122.509368, 47.1764946 ], [ -122.5103893, 47.1764947 ], [ -122.5104221, 47.1766187 ], [ -122.5104291, 47.177427 ], [ -122.510388, 47.178417 ], [ -122.510388, 47.1787756 ], [ -122.5103884, 47.1793424 ] ] ] } },
{ "type": "Feature", "properties": { "element_type": "way", "osmid": "25102625", "nodes": [ 3247117614, 3735321421, 4638843694, 273224068, 273224069, 110668296, 7936001123, 273224071, 273224074, 110732897, 3247117618, 3247117617, 3247117614 ], "ele": "81", "gnis:county_id": "053", "gnis:created": "09/10/1979", "gnis:feature_id": "1506832", "gnis:state_id": "53", "landuse": "cemetery", "name": "Mountain View Memorial Park", "alt_name": "nan", "amenity": "grave_yard", "wikidata": "nan", "wikipedia": "nan", "city": "nan", "addr:city": "nan", "addr:housenumber": "nan", "addr:postcode": "nan", "addr:street": "nan", "barrier": "nan", "source": "nan", "name:zh": "nan", "name:zh-Hans": "nan", "name:zh-Hant": "nan", "website": "nan", "name_1": "nan", "name_2": "nan", "name_3": "nan", "name_4": "nan", "note": "nan", "religion": "nan", "cemetery": "nan", "start_date": "nan", "ways": "nan", "type": "nan", "wikimedia_commons": "nan", "addr:state": "nan", "denomination": "nan", "fax": "nan", "opening_hours": "nan", "phone": "nan" }, "geometry": { "type": "Polygon", "coordinates": [ [ [ -122.4903712, 47.1766252 ], [ -122.4982618, 47.1766422 ], [ -122.4982426, 47.1777333 ], [ -122.4982662, 47.1806377 ], [ -122.4974851, 47.1806338 ], [ -122.497486, 47.185077 ], [ -122.497481, 47.1855096 ], [ -122.4974696, 47.1864903 ], [ -122.4903652, 47.1864873 ], [ -122.490358, 47.187467 ], [ -122.4864873, 47.1873546 ], [ -122.4866319, 47.1868024 ], [ -122.4903712, 47.1766252 ] ] ] } },
{ "type": "Feature", "properties": { "element_type": "way", "osmid": "25103297", "nodes": [ 110873111, 5716695607, 273238817, 110568210, 5716696366, 5716696367, 5716696368, 5553197253, 5716696369, 5716696370, 110873115, 110873111 ], "ele": "77", "gnis:county_id": "053", "gnis:created": "09/10/1979", "gnis:feature_id": "1503719", "gnis:state_id": "53", "landuse": "cemetery", "name": "Calvary Cemetery", "alt_name": "nan", "amenity": "nan", "wikidata": "Q5024159", "wikipedia": "en:Calvary Cemetery (Tacoma, Washington)", "city": "nan", "addr:city": "nan", "addr:housenumber": "nan", "addr:postcode": "nan", "addr:street": "nan", "barrier": "nan", "source": "nan", "name:zh": "nan", "name:zh-Hans": "nan", "name:zh-Hant": "nan", "website": "nan", "name_1": "nan", "name_2": "nan", "name_3": "nan", "name_4": "nan", "note": "nan", "religion": "nan", "cemetery": "nan", "start_date": "nan", "ways": "nan", "type": "nan", "wikimedia_commons": "nan", "addr:state": "nan", "denomination": "nan", "fax": "nan", "opening_hours": "nan", "phone": "nan" }, "geometry": { "type": "Polygon", "coordinates": [ [ [ -122.5013433, 47.1944376 ], [ -122.5013072, 47.1930785 ], [ -122.5013055, 47.1906292 ], [ -122.5085662, 47.190658 ], [ -122.5086085, 47.1906725 ], [ -122.5086355, 47.1906905 ], [ -122.5086546, 47.1907256 ], [ -122.5085254, 47.1942317 ], [ -122.508515, 47.1942557 ], [ -122.5084773, 47.19427 ], [ -122.5019117, 47.1942435 ], [ -122.5013433, 47.1944376 ] ] ] } },
{ "type": "Feature", "properties": { "element_type": "way", "osmid": "25107449", "nodes": [ 273310564, 5613919619, 110431240, 110630694, 7327060864, 7327060856, 110733329, 110812750, 273309775, 110812751, 110812752, 273309771, 110812755, 273309767, 110812757, 110711493, 110812763, 6373549202, 273310570, 5480074979, 5480074977, 110700689, 273310564 ], "ele": "72", "gnis:county_id": "053", "gnis:created": "09/10/1979", "gnis:feature_id": "1509614", "gnis:state_id": "53", "landuse": "cemetery", "name": "Woodbine Cemetery", "alt_name": "nan", "amenity": "grave_yard", "wikidata": "nan", "wikipedia": "nan", "city": "nan", "addr:city": "nan", "addr:housenumber": "nan", "addr:postcode": "nan", "addr:street": "nan", "barrier": "nan", "source": "nan", "name:zh": "nan", "name:zh-Hans": "nan", "name:zh-Hant": "nan", "website": "nan", "name_1": "nan", "name_2": "nan", "name_3": "nan", "name_4": "nan", "note": "nan", "religion": "nan", "cemetery": "nan", "start_date": "nan", "ways": "nan", "type": "nan", "wikimedia_commons": "nan", "addr:state": "nan", "denomination": "nan", "fax": "nan", "opening_hours": "nan", "phone": "nan" }, "geometry": { "type": "Polygon", "coordinates": [ [ [ -122.3003043, 47.1689775 ], [ -122.3040808, 47.1690132 ], [ -122.3042003, 47.1690142 ], [ -122.3042149, 47.1698569 ], [ -122.3042035, 47.1706186 ], [ -122.3042, 47.1708544 ], [ -122.304189, 47.1715871 ], [ -122.3040876, 47.1715862 ], [ -122.3040338, 47.1715921 ], [ -122.303989, 47.1716085 ], [ -122.3038709, 47.1716962 ], [ -122.3038105, 47.1717226 ], [ -122.3037458, 47.17174 ], [ -122.3036864, 47.171748 ], [ -122.303618, 47.1717496 ], [ -122.3015121, 47.1717642 ], [ -122.301065, 47.171749 ], [ -122.3006387, 47.1717444 ], [ -122.2988407, 47.1717249 ], [ -122.2988298, 47.1702537 ], [ -122.298829, 47.1701352 ], [ -122.2988265, 47.1698112 ], [ -122.3003043, 47.1689775 ] ] ] } },
{ "type": "Feature", "properties": { "element_type": "way", "osmid": "25684645", "nodes": [ 1036699274, 280018478, 280018479, 1036699225, 1036699251, 1036699267, 1036699285, 1036699208, 1036699217, 1036619968, 1036619954, 1036619959, 1036619970, 1036619981, 1036619990, 1036619958, 1036619987, 1036699278, 1036699257, 1036699274 ], "ele": "21", "gnis:county_id": "053", "gnis:created": "09/10/1979", "gnis:feature_id": "1508816", "gnis:state_id": "53", "landuse": "cemetery", "name": "Sumner Cemetery", "alt_name": "nan", "amenity": "nan", "wikidata": "nan", "wikipedia": "nan", "city": "nan", "addr:city": "nan", "addr:housenumber": "nan", "addr:postcode": "nan", "addr:street": "nan", "barrier": "nan", "source": "nan", "name:zh": "nan", "name:zh-Hans": "nan", "name:zh-Hant": "nan", "website": "nan", "name_1": "nan", "name_2": "nan", "name_3": "nan", "name_4": "nan", "note": "nan", "religion": "nan", "cemetery": "nan", "start_date": "nan", "ways": "nan", "type": "nan", "wikimedia_commons": "nan", "addr:state": "nan", "denomination": "nan", "fax": "nan", "opening_hours": "nan", "phone": "nan" }, "geometry": { "type": "Polygon", "coordinates": [ [ [ -122.2680019, 47.2053555 ], [ -122.2680486, 47.2040049 ], [ -122.2672648, 47.2039924 ], [ -122.2672216, 47.2052405 ], [ -122.2646953, 47.2047562 ], [ -122.2637488, 47.2045752 ], [ -122.2635788, 47.2045432 ], [ -122.263574, 47.2030094 ], [ -122.2636393, 47.2017988 ], [ -122.2624647, 47.2017971 ], [ -122.2632937, 47.2012824 ], [ -122.2648962, 47.2010214 ], [ -122.2655926, 47.2010993 ], [ -122.2663435, 47.2011891 ], [ -122.2669508, 47.2011787 ], [ -122.2674389, 47.2012593 ], [ -122.2689704, 47.2015281 ], [ -122.269019, 47.2043951 ], [ -122.2690187, 47.2055483 ], [ -122.2680019, 47.2053555 ] ] ] } },
{ "type": "Feature", "properties": { "element_type": "way", "osmid": "26787030", "nodes": [ 5681046443, 5681046442, 5681046441, 5616450526, 5695741762, 5695741763, 5695741764, 5695741765, 5695741767, 5695741768, 1689009264, 1689009262, 293829908, 293829909, 5652131590, 110676795, 5681046443 ], "ele": "74", "gnis:county_id": "053", "gnis:created": "09/10/1979", "gnis:feature_id": "1506965", "gnis:state_id": "53", "landuse": "cemetery", "name": "New Tacoma Cemetery", "alt_name": "nan", "amenity": "nan", "wikidata": "nan", "wikipedia": "nan", "city": "University Place", "addr:city": "nan", "addr:housenumber": "nan", "addr:postcode": "nan", "addr:street": "nan", "barrier": "nan", "source": "nan", "name:zh": "nan", "name:zh-Hans": "nan", "name:zh-Hant": "nan", "website": "nan", "name_1": "nan", "name_2": "nan", "name_3": "nan", "name_4": "nan", "note": "nan", "religion": "nan", "cemetery": "nan", "start_date": "nan", "ways": "nan", "type": "nan", "wikimedia_commons": "nan", "addr:state": "nan", "denomination": "nan", "fax": "nan", "opening_hours": "nan", "phone": "nan" }, "geometry": { "type": "Polygon", "coordinates": [ [ [ -122.564351, 47.1990357 ], [ -122.5643939, 47.1999754 ], [ -122.5659981, 47.1999544 ], [ -122.5660147, 47.2004182 ], [ -122.5660184, 47.200974 ], [ -122.5660121, 47.2019938 ], [ -122.5660184, 47.2031652 ], [ -122.5660046, 47.2041617 ], [ -122.5660622, 47.2042596 ], [ -122.5661504, 47.2043248 ], [ -122.5656063, 47.2042981 ], [ -122.5634773, 47.204273 ], [ -122.5634893, 47.2060278 ], [ -122.5570385, 47.2059833 ], [ -122.5569528, 47.1991355 ], [ -122.5569516, 47.1990706 ], [ -122.564351, 47.1990357 ] ] ] } },
{ "type": "Feature", "properties": { "element_type": "way", "osmid": "89375754", "nodes": [ 1036652581, 1036652570, 1036652623, 1036652650, 1036652581 ], "ele": "nan", "gnis:county_id": "nan", "gnis:created": "nan", "gnis:feature_id": "nan", "gnis:state_id": "nan", "landuse": "cemetery", "name": "nan", "alt_name": "nan", "amenity": "nan", "wikidata": "nan", "wikipedia": "nan", "city": "nan", "addr:city": "nan", "addr:housenumber": "nan", "addr:postcode": "nan", "addr:street": "nan", "barrier": "nan", "source": "nan", "name:zh": "nan", "name:zh-Hans": "nan", "name:zh-Hant": "nan", "website": "nan", "name_1": "nan", "name_2": "nan", "name_3": "nan", "name_4": "nan", "note": "nan", "religion": "nan", "cemetery": "nan", "start_date": "nan", "ways": "nan", "type": "nan", "wikimedia_commons": "nan", "addr:state": "nan", "denomination": "nan", "fax": "nan", "opening_hours": "nan", "phone": "nan" }, "geometry": { "type": "Polygon", "coordinates": [ [ [ -122.2598033, 47.2051821 ], [ -122.2639686, 47.2057572 ], [ -122.2642255, 47.204813 ], [ -122.2597906, 47.203986 ], [ -122.2598033, 47.2051821 ] ] ] } },
{ "type": "Feature", "properties": { "element_type": "way", "osmid": "238142559", "nodes": [ 2459988116, 2459988164, 2459988141, 2459988118, 2459988133, 2459988135, 2459988116 ], "ele": "nan", "gnis:county_id": "nan", "gnis:created": "nan", "gnis:feature_id": "nan", "gnis:state_id": "nan", "landuse": "cemetery", "name": "Fox Island Cemetery", "alt_name": "nan", "amenity": "nan", "wikidata": "nan", "wikipedia": "nan", "city": "nan", "addr:city": "nan", "addr:housenumber": "nan", "addr:postcode": "nan", "addr:street": "nan", "barrier": "nan", "source": "nan", "name:zh": "nan", "name:zh-Hans": "nan", "name:zh-Hant": "nan", "website": "nan", "name_1": "nan", "name_2": "nan", "name_3": "nan", "name_4": "nan", "note": "nan", "religion": "nan", "cemetery": "nan", "start_date": "nan", "ways": "nan", "type": "nan", "wikimedia_commons": "nan", "addr:state": "nan", "denomination": "nan", "fax": "nan", "opening_hours": "nan", "phone": "nan" }, "geometry": { "type": "Polygon", "coordinates": [ [ [ -122.6370657, 47.2504575 ], [ -122.6354878, 47.2504523 ], [ -122.6354913, 47.2498585 ], [ -122.6370014, 47.2498585 ], [ -122.637055, 47.2500188 ], [ -122.6370657, 47.2502354 ], [ -122.6370657, 47.2504575 ] ] ] } },
{ "type": "Feature", "properties": { "element_type": "way", "osmid": "239921649", "nodes": [ 2476912654, 2476912653, 2476912655, 2476912652, 2476912654 ], "ele": "nan", "gnis:county_id": "nan", "gnis:created": "nan", "gnis:feature_id": "nan", "gnis:state_id": "nan", "landuse": "cemetery", "name": "Ross Cemetery", "alt_name": "nan", "amenity": "nan", "wikidata": "nan", "wikipedia": "nan", "city": "nan", "addr:city": "nan", "addr:housenumber": "nan", "addr:postcode": "nan", "addr:street": "nan", "barrier": "nan", "source": "nan", "name:zh": "nan", "name:zh-Hans": "nan", "name:zh-Hant": "nan", "website": "nan", "name_1": "nan", "name_2": "nan", "name_3": "nan", "name_4": "nan", "note": "nan", "religion": "nan", "cemetery": "nan", "start_date": "nan", "ways": "nan", "type": "nan", "wikimedia_commons": "nan", "addr:state": "nan", "denomination": "nan", "fax": "nan", "opening_hours": "nan", "phone": "nan" }, "geometry": { "type": "Polygon", "coordinates": [ [ [ -122.6250124, 47.0295995 ], [ -122.6248429, 47.0295871 ], [ -122.6248249, 47.029701 ], [ -122.6249944, 47.0297135 ], [ -122.6250124, 47.0295995 ] ] ] } },
{ "type": "Feature", "properties": { "element_type": "way", "osmid": "383486623", "nodes": [ 3867671567, 3867671569, 3867671575, 3867671582, 3867671584, 3867671563, 3867671607, 3867671605, 3867671602, 3867671557, 3867671580, 3867671567 ], "ele": "nan", "gnis:county_id": "nan", "gnis:created": "nan", "gnis:feature_id": "nan", "gnis:state_id": "nan", "landuse": "cemetery", "name": "Washington Soldiers Home Cemetery", "alt_name": "nan", "amenity": "nan", "wikidata": "nan", "wikipedia": "nan", "city": "nan", "addr:city": "nan", "addr:housenumber": "nan", "addr:postcode": "nan", "addr:street": "nan", "barrier": "nan", "source": "nan", "name:zh": "nan", "name:zh-Hans": "nan", "name:zh-Hant": "nan", "website": "nan", "name_1": "nan", "name_2": "nan", "name_3": "nan", "name_4": "nan", "note": "nan", "religion": "nan", "cemetery": "nan", "start_date": "nan", "ways": "nan", "type": "nan", "wikimedia_commons": "nan", "addr:state": "nan", "denomination": "nan", "fax": "nan", "opening_hours": "nan", "phone": "nan" }, "geometry": { "type": "Polygon", "coordinates": [ [ [ -122.2275258, 47.0801008 ], [ -122.2252157, 47.0800856 ], [ -122.2251546, 47.0812985 ], [ -122.2252718, 47.0814333 ], [ -122.2257251, 47.0814601 ], [ -122.2261347, 47.0814634 ], [ -122.226515, 47.0812742 ], [ -122.2268857, 47.081045 ], [ -122.2271745, 47.0807538 ], [ -122.227472, 47.0804515 ], [ -122.2275252, 47.0803095 ], [ -122.2275258, 47.0801008 ] ] ] } },
{ "type": "Feature", "properties": { "element_type": "way", "osmid": "383486626", "nodes": [ 3867671613, 3867671558, 3867671571, 3867671599, 3867671562, 3867669351, 3867671586, 3867671606, 3867671565, 3867671570, 3867671572, 3867671573, 3867671603, 3867671608, 3867671613 ], "ele": "nan", "gnis:county_id": "nan", "gnis:created": "nan", "gnis:feature_id": "nan", "gnis:state_id": "nan", "landuse": "cemetery", "name": "Orting Cemetery", "alt_name": "nan", "amenity": "nan", "wikidata": "nan", "wikipedia": "nan", "city": "nan", "addr:city": "nan", "addr:housenumber": "nan", "addr:postcode": "nan", "addr:street": "nan", "barrier": "nan", "source": "nan", "name:zh": "nan", "name:zh-Hans": "nan", "name:zh-Hant": "nan", "website": "nan", "name_1": "nan", "name_2": "nan", "name_3": "nan", "name_4": "nan", "note": "nan", "religion": "nan", "cemetery": "nan", "start_date": "nan", "ways": "nan", "type": "nan", "wikimedia_commons": "nan", "addr:state": "nan", "denomination": "nan", "fax": "nan", "opening_hours": "nan", "phone": "nan" }, "geometry": { "type": "Polygon", "coordinates": [ [ [ -122.2328344, 47.078174 ], [ -122.2329856, 47.078453 ], [ -122.2329661, 47.0789555 ], [ -122.2328913, 47.0793579 ], [ -122.2327417, 47.0797063 ], [ -122.232576, 47.0797977 ], [ -122.2323403, 47.0798392 ], [ -122.2312149, 47.0798242 ], [ -122.2308819, 47.079522 ], [ -122.230716, 47.0793135 ], [ -122.2307136, 47.0787878 ], [ -122.2311061, 47.078836 ], [ -122.2313198, 47.0787994 ], [ -122.231633, 47.0786688 ], [ -122.2328344, 47.078174 ] ] ] } },
{ "type": "Feature", "properties": { "element_type": "way", "osmid": "478996672", "nodes": [ 4721637741, 4721637681, 4721637707, 6120998939, 356541752, 4721637783, 4721637785, 4721637786, 4731739488, 4731739487, 4731739505, 7230994298, 4721637820, 4721637741 ], "ele": "78", "gnis:county_id": "033", "gnis:created": "09/01/1990", "gnis:feature_id": "1510124", "gnis:state_id": "53", "landuse": "cemetery", "name": "White Lake Cemetery", "alt_name": "nan", "amenity": "grave_yard", "wikidata": "nan", "wikipedia": "nan", "city": "nan", "addr:city": "Auburn", "addr:housenumber": "1305", "addr:postcode": "98092", "addr:street": "Dogwood Street Southeast", "barrier": "nan", "source": "nan", "name:zh": "nan", "name:zh-Hans": "nan", "name:zh-Hant": "nan", "website": "nan", "name_1": "nan", "name_2": "nan", "name_3": "nan", "name_4": "nan", "note": "nan", "religion": "nan", "cemetery": "nan", "start_date": "nan", "ways": "nan", "type": "nan", "wikimedia_commons": "nan", "addr:state": "nan", "denomination": "nan", "fax": "nan", "opening_hours": "nan", "phone": "nan" }, "geometry": { "type": "Polygon", "coordinates": [ [ [ -122.195051, 47.296424 ], [ -122.1950886, 47.2957218 ], [ -122.1923313, 47.2959137 ], [ -122.192342, 47.2967469 ], [ -122.1924211, 47.2967705 ], [ -122.1924252, 47.2968406 ], [ -122.192405, 47.2968601 ], [ -122.1923761, 47.2968837 ], [ -122.192122, 47.2968847 ], [ -122.1910397, 47.2968834 ], [ -122.1910384, 47.2973326 ], [ -122.1918862, 47.2972723 ], [ -122.1925483, 47.2971289 ], [ -122.195051, 47.296424 ] ] ] } },
{ "type": "Feature", "properties": { "element_type": "way", "osmid": "527786236", "nodes": [ 5130396214, 5130396215, 5130396216, 6462701856, 5130396217, 5130396214 ], "ele": "nan", "gnis:county_id": "nan", "gnis:created": "nan", "gnis:feature_id": "nan", "gnis:state_id": "nan", "landuse": "cemetery", "name": "Masonic Cemetery", "alt_name": "nan", "amenity": "nan", "wikidata": "nan", "wikipedia": "nan", "city": "nan", "addr:city": "nan", "addr:housenumber": "nan", "addr:postcode": "nan", "addr:street": "nan", "barrier": "nan", "source": "nan", "name:zh": "nan", "name:zh-Hans": "nan", "name:zh-Hant": "nan", "website": "nan", "name_1": "nan", "name_2": "nan", "name_3": "nan", "name_4": "nan", "note": "nan", "religion": "nan", "cemetery": "nan", "start_date": "nan", "ways": "nan", "type": "nan", "wikimedia_commons": "nan", "addr:state": "nan", "denomination": "nan", "fax": "nan", "opening_hours": "nan", "phone": "nan" }, "geometry": { "type": "Polygon", "coordinates": [ [ [ -122.5763618, 47.148791 ], [ -122.5737601, 47.1487618 ], [ -122.5738137, 47.1507246 ], [ -122.5751113, 47.1507433 ], [ -122.5763511, 47.1507611 ], [ -122.5763618, 47.148791 ] ] ] } },
{ "type": "Feature", "properties": { "element_type": "way", "osmid": "543831991", "nodes": [ 5257140377, 9660171649, 9660171648, 9660171647, 5257140378, 9660171646, 9660171645, 5257140379, 9660171644, 9660171643, 5257140380, 9660171642, 9660171641, 9660171640, 9660171664, 9660171665, 9660171663, 9660171662, 5257140381, 9660171661, 9660171660, 9660171654, 9660171655, 9660171656, 5257140382, 9660171657, 5257140383, 9660171658, 9660171650, 9660171651, 9660171652, 9660171653, 5257140377 ], "ele": "nan", "gnis:county_id": "nan", "gnis:created": "nan", "gnis:feature_id": "nan", "gnis:state_id": "nan", "landuse": "cemetery", "name": "Western State Hospital Memorial Cemetery", "alt_name": "nan", "amenity": "nan", "wikidata": "nan", "wikipedia": "nan", "city": "nan", "addr:city": "nan", "addr:housenumber": "nan", "addr:postcode": "nan", "addr:street": "nan", "barrier": "nan", "source": "nan", "name:zh": "nan", "name:zh-Hans": "nan", "name:zh-Hant": "nan", "website": "nan", "name_1": "nan", "name_2": "nan", "name_3": "nan", "name_4": "nan", "note": "nan", "religion": "nan", "cemetery": "nan", "start_date": "nan", "ways": "nan", "type": "nan", "wikimedia_commons": "nan", "addr:state": "nan", "denomination": "nan", "fax": "nan", "opening_hours": "nan", "phone": "nan" }, "geometry": { "type": "Polygon", "coordinates": [ [ [ -122.5565932, 47.1739543 ], [ -122.5582251, 47.1739912 ], [ -122.5584425, 47.1739804 ], [ -122.5585705, 47.1739496 ], [ -122.5586848, 47.1739113 ], [ -122.5587797, 47.1738762 ], [ -122.5588984, 47.173818 ], [ -122.5592386, 47.1736208 ], [ -122.558767, 47.1732265 ], [ -122.558719, 47.1731858 ], [ -122.5585905, 47.1731012 ], [ -122.5584735, 47.1730413 ], [ -122.5582863, 47.1729925 ], [ -122.5578113, 47.1729401 ], [ -122.5576516, 47.1729204 ], [ -122.5575394, 47.1728951 ], [ -122.5574668, 47.1728701 ], [ -122.5573986, 47.1728398 ], [ -122.5573093, 47.1727863 ], [ -122.5572536, 47.1727307 ], [ -122.5571952, 47.1726217 ], [ -122.5571804, 47.1725297 ], [ -122.5571779, 47.1723912 ], [ -122.5571673, 47.1723601 ], [ -122.5571432, 47.1723427 ], [ -122.5571053, 47.1723356 ], [ -122.556651, 47.1723564 ], [ -122.5565933, 47.1723779 ], [ -122.5565602, 47.1724745 ], [ -122.5565639, 47.1726395 ], [ -122.5565555, 47.1727498 ], [ -122.5565589, 47.1728592 ], [ -122.5565932, 47.1739543 ] ] ] } },
{ "type": "Feature", "properties": { "element_type": "way", "osmid": "543832228", "nodes": [ 5257141077, 5257141078, 5257141079, 5257141080, 5257141081, 5257141082, 5257141077 ], "ele": "nan", "gnis:county_id": "nan", "gnis:created": "nan", "gnis:feature_id": "nan", "gnis:state_id": "nan", "landuse": "cemetery", "name": "Fort Steilacoom Pioneer Cemetery", "alt_name": "nan", "amenity": "nan", "wikidata": "nan", "wikipedia": "nan", "city": "nan", "addr:city": "nan", "addr:housenumber": "nan", "addr:postcode": "nan", "addr:street": "nan", "barrier": "nan", "source": "nan", "name:zh": "nan", "name:zh-Hans": "nan", "name:zh-Hant": "nan", "website": "nan", "name_1": "nan", "name_2": "nan", "name_3": "nan", "name_4": "nan", "note": "nan", "religion": "nan", "cemetery": "nan", "start_date": "nan", "ways": "nan", "type": "nan", "wikimedia_commons": "nan", "addr:state": "nan", "denomination": "nan", "fax": "nan", "opening_hours": "nan", "phone": "nan" }, "geometry": { "type": "Polygon", "coordinates": [ [ [ -122.5677278, 47.1789666 ], [ -122.5687712, 47.1788499 ], [ -122.568688, 47.1784689 ], [ -122.5681703, 47.1785218 ], [ -122.5678968, 47.1786585 ], [ -122.5678136, 47.1787223 ], [ -122.5677278, 47.1789666 ] ] ] } },
{ "type": "Feature", "properties": { "element_type": "way", "osmid": "571476566", "nodes": [ 5492250555, 5492250556, 5492250557, 5492250558, 5492250559, 5492250560, 5492250561, 5492250562, 5492250563, 5492250564, 5492250555 ], "ele": "nan", "gnis:county_id": "nan", "gnis:created": "nan", "gnis:feature_id": "nan", "gnis:state_id": "nan", "landuse": "cemetery", "name": "Fir Lane Memorial Park and Funeral", "alt_name": "nan", "amenity": "nan", "wikidata": "nan", "wikipedia": "nan", "city": "nan", "addr:city": "nan", "addr:housenumber": "nan", "addr:postcode": "nan", "addr:street": "nan", "barrier": "nan", "source": "nan", "name:zh": "nan", "name:zh-Hans": "nan", "name:zh-Hant": "nan", "website": "nan", "name_1": "nan", "name_2": "nan", "name_3": "nan", "name_4": "nan", "note": "nan", "religion": "nan", "cemetery": "nan", "start_date": "nan", "ways": "nan", "type": "nan", "wikimedia_commons": "nan", "addr:state": "nan", "denomination": "nan", "fax": "nan", "opening_hours": "nan", "phone": "nan" }, "geometry": { "type": "Polygon", "coordinates": [ [ [ -122.4160281, 47.0969616 ], [ -122.4160982, 47.0945868 ], [ -122.4197501, 47.0945804 ], [ -122.4206654, 47.0948157 ], [ -122.4206187, 47.0955024 ], [ -122.4205347, 47.0955819 ], [ -122.4196567, 47.0959379 ], [ -122.4193532, 47.096081 ], [ -122.419582, 47.096577 ], [ -122.4196334, 47.0970061 ], [ -122.4160281, 47.0969616 ] ] ] } },
{ "type": "Feature", "properties": { "element_type": "way", "osmid": "596300207", "nodes": [ 5681046443, 5681046442, 5681046441, 5616450408, 5616450524, 5616450407, 5616450406, 5569605372, 5681046443 ], "ele": "74", "gnis:county_id": "053", "gnis:created": "09/10/1979", "gnis:feature_id": "1506965", "gnis:state_id": "53", "landuse": "cemetery", "name": "Pet Memorial at New Tacoma Cemetery", "alt_name": "nan", "amenity": "nan", "wikidata": "nan", "wikipedia": "nan", "city": "University Place", "addr:city": "nan", "addr:housenumber": "nan", "addr:postcode": "nan", "addr:street": "nan", "barrier": "nan", "source": "nan", "name:zh": "nan", "name:zh-Hans": "nan", "name:zh-Hant": "nan", "website": "nan", "name_1": "nan", "name_2": "nan", "name_3": "nan", "name_4": "nan", "note": "nan", "religion": "nan", "cemetery": "nan", "start_date": "nan", "ways": "nan", "type": "nan", "wikimedia_commons": "nan", "addr:state": "nan", "denomination": "nan", "fax": "nan", "opening_hours": "nan", "phone": "nan" }, "geometry": { "type": "Polygon", "coordinates": [ [ [ -122.564351, 47.1990357 ], [ -122.5643939, 47.1999754 ], [ -122.5659981, 47.1999544 ], [ -122.5660035, 47.199163 ], [ -122.5654435, 47.1991672 ], [ -122.5652209, 47.1991719 ], [ -122.5651505, 47.199072 ], [ -122.5649343, 47.199033 ], [ -122.564351, 47.1990357 ] ] ] } },
{ "type": "Feature", "properties": { "element_type": "way", "osmid": "619877754", "nodes": [ 5857244886, 5857244885, 5857244884, 5857244883, 5857244882, 5857244881, 5857244880, 5857244879, 5857244878, 5857244877, 5857244876, 5857244875, 5857244874, 5857244873, 5857244886 ], "ele": "nan", "gnis:county_id": "nan", "gnis:created": "nan", "gnis:feature_id": "nan", "gnis:state_id": "nan", "landuse": "cemetery", "name": "Tribal Cemetery", "alt_name": "nan", "amenity": "nan", "wikidata": "nan", "wikipedia": "nan", "city": "nan", "addr:city": "nan", "addr:housenumber": "nan", "addr:postcode": "nan", "addr:street": "nan", "barrier": "nan", "source": "nan", "name:zh": "nan", "name:zh-Hans": "nan", "name:zh-Hant": "nan", "website": "nan", "name_1": "nan", "name_2": "nan", "name_3": "nan", "name_4": "nan", "note": "nan", "religion": "nan", "cemetery": "nan", "start_date": "nan", "ways": "nan", "type": "nan", "wikimedia_commons": "nan", "addr:state": "nan", "denomination": "nan", "fax": "nan", "opening_hours": "nan", "phone": "nan" }, "geometry": { "type": "Polygon", "coordinates": [ [ [ -122.399658, 47.2391991 ], [ -122.3996848, 47.2372797 ], [ -122.3995855, 47.2371886 ], [ -122.3994756, 47.2369391 ], [ -122.3994541, 47.236859 ], [ -122.3993549, 47.2359612 ], [ -122.3993066, 47.235932 ], [ -122.3976624, 47.236105 ], [ -122.3976034, 47.2361469 ], [ -122.397657, 47.237979 ], [ -122.3984483, 47.238997 ], [ -122.3986092, 47.2391135 ], [ -122.3988211, 47.2391864 ], [ -122.399202, 47.23921 ], [ -122.399658, 47.2391991 ] ] ] } },
{ "type": "Feature", "properties": { "element_type": "way", "osmid": "653488850", "nodes": [ 6124332827, 6124332828, 6124332829, 6124332830, 6124332831, 6124332832, 6124332833, 6124332827 ], "ele": "101", "gnis:county_id": "053", "gnis:created": "09/10/1979", "gnis:feature_id": "1504967", "gnis:state_id": "53", "landuse": "cemetery", "name": "Fort Lewis Cemetery", "alt_name": "nan", "amenity": "nan", "wikidata": "nan", "wikipedia": "nan", "city": "nan", "addr:city": "nan", "addr:housenumber": "nan", "addr:postcode": "nan", "addr:street": "nan", "barrier": "nan", "source": "nan", "name:zh": "nan", "name:zh-Hans": "nan", "name:zh-Hant": "nan", "website": "nan", "name_1": "nan", "name_2": "nan", "name_3": "nan", "name_4": "nan", "note": "nan", "religion": "nan", "cemetery": "nan", "start_date": "nan", "ways": "nan", "type": "nan", "wikimedia_commons": "nan", "addr:state": "nan", "denomination": "nan", "fax": "nan", "opening_hours": "nan", "phone": "nan" }, "geometry": { "type": "Polygon", "coordinates": [ [ [ -122.5850511, 47.0624219 ], [ -122.5852483, 47.0612046 ], [ -122.583905, 47.0609107 ], [ -122.5832271, 47.0613053 ], [ -122.582993, 47.062254 ], [ -122.5837324, 47.0626318 ], [ -122.5842747, 47.0626318 ], [ -122.5850511, 47.0624219 ] ] ] } },
{ "type": "Feature", "properties": { "element_type": "way", "osmid": "825715526", "nodes": [ 7709596266, 132033731, 132024745, 132008522, 132033733, 132008521, 132026785, 132026787, 132026788, 7709596270, 7709596269, 132026792, 7709596265, 7709596266 ], "ele": "93", "gnis:county_id": "053", "gnis:created": "09/10/1979", "gnis:feature_id": "1507133", "gnis:state_id": "53", "landuse": "cemetery", "name": "Oakwood Hill Cemetery", "alt_name": "nan", "amenity": "grave_yard", "wikidata": "nan", "wikipedia": "nan", "city": "nan", "addr:city": "nan", "addr:housenumber": "nan", "addr:postcode": "nan", "addr:street": "nan", "barrier": "nan", "source": "nan", "name:zh": "nan", "name:zh-Hans": "nan", "name:zh-Hant": "nan", "website": "nan", "name_1": "nan", "name_2": "nan", "name_3": "nan", "name_4": "nan", "note": "nan", "religion": "nan", "cemetery": "nan", "start_date": "nan", "ways": "nan", "type": "nan", "wikimedia_commons": "nan", "addr:state": "nan", "denomination": "nan", "fax": "nan", "opening_hours": "nan", "phone": "nan" }, "geometry": { "type": "Polygon", "coordinates": [ [ [ -122.4799894, 47.2101296 ], [ -122.47916, 47.2091875 ], [ -122.47915, 47.2091621 ], [ -122.479143, 47.2091292 ], [ -122.479126, 47.2089951 ], [ -122.479109, 47.2086605 ], [ -122.4774474, 47.2086412 ], [ -122.4774447, 47.2084945 ], [ -122.4763718, 47.2084981 ], [ -122.4763691, 47.2088252 ], [ -122.4750897, 47.2088225 ], [ -122.4751018, 47.2096998 ], [ -122.47511, 47.2101344 ], [ -122.4799894, 47.2101296 ] ] ] } },
{ "type": "Feature", "properties": { "element_type": "way", "osmid": "826141883", "nodes": [ 7713561342, 7713561341, 7713561340, 7713561339, 7713561342 ], "ele": "100", "gnis:county_id": "053", "gnis:created": "09/10/1979", "gnis:feature_id": "1509080", "gnis:state_id": "53", "landuse": "cemetery", "name": "Trinity Cemetery", "alt_name": "Union Cemetery", "amenity": "nan", "wikidata": "nan", "wikipedia": "nan", "city": "nan", "addr:city": "nan", "addr:housenumber": "nan", "addr:postcode": "nan", "addr:street": "nan", "barrier": "nan", "source": "nan", "name:zh": "nan", "name:zh-Hans": "nan", "name:zh-Hant": "nan", "website": "nan", "name_1": "nan", "name_2": "nan", "name_3": "nan", "name_4": "nan", "note": "nan", "religion": "nan", "cemetery": "nan", "start_date": "nan", "ways": "nan", "type": "nan", "wikimedia_commons": "nan", "addr:state": "nan", "denomination": "nan", "fax": "nan", "opening_hours": "nan", "phone": "nan" }, "geometry": { "type": "Polygon", "coordinates": [ [ [ -122.4211666, 47.1332755 ], [ -122.4236289, 47.1332335 ], [ -122.4236503, 47.1324635 ], [ -122.4211827, 47.1324324 ], [ -122.4211666, 47.1332755 ] ] ] } },
{ "type": "Feature", "properties": { "element_type": "way", "osmid": "1062438370", "nodes": [ 9760379557, 9760379558, 9760379559, 9760379560, 9760379557 ], "ele": "nan", "gnis:county_id": "nan", "gnis:created": "nan", "gnis:feature_id": "nan", "gnis:state_id": "nan", "landuse": "cemetery", "name": "Henry Smith Cemetery", "alt_name": "nan", "amenity": "nan", "wikidata": "nan", "wikipedia": "nan", "city": "nan", "addr:city": "nan", "addr:housenumber": "nan", "addr:postcode": "nan", "addr:street": "nan", "barrier": "nan", "source": "nan", "name:zh": "nan", "name:zh-Hans": "nan", "name:zh-Hant": "nan", "website": "nan", "name_1": "nan", "name_2": "nan", "name_3": "nan", "name_4": "nan", "note": "nan", "religion": "nan", "cemetery": "nan", "start_date": "nan", "ways": "nan", "type": "nan", "wikimedia_commons": "nan", "addr:state": "nan", "denomination": "nan", "fax": "nan", "opening_hours": "nan", "phone": "nan" }, "geometry": { "type": "Polygon", "coordinates": [ [ [ -122.4538405, 47.0005942 ], [ -122.4536842, 47.0007413 ], [ -122.4534536, 47.0006274 ], [ -122.4536098, 47.0004803 ], [ -122.4538405, 47.0005942 ] ] ] } },
{ "type": "Feature", "properties": { "element_type": "way", "osmid": "1062438371", "nodes": [ 9760379561, 9760379562, 9760379563, 9760379564, 9760379561 ], "ele": "nan", "gnis:county_id": "nan", "gnis:created": "nan", "gnis:feature_id": "nan", "gnis:state_id": "nan", "landuse": "cemetery", "name": "Jeschke Cemetery", "alt_name": "nan", "amenity": "nan", "wikidata": "nan", "wikipedia": "nan", "city": "nan", "addr:city": "nan", "addr:housenumber": "nan", "addr:postcode": "nan", "addr:street": "nan", "barrier": "nan", "source": "nan", "name:zh": "nan", "name:zh-Hans": "nan", "name:zh-Hant": "nan", "website": "nan", "name_1": "nan", "name_2": "nan", "name_3": "nan", "name_4": "nan", "note": "nan", "religion": "nan", "cemetery": "nan", "start_date": "nan", "ways": "nan", "type": "nan", "wikimedia_commons": "nan", "addr:state": "nan", "denomination": "nan", "fax": "nan", "opening_hours": "nan", "phone": "nan" }, "geometry": { "type": "Polygon", "coordinates": [ [ [ -122.4601997, 47.0027419 ], [ -122.4598682, 47.0027419 ], [ -122.4598682, 47.002503 ], [ -122.4601951, 47.0024998 ], [ -122.4601997, 47.0027419 ] ] ] } },
{ "type": "Feature", "properties": { "element_type": "way", "osmid": "14386126", "nodes": [ 495929183, 495929184, 495929181, 495929179, 495929178, 495929176, 495929174, 495929166, 495929164, 495929162, 495929160, 495929159, 495929157, 495929155, 495929154, 495929017, 140331401, 495929183 ], "ele": "128", "gnis:county_id": "033", "gnis:created": "09/10/1979", "gnis:feature_id": "1506057", "gnis:state_id": "53", "landuse": "cemetery", "name": "Lake View Cemetery", "alt_name": "nan", "amenity": "nan", "wikidata": "Q872253", "wikipedia": "nan", "city": "nan", "addr:city": "nan", "addr:housenumber": "nan", "addr:postcode": "nan", "addr:street": "nan", "barrier": "nan", "source": "yahoo_wms", "name:zh": "湖景墓地", "name:zh-Hans": "湖景墓地", "name:zh-Hant": "湖景墓地", "website": "http://www.lakeviewcemeteryassociation.com/", "name_1": "nan", "name_2": "nan", "name_3": "nan", "name_4": "nan", "note": "nan", "religion": "nan", "cemetery": "nan", "start_date": "nan", "ways": "nan", "type": "nan", "wikimedia_commons": "nan", "addr:state": "nan", "denomination": "nan", "fax": "nan", "opening_hours": "nan", "phone": "nan" }, "geometry": { "type": "Polygon", "coordinates": [ [ [ -122.317978, 47.6350333 ], [ -122.3179263, 47.6359575 ], [ -122.3172296, 47.636012 ], [ -122.3164368, 47.6360219 ], [ -122.3157657, 47.6359947 ], [ -122.3146633, 47.6359377 ], [ -122.3136841, 47.6359361 ], [ -122.3136014, 47.6353381 ], [ -122.3135019, 47.6350582 ], [ -122.3132659, 47.6347311 ], [ -122.313111, 47.6345156 ], [ -122.3128087, 47.6342678 ], [ -122.312676, 47.6341043 ], [ -122.3125727, 47.633921 ], [ -122.3125543, 47.6337822 ], [ -122.3125724, 47.6323286 ], [ -122.3180506, 47.632338 ], [ -122.317978, 47.6350333 ] ] ] } },
{ "type": "Feature", "properties": { "element_type": "way", "osmid": "25795143", "nodes": [ 281359652, 4691898281, 4691898283, 4691898282, 4691898279, 4691898204, 4691898174, 4691898168, 4691898165, 4691898171, 281359650, 281359652 ], "ele": "nan", "gnis:county_id": "nan", "gnis:created": "nan", "gnis:feature_id": "nan", "gnis:state_id": "nan", "landuse": "cemetery", "name": "Pioneer Cemetery", "alt_name": "nan", "amenity": "nan", "wikidata": "nan", "wikipedia": "nan", "city": "nan", "addr:city": "nan", "addr:housenumber": "nan", "addr:postcode": "nan", "addr:street": "nan", "barrier": "nan", "source": "nan", "name:zh": "nan", "name:zh-Hans": "nan", "name:zh-Hant": "nan", "website": "nan", "name_1": "nan", "name_2": "nan", "name_3": "nan", "name_4": "nan", "note": "nan", "religion": "nan", "cemetery": "nan", "start_date": "nan", "ways": "nan", "type": "nan", "wikimedia_commons": "nan", "addr:state": "nan", "denomination": "nan", "fax": "nan", "opening_hours": "nan", "phone": "nan" }, "geometry": { "type": "Polygon", "coordinates": [ [ [ -122.2231741, 47.3154096 ], [ -122.2232962, 47.3154659 ], [ -122.2233592, 47.3154787 ], [ -122.2234062, 47.3154705 ], [ -122.2234451, 47.3154523 ], [ -122.2239466, 47.3150104 ], [ -122.2240982, 47.3148659 ], [ -122.2241129, 47.3148427 ], [ -122.2240968, 47.3148368 ], [ -122.2234736, 47.3148544 ], [ -122.2231503, 47.3148636 ], [ -122.2231741, 47.3154096 ] ] ] } },
{ "type": "Feature", "properties": { "element_type": "way", "osmid": "26939159", "nodes": [ 677239406, 677239409, 677239408, 677239407, 677239405, 295198030, 677239406 ], "ele": "nan", "gnis:county_id": "nan", "gnis:created": "nan", "gnis:feature_id": "nan", "gnis:state_id": "nan", "landuse": "cemetery", "name": "Vashon Cemetery", "alt_name": "nan", "amenity": "nan", "wikidata": "nan", "wikipedia": "nan", "city": "nan", "addr:city": "nan", "addr:housenumber": "nan", "addr:postcode": "nan", "addr:street": "nan", "barrier": "nan", "source": "nan", "name:zh": "nan", "name:zh-Hans": "nan", "name:zh-Hant": "nan", "website": "nan", "name_1": "nan", "name_2": "nan", "name_3": "nan", "name_4": "nan", "note": "nan", "religion": "nan", "cemetery": "nan", "start_date": "nan", "ways": "nan", "type": "nan", "wikimedia_commons": "nan", "addr:state": "nan", "denomination": "nan", "fax": "nan", "opening_hours": "nan", "phone": "nan" }, "geometry": { "type": "Polygon", "coordinates": [ [ [ -122.4826013, 47.4290728 ], [ -122.47927, 47.4290611 ], [ -122.4792874, 47.4285191 ], [ -122.4794257, 47.4280278 ], [ -122.4796562, 47.427361 ], [ -122.4827051, 47.4274196 ], [ -122.4826013, 47.4290728 ] ] ] } },
{ "type": "Feature", "properties": { "element_type": "way", "osmid": "31698004", "nodes": [ 354709540, 354709541, 4543628383, 354709542, 4543628384, 4543628385, 4543628386, 3654606764, 354709544, 429610180, 354709546, 354709547, 2361039478, 354709540 ], "ele": "nan", "gnis:county_id": "nan", "gnis:created": "nan", "gnis:feature_id": "nan", "gnis:state_id": "nan", "landuse": "cemetery", "name": "Forest Lawn Cemetery", "alt_name": "nan", "amenity": "nan", "wikidata": "Q107517586", "wikipedia": "nan", "city": "nan", "addr:city": "Seattle", "addr:housenumber": "6701", "addr:postcode": "98126", "addr:street": "30th Avenue Southwest", "barrier": "nan", "source": "nan", "name:zh": "nan", "name:zh-Hans": "nan", "name:zh-Hant": "nan", "website": "https://www.dignitymemorial.com/forest-lawn-funeral-home-seattle/en-us/index.page", "name_1": "nan", "name_2": "nan", "name_3": "nan", "name_4": "nan", "note": "nan", "religion": "nan", "cemetery": "nan", "start_date": "nan", "ways": "nan", "type": "nan", "wikimedia_commons": "nan", "addr:state": "nan", "denomination": "nan", "fax": "nan", "opening_hours": "nan", "phone": "nan" }, "geometry": { "type": "Polygon", "coordinates": [ [ [ -122.3704869, 47.5428082 ], [ -122.3698003, 47.5410295 ], [ -122.3695406, 47.5407651 ], [ -122.3691522, 47.5405804 ], [ -122.36779, 47.5402717 ], [ -122.3677793, 47.5403912 ], [ -122.3668298, 47.540518 ], [ -122.3666801, 47.5409788 ], [ -122.3656718, 47.5410353 ], [ -122.3657517, 47.5413668 ], [ -122.365792, 47.5415335 ], [ -122.3661267, 47.5427966 ], [ -122.366985, 47.5428068 ], [ -122.3704869, 47.5428082 ] ] ] } },
{ "type": "Feature", "properties": { "element_type": "way", "osmid": "36354097", "nodes": [ 424002486, 424002493, 424002501, 424002507, 424002513, 424002486 ], "ele": "nan", "gnis:county_id": "nan", "gnis:created": "nan", "gnis:feature_id": "nan", "gnis:state_id": "nan", "landuse": "cemetery", "name": "Riverton Crest Cemetery", "alt_name": "nan", "amenity": "nan", "wikidata": "nan", "wikipedia": "nan", "city": "nan", "addr:city": "nan", "addr:housenumber": "nan", "addr:postcode": "nan", "addr:street": "nan", "barrier": "nan", "source": "yahoo aerial imagery", "name:zh": "nan", "name:zh-Hans": "nan", "name:zh-Hant": "nan", "website": "nan", "name_1": "nan", "name_2": "nan", "name_3": "nan", "name_4": "nan", "note": "nan", "religion": "nan", "cemetery": "nan", "start_date": "nan", "ways": "nan", "type": "nan", "wikimedia_commons": "nan", "addr:state": "nan", "denomination": "nan", "fax": "nan", "opening_hours": "nan", "phone": "nan" }, "geometry": { "type": "Polygon", "coordinates": [ [ [ -122.2917462, 47.4804679 ], [ -122.2917898, 47.4780676 ], [ -122.2889348, 47.4780467 ], [ -122.2888786, 47.4797797 ], [ -122.2890781, 47.4804511 ], [ -122.2917462, 47.4804679 ] ] ] } },
{ "type": "Feature", "properties": { "element_type": "way", "osmid": "37017436", "nodes": [ 430536587, 430536588, 430536589, 4351916852, 4351916851, 430536590, 430536591, 430536592, 4351916850, 4351916849, 4351916848, 430536593, 430536594, 430536595, 3715376096, 430536597, 430536598, 430536599, 3715376085, 430536600, 430536601, 430536602, 3715376101, 4351916845, 430536587 ], "ele": "nan", "gnis:county_id": "nan", "gnis:created": "nan", "gnis:feature_id": "nan", "gnis:state_id": "nan", "landuse": "cemetery", "name": "Washington Memorial Park", "alt_name": "nan", "amenity": "nan", "wikidata": "nan", "wikipedia": "nan", "city": "nan", "addr:city": "nan", "addr:housenumber": "nan", "addr:postcode": "nan", "addr:street": "nan", "barrier": "nan", "source": "yahoo_wms;knowledge", "name:zh": "nan", "name:zh-Hans": "nan", "name:zh-Hant": "nan", "website": "nan", "name_1": "nan", "name_2": "nan", "name_3": "nan", "name_4": "nan", "note": "nan", "religion": "nan", "cemetery": "nan", "start_date": "nan", "ways": "nan", "type": "nan", "wikimedia_commons": "nan", "addr:state": "nan", "denomination": "nan", "fax": "nan", "opening_hours": "nan", "phone": "nan" }, "geometry": { "type": "Polygon", "coordinates": [ [ [ -122.2972467, 47.4574234 ], [ -122.29861, 47.4574216 ], [ -122.2986302, 47.4537715 ], [ -122.2986376, 47.4524413 ], [ -122.2985892, 47.4523718 ], [ -122.2985643, 47.4508633 ], [ -122.2983934, 47.4507618 ], [ -122.2963009, 47.4507714 ], [ -122.2962599, 47.4507886 ], [ -122.2962349, 47.4508167 ], [ -122.2962145, 47.4508619 ], [ -122.295966, 47.4515484 ], [ -122.2957068, 47.452181 ], [ -122.2953429, 47.4529552 ], [ -122.2934602, 47.4567086 ], [ -122.2941104, 47.4568564 ], [ -122.2944908, 47.4560887 ], [ -122.2950889, 47.4560749 ], [ -122.2942986, 47.4576612 ], [ -122.2945751, 47.4576995 ], [ -122.295881, 47.4576973 ], [ -122.2959298, 47.4591002 ], [ -122.2971471, 47.4590943 ], [ -122.2971886, 47.4590303 ], [ -122.2972467, 47.4574234 ] ] ] } },
{ "type": "Feature", "properties": { "element_type": "way", "osmid": "39083866", "nodes": [ 466961651, 466961652, 6745431139, 466961653, 4894771338, 467928672, 467928690, 467928697, 467928704, 4894771326, 4894771324, 466961654, 466961651 ], "ele": "106", "gnis:county_id": "033", "gnis:created": "09/10/1979", "gnis:feature_id": "1505289", "gnis:state_id": "53", "landuse": "cemetery", "name": "Greenwood Cemetery", "alt_name": "nan", "amenity": "nan", "wikidata": "nan", "wikipedia": "nan", "city": "nan", "addr:city": "nan", "addr:housenumber": "nan", "addr:postcode": "nan", "addr:street": "nan", "barrier": "nan", "source": "nan", "name:zh": "nan", "name:zh-Hans": "nan", "name:zh-Hant": "nan", "website": "nan", "name_1": "nan", "name_2": "nan", "name_3": "nan", "name_4": "nan", "note": "nan", "religion": "nan", "cemetery": "nan", "start_date": "nan", "ways": "nan", "type": "nan", "wikimedia_commons": "nan", "addr:state": "nan", "denomination": "nan", "fax": "nan", "opening_hours": "nan", "phone": "nan" }, "geometry": { "type": "Polygon", "coordinates": [ [ [ -122.1746786, 47.4884634 ], [ -122.1746597, 47.4849736 ], [ -122.1719652, 47.4849661 ], [ -122.1694884, 47.4849592 ], [ -122.1694851, 47.4858677 ], [ -122.1694876, 47.4864367 ], [ -122.1685926, 47.4864386 ], [ -122.1685944, 47.486856 ], [ -122.1693876, 47.4868544 ], [ -122.1693914, 47.4877184 ], [ -122.1694089, 47.4880077 ], [ -122.169411, 47.4884696 ], [ -122.1746786, 47.4884634 ] ] ] } },
{ "type": "Feature", "properties": { "element_type": "way", "osmid": "40828834", "nodes": [ 665695113, 665695114, 665695112, 665695111, 665695113 ], "ele": "110", "gnis:county_id": "033", "gnis:created": "09/10/1979", "gnis:feature_id": "1505066", "gnis:state_id": "53", "landuse": "cemetery", "name": "Grand Army of the Republic Cemetery", "alt_name": "nan", "amenity": "nan", "wikidata": "Q5594250", "wikipedia": "nan", "city": "nan", "addr:city": "nan", "addr:housenumber": "nan", "addr:postcode": "nan", "addr:street": "nan", "barrier": "nan", "source": "nan", "name:zh": "nan", "name:zh-Hans": "nan", "name:zh-Hant": "nan", "website": "http://www.fgar.org/", "name_1": "nan", "name_2": "nan", "name_3": "nan", "name_4": "nan", "note": "nan", "religion": "nan", "cemetery": "nan", "start_date": "nan", "ways": "nan", "type": "nan", "wikimedia_commons": "nan", "addr:state": "nan", "denomination": "nan", "fax": "nan", "opening_hours": "nan", "phone": "nan" }, "geometry": { "type": "Polygon", "coordinates": [ [ [ -122.3158599, 47.6362826 ], [ -122.3158511, 47.6366215 ], [ -122.3167793, 47.6366324 ], [ -122.3167881, 47.6362935 ], [ -122.3158599, 47.6362826 ] ] ] } },
{ "type": "Feature", "properties": { "element_type": "way", "osmid": "52542087", "nodes": [ 667628663, 667628668, 4742051497, 667628673, 667628674, 667628677, 667628682, 667628688, 667628693, 667628698, 667628703, 667628708, 667628713, 667628663 ], "ele": "nan", "gnis:county_id": "nan", "gnis:created": "nan", "gnis:feature_id": "nan", "gnis:state_id": "nan", "landuse": "cemetery", "name": "Hillcrest Burial Park", "alt_name": "nan", "amenity": "nan", "wikidata": "nan", "wikipedia": "nan", "city": "nan", "addr:city": "nan", "addr:housenumber": "1005", "addr:postcode": "98030", "addr:street": "Reiten Road", "barrier": "nan", "source": "nan", "name:zh": "nan", "name:zh-Hans": "nan", "name:zh-Hant": "nan", "website": "nan", "name_1": "nan", "name_2": "nan", "name_3": "nan", "name_4": "nan", "note": "nan", "religion": "nan", "cemetery": "nan", "start_date": "nan", "ways": "nan", "type": "nan", "wikimedia_commons": "nan", "addr:state": "nan", "denomination": "nan", "fax": "nan", "opening_hours": "nan", "phone": "nan" }, "geometry": { "type": "Polygon", "coordinates": [ [ [ -122.2201197, 47.3714814 ], [ -122.2201032, 47.3697263 ], [ -122.2201007, 47.3697263 ], [ -122.2181074, 47.369724 ], [ -122.218115, 47.3686454 ], [ -122.2166121, 47.3686413 ], [ -122.2164819, 47.3680691 ], [ -122.2150071, 47.367908 ], [ -122.2153228, 47.3696632 ], [ -122.2145466, 47.3696702 ], [ -122.2146398, 47.3707843 ], [ -122.2139929, 47.3707948 ], [ -122.2140654, 47.3715095 ], [ -122.2201197, 47.3714814 ] ] ] } },
{ "type": "Feature", "properties": { "element_type": "way", "osmid": "53332179", "nodes": [ 674511201, 674511214, 674511219, 674511220, 674511221, 674511201 ], "ele": "19", "gnis:county_id": "033", "gnis:created": "09/01/1990", "gnis:feature_id": "1510116", "gnis:state_id": "53", "landuse": "cemetery", "name": "Saar's Pioneer Cemetery", "alt_name": "nan", "amenity": "nan", "wikidata": "nan", "wikipedia": "nan", "city": "nan", "addr:city": "nan", "addr:housenumber": "nan", "addr:postcode": "nan", "addr:street": "nan", "barrier": "nan", "source": "yahoo_wms", "name:zh": "nan", "name:zh-Hans": "nan", "name:zh-Hant": "nan", "website": "nan", "name_1": "nan", "name_2": "nan", "name_3": "nan", "name_4": "nan", "note": "nan", "religion": "nan", "cemetery": "nan", "start_date": "nan", "ways": "nan", "type": "nan", "wikimedia_commons": "nan", "addr:state": "nan", "denomination": "nan", "fax": "nan", "opening_hours": "nan", "phone": "nan" }, "geometry": { "type": "Polygon", "coordinates": [ [ [ -122.2197038, 47.4124289 ], [ -122.2197139, 47.4132562 ], [ -122.2189898, 47.4132603 ], [ -122.2189796, 47.412433 ], [ -122.2194095, 47.4124306 ], [ -122.2197038, 47.4124289 ] ] ] } },
{ "type": "Feature", "properties": { "element_type": "way", "osmid": "57755699", "nodes": [ 716263646, 6672694684, 6672814785, 716263652, 716263693, 716263707, 716263664, 716263673, 716263646 ], "ele": "nan", "gnis:county_id": "nan", "gnis:created": "nan", "gnis:feature_id": "nan", "gnis:state_id": "nan", "landuse": "cemetery", "name": "Comet Lodge Cemetery", "alt_name": "nan", "amenity": "nan", "wikidata": "Q5151615", "wikipedia": "nan", "city": "nan", "addr:city": "nan", "addr:housenumber": "nan", "addr:postcode": "nan", "addr:street": "nan", "barrier": "nan", "source": "nan", "name:zh": "nan", "name:zh-Hans": "nan", "name:zh-Hant": "nan", "website": "nan", "name_1": "Comet Lodge IOOF 139 Cemetery", "name_2": "Georgetown Cemetery", "name_3": "Beacon Hill Cemetery", "name_4": "Old Burial Grounds", "note": "burials: http://worldperc.com/comet/burials.html", "religion": "nan", "cemetery": "nan", "start_date": "nan", "ways": "nan", "type": "nan", "wikimedia_commons": "nan", "addr:state": "nan", "denomination": "nan", "fax": "nan", "opening_hours": "nan", "phone": "nan" }, "geometry": { "type": "Polygon", "coordinates": [ [ [ -122.3045141, 47.547441 ], [ -122.3045538, 47.5474413 ], [ -122.3058641, 47.5474496 ], [ -122.3059332, 47.54745 ], [ -122.3059399, 47.5469643 ], [ -122.3058562, 47.5465712 ], [ -122.3055684, 47.5465486 ], [ -122.3045676, 47.5465418 ], [ -122.3045141, 47.547441 ] ] ] } },
{ "type": "Feature", "properties": { "element_type": "way", "osmid": "102630705", "nodes": [ 1185239271, 1185239310, 1185239293, 2620602594, 1185239266, 1185239283, 1185239316, 1185239304, 4794620813, 4794620814, 1185239290, 4794620815, 4794620816, 4794620817, 4794620818, 4794620819, 4794620820, 4794621121, 4794621122, 4794621123, 4794621124, 4794621125, 1185239298, 3971747197, 1185239286, 3959072642, 3959072602, 1185239308, 3959072647, 3959072617, 1185239295, 3959072612, 1185239268, 1185239271 ], "ele": "96", "gnis:county_id": "033", "gnis:created": "09/01/1990", "gnis:feature_id": "1510039", "gnis:state_id": "53", "landuse": "cemetery", "name": "Sunset Hills Memorial Park", "alt_name": "nan", "amenity": "nan", "wikidata": "nan", "wikipedia": "nan", "city": "nan", "addr:city": "nan", "addr:housenumber": "nan", "addr:postcode": "nan", "addr:street": "nan", "barrier": "nan", "source": "nan", "name:zh": "nan", "name:zh-Hans": "nan", "name:zh-Hant": "nan", "website": "nan", "name_1": "nan", "name_2": "nan", "name_3": "nan", "name_4": "nan", "note": "nan", "religion": "nan", "cemetery": "nan", "start_date": "nan", "ways": "nan", "type": "nan", "wikimedia_commons": "nan", "addr:state": "nan", "denomination": "nan", "fax": "nan", "opening_hours": "nan", "phone": "nan" }, "geometry": { "type": "Polygon", "coordinates": [ [ [ -122.1505185, 47.5959175 ], [ -122.153432, 47.5959234 ], [ -122.1534407, 47.5954622 ], [ -122.1561687, 47.5954594 ], [ -122.1572973, 47.5954582 ], [ -122.1572886, 47.59663 ], [ -122.1575156, 47.5971128 ], [ -122.1569771, 47.5975348 ], [ -122.1567381, 47.5969996 ], [ -122.1566097, 47.5969842 ], [ -122.1562349, 47.5975396 ], [ -122.1562295, 47.5977992 ], [ -122.1562788, 47.5981461 ], [ -122.1565095, 47.5983079 ], [ -122.1565771, 47.5979734 ], [ -122.157027, 47.5979391 ], [ -122.157403, 47.5984438 ], [ -122.1568027, 47.5985714 ], [ -122.1567176, 47.5985152 ], [ -122.1564832, 47.5985506 ], [ -122.1563024, 47.598905 ], [ -122.1560204, 47.5991789 ], [ -122.1561476, 47.6000078 ], [ -122.1534408, 47.6000011 ], [ -122.1526959, 47.5999972 ], [ -122.1523788, 47.5995375 ], [ -122.1533588, 47.5995426 ], [ -122.1533621, 47.5995426 ], [ -122.1533925, 47.598202 ], [ -122.153409, 47.5963755 ], [ -122.150495, 47.5963377 ], [ -122.1503564, 47.5963762 ], [ -122.1502082, 47.5961135 ], [ -122.1505185, 47.5959175 ] ] ] } },
{ "type": "Feature", "properties": { "element_type": "way", "osmid": "272447543", "nodes": [ 6136930506, 2773705801, 2773729998, 2773705894, 2773705810, 6136930506 ], "ele": "25", "gnis:county_id": "033", "gnis:created": "09/10/1979", "gnis:feature_id": "1508034", "gnis:state_id": "53", "landuse": "cemetery", "name": "Saint Patricks Cemetery", "alt_name": "nan", "amenity": "nan", "wikidata": "nan", "wikipedia": "nan", "city": "nan", "addr:city": "Kent", "addr:housenumber": "4255", "addr:postcode": "98032", "addr:street": "South 204th Street", "barrier": "nan", "source": "nan", "name:zh": "nan", "name:zh-Hans": "nan", "name:zh-Hant": "nan", "website": "nan", "name_1": "nan", "name_2": "nan", "name_3": "nan", "name_4": "nan", "note": "nan", "religion": "nan", "cemetery": "nan", "start_date": "nan", "ways": "nan", "type": "nan", "wikimedia_commons": "nan", "addr:state": "nan", "denomination": "nan", "fax": "nan", "opening_hours": "nan", "phone": "nan" }, "geometry": { "type": "Polygon", "coordinates": [ [ [ -122.2805962, 47.4180788 ], [ -122.2799338, 47.4179453 ], [ -122.2793174, 47.4191533 ], [ -122.280029, 47.4191738 ], [ -122.2801127, 47.4191728 ], [ -122.2805962, 47.4180788 ] ] ] } },
{ "type": "Feature", "properties": { "element_type": "way", "osmid": "374848992", "nodes": [ 3782289846, 3782289849, 3782289848, 3782289845, 3782289846 ], "ele": "nan", "gnis:county_id": "nan", "gnis:created": "nan", "gnis:feature_id": "nan", "gnis:state_id": "nan", "landuse": "cemetery", "name": "Suise Creek Cemetery", "alt_name": "nan", "amenity": "nan", "wikidata": "nan", "wikipedia": "nan", "city": "nan", "addr:city": "nan", "addr:housenumber": "nan", "addr:postcode": "nan", "addr:street": "nan", "barrier": "nan", "source": "nan", "name:zh": "nan", "name:zh-Hans": "nan", "name:zh-Hant": "nan", "website": "nan", "name_1": "nan", "name_2": "nan", "name_3": "nan", "name_4": "nan", "note": "nan", "religion": "nan", "cemetery": "nan", "start_date": "nan", "ways": "nan", "type": "nan", "wikimedia_commons": "nan", "addr:state": "nan", "denomination": "nan", "fax": "nan", "opening_hours": "nan", "phone": "nan" }, "geometry": { "type": "Polygon", "coordinates": [ [ [ -122.1638933, 47.3725185 ], [ -122.1638882, 47.3731231 ], [ -122.1625833, 47.3731195 ], [ -122.1625884, 47.3725139 ], [ -122.1638933, 47.3725185 ] ] ] } },
{ "type": "Feature", "properties": { "element_type": "way", "osmid": "481281252", "nodes": [ 4742188798, 4742188799, 4742188800, 4742188801, 4742188798 ], "ele": "115", "gnis:county_id": "033", "gnis:created": "09/10/1979", "gnis:feature_id": "1507363", "gnis:state_id": "53", "landuse": "cemetery", "name": "Maury Island Cemetery", "alt_name": "Penbrock Cemetery", "amenity": "nan", "wikidata": "nan", "wikipedia": "nan", "city": "nan", "addr:city": "nan", "addr:housenumber": "nan", "addr:postcode": "nan", "addr:street": "nan", "barrier": "nan", "source": "nan", "name:zh": "nan", "name:zh-Hans": "nan", "name:zh-Hant": "nan", "website": "nan", "name_1": "nan", "name_2": "nan", "name_3": "nan", "name_4": "nan", "note": "nan", "religion": "nan", "cemetery": "nan", "start_date": "nan", "ways": "nan", "type": "nan", "wikimedia_commons": "nan", "addr:state": "nan", "denomination": "nan", "fax": "nan", "opening_hours": "nan", "phone": "nan" }, "geometry": { "type": "Polygon", "coordinates": [ [ [ -122.4275506, 47.3744742 ], [ -122.4270343, 47.374499 ], [ -122.4270099, 47.3737777 ], [ -122.4275181, 47.3737639 ], [ -122.4275506, 47.3744742 ] ] ] } },
{ "type": "Feature", "properties": { "element_type": "way", "osmid": "482260689", "nodes": [ 4751030979, 4751030980, 4751030981, 4751030982, 4751030979 ], "ele": "nan", "gnis:county_id": "nan", "gnis:created": "nan", "gnis:feature_id": "nan", "gnis:state_id": "nan", "landuse": "cemetery", "name": "Hillgrove Cemetery", "alt_name": "nan", "amenity": "nan", "wikidata": "nan", "wikipedia": "nan", "city": "nan", "addr:city": "nan", "addr:housenumber": "nan", "addr:postcode": "nan", "addr:street": "nan", "barrier": "nan", "source": "nan", "name:zh": "nan", "name:zh-Hans": "nan", "name:zh-Hant": "nan", "website": "nan", "name_1": "nan", "name_2": "nan", "name_3": "nan", "name_4": "nan", "note": "nan", "religion": "nan", "cemetery": "nan", "start_date": "nan", "ways": "nan", "type": "nan", "wikimedia_commons": "nan", "addr:state": "nan", "denomination": "nan", "fax": "nan", "opening_hours": "nan", "phone": "nan" }, "geometry": { "type": "Polygon", "coordinates": [ [ [ -122.3131725, 47.4227043 ], [ -122.3123786, 47.4226978 ], [ -122.3123878, 47.4221806 ], [ -122.3131818, 47.4221871 ], [ -122.3131725, 47.4227043 ] ] ] } },
{ "type": "Feature", "properties": { "element_type": "way", "osmid": "541285049", "nodes": [ 5234289800, 5234289801, 5234289802, 5234289803, 5234289800 ], "ele": "nan", "gnis:county_id": "nan", "gnis:created": "nan", "gnis:feature_id": "nan", "gnis:state_id": "nan", "landuse": "cemetery", "name": "Newcastle Historic Cemetery", "alt_name": "nan", "amenity": "nan", "wikidata": "nan", "wikipedia": "nan", "city": "nan", "addr:city": "nan", "addr:housenumber": "nan", "addr:postcode": "nan", "addr:street": "nan", "barrier": "nan", "source": "nan", "name:zh": "nan", "name:zh-Hans": "nan", "name:zh-Hant": "nan", "website": "nan", "name_1": "nan", "name_2": "nan", "name_3": "nan", "name_4": "nan", "note": "nan", "religion": "N/A", "cemetery": "nan", "start_date": "nan", "ways": "nan", "type": "nan", "wikimedia_commons": "nan", "addr:state": "nan", "denomination": "nan", "fax": "nan", "opening_hours": "nan", "phone": "nan" }, "geometry": { "type": "Polygon", "coordinates": [ [ [ -122.1690483, 47.5326039 ], [ -122.1682581, 47.5325723 ], [ -122.1674746, 47.5311525 ], [ -122.1689947, 47.5314781 ], [ -122.1690483, 47.5326039 ] ] ] } },
{ "type": "Feature", "properties": { "element_type": "way", "osmid": "633512135", "nodes": [ 5980276222, 5980276223, 5980276246, 5980276245, 5980276244, 5980276243, 5980276250, 5980276242, 5980276251, 5980276222 ], "ele": "nan", "gnis:county_id": "nan", "gnis:created": "nan", "gnis:feature_id": "nan", "gnis:state_id": "nan", "landuse": "cemetery", "name": "Pet Cemetery", "alt_name": "nan", "amenity": "nan", "wikidata": "nan", "wikipedia": "nan", "city": "nan", "addr:city": "nan", "addr:housenumber": "nan", "addr:postcode": "nan", "addr:street": "nan", "barrier": "nan", "source": "nan", "name:zh": "nan", "name:zh-Hans": "nan", "name:zh-Hant": "nan", "website": "nan", "name_1": "nan", "name_2": "nan", "name_3": "nan", "name_4": "nan", "note": "nan", "religion": "nan", "cemetery": "nan", "start_date": "nan", "ways": "nan", "type": "nan", "wikimedia_commons": "nan", "addr:state": "nan", "denomination": "nan", "fax": "nan", "opening_hours": "nan", "phone": "nan" }, "geometry": { "type": "Polygon", "coordinates": [ [ [ -122.2839475, 47.389345 ], [ -122.2850921, 47.3893263 ], [ -122.2855339, 47.389319 ], [ -122.2863095, 47.3893063 ], [ -122.2863099, 47.3895859 ], [ -122.2861472, 47.389585 ], [ -122.2860304, 47.3896759 ], [ -122.2858548, 47.3897344 ], [ -122.2839494, 47.3898124 ], [ -122.2839475, 47.389345 ] ] ] } },
{ "type": "Feature", "properties": { "element_type": "way", "osmid": "704988950", "nodes": [ 6621341902, 6621341903, 6621341904, 6621341905, 6621341906, 6621341907, 6621341908, 6621341909, 6621341902 ], "ele": "nan", "gnis:county_id": "nan", "gnis:created": "nan", "gnis:feature_id": "nan", "gnis:state_id": "nan", "landuse": "cemetery", "name": "nan", "alt_name": "nan", "amenity": "nan", "wikidata": "nan", "wikipedia": "nan", "city": "nan", "addr:city": "nan", "addr:housenumber": "nan", "addr:postcode": "nan", "addr:street": "nan", "barrier": "nan", "source": "nan", "name:zh": "nan", "name:zh-Hans": "nan", "name:zh-Hant": "nan", "website": "nan", "name_1": "nan", "name_2": "nan", "name_3": "nan", "name_4": "nan", "note": "nan", "religion": "nan", "cemetery": "nan", "start_date": "nan", "ways": "nan", "type": "nan", "wikimedia_commons": "nan", "addr:state": "nan", "denomination": "nan", "fax": "nan", "opening_hours": "nan", "phone": "nan" }, "geometry": { "type": "Polygon", "coordinates": [ [ [ -122.6016348, 47.3366984 ], [ -122.6002884, 47.3366055 ], [ -122.5991914, 47.3347089 ], [ -122.5993473, 47.3336486 ], [ -122.5986679, 47.3330826 ], [ -122.5985183, 47.3323518 ], [ -122.6003445, 47.3322631 ], [ -122.6034361, 47.3360268 ], [ -122.6016348, 47.3366984 ] ] ] } },
{ "type": "Feature", "properties": { "element_type": "way", "osmid": "826120141", "nodes": [ 7713351649, 7713351648, 7713351647, 7713351646, 7713351645, 7713351649 ], "ele": "97", "gnis:county_id": "035", "gnis:created": "09/10/1979", "gnis:feature_id": "1505031", "gnis:state_id": "53", "landuse": "cemetery", "name": "Fraola Cemetery", "alt_name": "nan", "amenity": "nan", "wikidata": "nan", "wikipedia": "nan", "city": "nan", "addr:city": "nan", "addr:housenumber": "nan", "addr:postcode": "nan", "addr:street": "nan", "barrier": "nan", "source": "nan", "name:zh": "nan", "name:zh-Hans": "nan", "name:zh-Hant": "nan", "website": "nan", "name_1": "nan", "name_2": "nan", "name_3": "nan", "name_4": "nan", "note": "nan", "religion": "nan", "cemetery": "nan", "start_date": "nan", "ways": "nan", "type": "nan", "wikimedia_commons": "nan", "addr:state": "nan", "denomination": "nan", "fax": "nan", "opening_hours": "nan", "phone": "nan" }, "geometry": { "type": "Polygon", "coordinates": [ [ [ -122.5646487, 47.4688173 ], [ -122.56603, 47.4688391 ], [ -122.5660569, 47.4674357 ], [ -122.5647023, 47.4674049 ], [ -122.564638, 47.4682951 ], [ -122.5646487, 47.4688173 ] ] ] } },
{ "type": "Feature", "properties": { "element_type": "way", "osmid": "945939890", "nodes": [ 8757115919, 8757115941, 8757115917, 8757115927, 8757115939, 8757069615, 8757115919 ], "ele": "nan", "gnis:county_id": "nan", "gnis:created": "nan", "gnis:feature_id": "nan", "gnis:state_id": "nan", "landuse": "cemetery", "name": "The Memorial Garden", "alt_name": "nan", "amenity": "nan", "wikidata": "nan", "wikipedia": "nan", "city": "nan", "addr:city": "nan", "addr:housenumber": "nan", "addr:postcode": "nan", "addr:street": "nan", "barrier": "nan", "source": "nan", "name:zh": "nan", "name:zh-Hans": "nan", "name:zh-Hant": "nan", "website": "nan", "name_1": "nan", "name_2": "nan", "name_3": "nan", "name_4": "nan", "note": "nan", "religion": "nan", "cemetery": "columbarium", "start_date": "1986-11-01", "ways": "nan", "type": "nan", "wikimedia_commons": "nan", "addr:state": "nan", "denomination": "nan", "fax": "nan", "opening_hours": "nan", "phone": "nan" }, "geometry": { "type": "Polygon", "coordinates": [ [ [ -122.4599136, 47.4672067 ], [ -122.4596919, 47.4672096 ], [ -122.4596879, 47.4670728 ], [ -122.4596142, 47.4670738 ], [ -122.4596202, 47.4672797 ], [ -122.4599157, 47.4672757 ], [ -122.4599136, 47.4672067 ] ] ] } },
{ "type": "Feature", "properties": { "element_type": "relation", "osmid": "5342725", "nodes": [ [ [ 3637983357, 3637983233, 3637983241, 3637983242 ], [ 3637983242, 48605429, 8417012411, 48566005 ], [ 48566005, 3637983357 ] ] ], "ele": "94", "gnis:county_id": "035", "gnis:created": "09/10/1979", "gnis:feature_id": "1508204", "gnis:state_id": "53", "landuse": "cemetery", "name": "Sedgwick Cemetery", "alt_name": "nan", "amenity": "nan", "wikidata": "nan", "wikipedia": "nan", "city": "nan", "addr:city": "nan", "addr:housenumber": "nan", "addr:postcode": "nan", "addr:street": "nan", "barrier": "nan", "source": "nan", "name:zh": "nan", "name:zh-Hans": "nan", "name:zh-Hant": "nan", "website": "nan", "name_1": "nan", "name_2": "nan", "name_3": "nan", "name_4": "nan", "note": "nan", "religion": "nan", "cemetery": "nan", "start_date": "nan", "ways": [ 358974424, 358974450, 358974457 ], "type": "multipolygon", "wikimedia_commons": "nan", "addr:state": "nan", "denomination": "nan", "fax": "nan", "opening_hours": "nan", "phone": "nan" }, "geometry": { "type": "Polygon", "coordinates": [ [ [ -122.5298673, 47.5048972 ], [ -122.5288802, 47.5048733 ], [ -122.5288798, 47.5037217 ], [ -122.5297296, 47.5037328 ], [ -122.5298507, 47.503733 ], [ -122.5298523, 47.5039779 ], [ -122.5298639, 47.5047067 ], [ -122.5298673, 47.5048972 ] ] ] } },
{ "type": "Feature", "properties": { "element_type": "relation", "osmid": "5345705", "nodes": [ [ [ 3639992307, 3639992313, 3639992314, 3639992318, 3639992319 ], [ 3639992319, 3639992302, 3639992301, 3639992307 ] ] ], "ele": "47", "gnis:county_id": "035", "gnis:created": "09/10/1979", "gnis:feature_id": "1505889", "gnis:state_id": "53", "landuse": "cemetery", "name": "K P Cemetery", "alt_name": "nan", "amenity": "nan", "wikidata": "nan", "wikipedia": "nan", "city": "nan", "addr:city": "nan", "addr:housenumber": "nan", "addr:postcode": "nan", "addr:street": "nan", "barrier": "nan", "source": "nan", "name:zh": "nan", "name:zh-Hans": "nan", "name:zh-Hant": "nan", "website": "nan", "name_1": "nan", "name_2": "nan", "name_3": "nan", "name_4": "nan", "note": "nan", "religion": "nan", "cemetery": "nan", "start_date": "nan", "ways": [ 359242761, 359242760 ], "type": "multipolygon", "wikimedia_commons": "nan", "addr:state": "nan", "denomination": "nan", "fax": "nan", "opening_hours": "nan", "phone": "nan" }, "geometry": { "type": "Polygon", "coordinates": [ [ [ -122.62969, 47.53588 ], [ -122.6287922, 47.5358738 ], [ -122.6288003, 47.5355682 ], [ -122.6284943, 47.5355676 ], [ -122.6280438, 47.5344522 ], [ -122.6283419, 47.5342167 ], [ -122.6297378, 47.5342205 ], [ -122.62969, 47.53588 ] ] ] } },
{ "type": "Feature", "properties": { "element_type": "relation", "osmid": "5345706", "nodes": [ [ [ 3639992319, 3639992321, 3639992325, 3639992326, 3639992328, 3639992327, 3639992324, 3639992323, 3639992317, 3639992316, 5002238217 ], [ 3639992307, 5002238220, 5002238219, 5002238218, 5002238217 ], [ 3639992307, 3639992313, 3639992314, 3639992318, 3639992319 ] ] ], "ele": "43", "gnis:county_id": "035", "gnis:created": "09/10/1979", "gnis:feature_id": "1508841", "gnis:state_id": "53", "landuse": "cemetery", "name": "Sunset Lane Cemetery", "alt_name": "nan", "amenity": "nan", "wikidata": "nan", "wikipedia": "nan", "city": "nan", "addr:city": "nan", "addr:housenumber": "nan", "addr:postcode": "nan", "addr:street": "nan", "barrier": "nan", "source": "nan", "name:zh": "nan", "name:zh-Hans": "nan", "name:zh-Hant": "nan", "website": "nan", "name_1": "nan", "name_2": "nan", "name_3": "nan", "name_4": "nan", "note": "nan", "religion": "nan", "cemetery": "nan", "start_date": "nan", "ways": [ 359242759, 511361329, 359242761 ], "type": "multipolygon", "wikimedia_commons": "nan", "addr:state": "nan", "denomination": "nan", "fax": "nan", "opening_hours": "nan", "phone": "nan" }, "geometry": { "type": "Polygon", "coordinates": [ [ [ -122.62969, 47.53588 ], [ -122.6296375, 47.5377009 ], [ -122.6296352, 47.5377831 ], [ -122.6296566, 47.5377833 ], [ -122.6296541, 47.5378655 ], [ -122.6285854, 47.5378564 ], [ -122.6285879, 47.5377742 ], [ -122.6277955, 47.5377674 ], [ -122.6278446, 47.5358672 ], [ -122.627675, 47.535866 ], [ -122.627466, 47.5358629 ], [ -122.6274902, 47.5351367 ], [ -122.627525, 47.5350082 ], [ -122.627745, 47.5346641 ], [ -122.6280438, 47.5344522 ], [ -122.6284943, 47.5355676 ], [ -122.6288003, 47.5355682 ], [ -122.6287922, 47.5358738 ], [ -122.62969, 47.53588 ] ] ] } },
{ "type": "Feature", "properties": { "element_type": "relation", "osmid": "5349521", "nodes": [ [ [ 3641661911, 3641661910, 3641661909, 3641661908 ], [ 48528622, 9174971404, 9174971405, 9174971406, 9174971407, 48594949, 9174971408, 9174971409, 9174971410, 9174971411, 9174971412, 9174971413, 9174971415, 9174971414, 3641661908 ], [ 48512863, 48528617, 48528620, 6617248147, 48528622 ], [ 3641661907, 3641661906, 48512863 ], [ 3641661907, 3641661912 ], [ 3649280172, 3641661912 ], [ 3641661911, 3649280172 ] ] ], "ele": "47", "gnis:county_id": "035", "gnis:created": "09/10/1979", "gnis:feature_id": "1509222", "gnis:state_id": "53", "landuse": "cemetery", "name": "Veterans Cemetery", "alt_name": "nan", "amenity": "nan", "wikidata": "nan", "wikipedia": "nan", "city": "nan", "addr:city": "nan", "addr:housenumber": "nan", "addr:postcode": "nan", "addr:street": "nan", "barrier": "nan", "source": "nan", "name:zh": "nan", "name:zh-Hans": "nan", "name:zh-Hant": "nan", "website": "nan", "name_1": "nan", "name_2": "nan", "name_3": "nan", "name_4": "nan", "note": "nan", "religion": "nan", "cemetery": "nan", "start_date": "nan", "ways": [ 359441537, 5919816, 5914414, 359441534, 359441533, 360376555, 359441531 ], "type": "multipolygon", "wikimedia_commons": "nan", "addr:state": "nan", "denomination": "nan", "fax": "nan", "opening_hours": "nan", "phone": "nan" }, "geometry": { "type": "Polygon", "coordinates": [ [ [ -122.6150015, 47.5394406 ], [ -122.6149804, 47.5412519 ], [ -122.6140573, 47.5412406 ], [ -122.6123875, 47.5412203 ], [ -122.6122686, 47.5412195 ], [ -122.6097257, 47.541189 ], [ -122.609661, 47.5411866 ], [ -122.6096964, 47.5409601 ], [ -122.609742, 47.5407935 ], [ -122.6098171, 47.5406324 ], [ -122.6099378, 47.5404712 ], [ -122.609978, 47.5403717 ], [ -122.60997, 47.5402739 ], [ -122.6099083, 47.5401091 ], [ -122.609809, 47.5399317 ], [ -122.6097555, 47.539847 ], [ -122.6097339, 47.5397759 ], [ -122.6097474, 47.539689 ], [ -122.609809, 47.5395605 ], [ -122.609852, 47.539441 ], [ -122.6098779, 47.5393672 ], [ -122.6103595, 47.5394214 ], [ -122.6104558, 47.5394322 ], [ -122.6109428, 47.5394406 ], [ -122.6115314, 47.5394408 ], [ -122.6116385, 47.5393972 ], [ -122.6150015, 47.5394406 ] ] ] } },
{ "type": "Feature", "properties": { "element_type": "relation", "osmid": "5381409", "nodes": [ [ [ 3659506308, 3659506242, 3659506241, 3659506239, 3659506238, 10810757504, 3659506236, 3659506237, 10810757497, 10796819287, 10810669615, 10810749379, 10810673087, 10810673092, 10810749378, 10810669614, 10810749377, 10810673093, 10810673094, 10810749376, 10810669613, 10810759011, 3659506308 ] ] ], "ele": "73", "gnis:county_id": "035", "gnis:created": "09/10/1979", "gnis:feature_id": "1504965", "gnis:state_id": "53", "landuse": "cemetery", "name": "Port Blakely Cemetery", "alt_name": "nan", "amenity": "nan", "wikidata": "nan", "wikipedia": "nan", "city": "nan", "addr:city": "nan", "addr:housenumber": "nan", "addr:postcode": "nan", "addr:street": "nan", "barrier": "nan", "source": "nan", "name:zh": "nan", "name:zh-Hans": "nan", "name:zh-Hant": "nan", "website": "https://portblakelycemetery.org/", "name_1": "nan", "name_2": "nan", "name_3": "nan", "name_4": "nan", "note": "nan", "religion": "nan", "cemetery": "nan", "start_date": "nan", "ways": [ 361485400 ], "type": "multipolygon", "wikimedia_commons": "nan", "addr:state": "nan", "denomination": "nan", "fax": "nan", "opening_hours": "nan", "phone": "nan" }, "geometry": { "type": "Polygon", "coordinates": [ [ [ -122.5208761, 47.6018895 ], [ -122.5184347, 47.6019038 ], [ -122.5180082, 47.6019063 ], [ -122.5180011, 47.6018899 ], [ -122.5179955, 47.6018715 ], [ -122.5179939, 47.6018397 ], [ -122.5179971, 47.6018219 ], [ -122.5180024, 47.6018046 ], [ -122.5180085, 47.6017899 ], [ -122.5180179, 47.6017741 ], [ -122.5180386, 47.6017485 ], [ -122.518058, 47.6017318 ], [ -122.5180839, 47.6017147 ], [ -122.5193254, 47.601026 ], [ -122.5193192, 47.6006619 ], [ -122.5193157, 47.6004555 ], [ -122.5198672, 47.6004509 ], [ -122.5202376, 47.6005783 ], [ -122.5202813, 47.6005933 ], [ -122.5208818, 47.6007998 ], [ -122.5209038, 47.6011098 ], [ -122.5208927, 47.6014166 ], [ -122.5208761, 47.6018895 ] ] ] } },
{ "type": "Feature", "properties": { "element_type": "way", "osmid": "8013957", "nodes": [ 59948416, 3003283761, 3003283762, 59948417, 59948418, 59948414, 59948415, 59948416 ], "ele": "54", "gnis:county_id": "033", "gnis:created": "09/10/1979", "gnis:feature_id": "1503720", "gnis:state_id": "53", "landuse": "cemetery", "name": "Calvary Catholic Cemetery", "alt_name": "nan", "amenity": "nan", "wikidata": "Q5024158", "wikipedia": "en:Calvary Cemetery (Seattle)", "city": "nan", "addr:city": "nan", "addr:housenumber": "nan", "addr:postcode": "nan", "addr:street": "nan", "barrier": "fence", "source": "nan", "name:zh": "nan", "name:zh-Hans": "nan", "name:zh-Hant": "nan", "website": "nan", "name_1": "nan", "name_2": "nan", "name_3": "nan", "name_4": "nan", "note": "nan", "religion": "nan", "cemetery": "nan", "start_date": "nan", "ways": "nan", "type": "nan", "wikimedia_commons": "File:Calvary Cemetery-1.jpg", "addr:state": "nan", "denomination": "nan", "fax": "nan", "opening_hours": "nan", "phone": "nan" }, "geometry": { "type": "Polygon", "coordinates": [ [ [ -122.2902941, 47.664956 ], [ -122.290267, 47.6666923 ], [ -122.2902657, 47.6681774 ], [ -122.2902652, 47.6684228 ], [ -122.2955357, 47.6684319 ], [ -122.2955153, 47.6655778 ], [ -122.2946296, 47.664944 ], [ -122.2902941, 47.664956 ] ] ] } },
{ "type": "Feature", "properties": { "element_type": "way", "osmid": "26618373", "nodes": [ 291957647, 291957648, 1132602069, 291957650, 291957647 ], "ele": "nan", "gnis:county_id": "nan", "gnis:created": "nan", "gnis:feature_id": "nan", "gnis:state_id": "nan", "landuse": "cemetery", "name": "Woodinville Memorial Mead", "alt_name": "nan", "amenity": "nan", "wikidata": "nan", "wikipedia": "nan", "city": "nan", "addr:city": "nan", "addr:housenumber": "nan", "addr:postcode": "nan", "addr:street": "nan", "barrier": "fence", "source": "nan", "name:zh": "nan", "name:zh-Hans": "nan", "name:zh-Hant": "nan", "website": "nan", "name_1": "nan", "name_2": "nan", "name_3": "nan", "name_4": "nan", "note": "nan", "religion": "nan", "cemetery": "nan", "start_date": "nan", "ways": "nan", "type": "nan", "wikimedia_commons": "nan", "addr:state": "nan", "denomination": "nan", "fax": "nan", "opening_hours": "nan", "phone": "nan" }, "geometry": { "type": "Polygon", "coordinates": [ [ [ -122.16435, 47.755365 ], [ -122.16334, 47.755365 ], [ -122.1633626, 47.7545669 ], [ -122.16435, 47.75458 ], [ -122.16435, 47.755365 ] ] ] } },
{ "type": "Feature", "properties": { "element_type": "way", "osmid": "32357079", "nodes": [ 364256392, 364256397, 364256396, 11238736116, 11238736117, 364266686, 364266689, 364256395, 364256394, 364256393, 364256392 ], "ele": "nan", "gnis:county_id": "nan", "gnis:created": "nan", "gnis:feature_id": "nan", "gnis:state_id": "nan", "landuse": "cemetery", "name": "Restlawn Memorial Gardens", "alt_name": "nan", "amenity": "nan", "wikidata": "nan", "wikipedia": "nan", "city": "nan", "addr:city": "nan", "addr:housenumber": "nan", "addr:postcode": "nan", "addr:street": "nan", "barrier": "nan", "source": "nan", "name:zh": "nan", "name:zh-Hans": "nan", "name:zh-Hant": "nan", "website": "nan", "name_1": "nan", "name_2": "nan", "name_3": "nan", "name_4": "nan", "note": "nan", "religion": "nan", "cemetery": "nan", "start_date": "nan", "ways": "nan", "type": "nan", "wikimedia_commons": "nan", "addr:state": "nan", "denomination": "nan", "fax": "nan", "opening_hours": "nan", "phone": "nan" }, "geometry": { "type": "Polygon", "coordinates": [ [ [ -122.3735652, 47.7824762 ], [ -122.3735637, 47.7835482 ], [ -122.3723254, 47.7835473 ], [ -122.3722294, 47.7835278 ], [ -122.3721895, 47.7834928 ], [ -122.3721892, 47.7833148 ], [ -122.3721893, 47.7832814 ], [ -122.3721916, 47.7818891 ], [ -122.3753175, 47.7818909 ], [ -122.3753168, 47.7824772 ], [ -122.3735652, 47.7824762 ] ] ] } },
{ "type": "Feature", "properties": { "element_type": "way", "osmid": "33795440", "nodes": [ 387002256, 387002257, 387002258, 387002259, 1835912324, 387002260, 387002256 ], "ele": "nan", "gnis:county_id": "nan", "gnis:created": "nan", "gnis:feature_id": "nan", "gnis:state_id": "nan", "landuse": "cemetery", "name": "Buena Vista Cemetery", "alt_name": "nan", "amenity": "nan", "wikidata": "nan", "wikipedia": "nan", "city": "nan", "addr:city": "nan", "addr:housenumber": "nan", "addr:postcode": "nan", "addr:street": "nan", "barrier": "nan", "source": "nan", "name:zh": "nan", "name:zh-Hans": "nan", "name:zh-Hant": "nan", "website": "nan", "name_1": "nan", "name_2": "nan", "name_3": "nan", "name_4": "nan", "note": "nan", "religion": "nan", "cemetery": "nan", "start_date": "nan", "ways": "nan", "type": "nan", "wikimedia_commons": "nan", "addr:state": "nan", "denomination": "nan", "fax": "nan", "opening_hours": "nan", "phone": "nan" }, "geometry": { "type": "Polygon", "coordinates": [ [ [ -122.5874648, 47.8554851 ], [ -122.5874469, 47.8560806 ], [ -122.5870777, 47.8560809 ], [ -122.5865592, 47.8561386 ], [ -122.586579, 47.8559632 ], [ -122.5865744, 47.855485 ], [ -122.5874648, 47.8554851 ] ] ] } },
{ "type": "Feature", "properties": { "element_type": "way", "osmid": "35423828", "nodes": [ 415533350, 5541392220, 5541392324, 5541392323, 5541392322, 5541392321, 415533351, 415533352, 3003227254, 3003227260, 415533353, 3003227259, 3003227258, 3003227256, 3003227255, 415533350 ], "ele": "nan", "gnis:county_id": "nan", "gnis:created": "nan", "gnis:feature_id": "nan", "gnis:state_id": "nan", "landuse": "cemetery", "name": "Mount Pleasant Cemetery", "alt_name": "nan", "amenity": "nan", "wikidata": "Q105764046", "wikipedia": "nan", "city": "nan", "addr:city": "Seattle", "addr:housenumber": "520", "addr:postcode": "98119", "addr:street": "West Raye Street", "barrier": "nan", "source": "yahoo aerial imagery;local knowledge", "name:zh": "nan", "name:zh-Hans": "nan", "name:zh-Hant": "nan", "website": "nan", "name_1": "nan", "name_2": "nan", "name_3": "nan", "name_4": "nan", "note": "nan", "religion": "nan", "cemetery": "nan", "start_date": "nan", "ways": "nan", "type": "nan", "wikimedia_commons": "nan", "addr:state": "nan", "denomination": "nan", "fax": "nan", "opening_hours": "nan", "phone": "nan" }, "geometry": { "type": "Polygon", "coordinates": [ [ [ -122.3635443, 47.6467476 ], [ -122.3646655, 47.6467532 ], [ -122.3646613, 47.6472061 ], [ -122.3652578, 47.647398 ], [ -122.3652635, 47.6469065 ], [ -122.3652448, 47.6467561 ], [ -122.3674009, 47.6467668 ], [ -122.3673914, 47.6432478 ], [ -122.3641353, 47.6432247 ], [ -122.3641255, 47.6435564 ], [ -122.3641245, 47.6435898 ], [ -122.3641299, 47.6438952 ], [ -122.3648809, 47.6439006 ], [ -122.3648487, 47.6450047 ], [ -122.3635467, 47.6450029 ], [ -122.3635443, 47.6467476 ] ] ] } },
{ "type": "Feature", "properties": { "element_type": "way", "osmid": "35449592", "nodes": [ 415815523, 415815528, 415815533, 415815539, 415815523 ], "ele": "139", "gnis:county_id": "033", "gnis:created": "09/10/1979", "gnis:feature_id": "1506408", "gnis:state_id": "53", "landuse": "cemetery", "name": "Machzikay Hadath Cemetery", "alt_name": "nan", "amenity": "grave_yard", "wikidata": "nan", "wikipedia": "nan", "city": "nan", "addr:city": "nan", "addr:housenumber": "nan", "addr:postcode": "nan", "addr:street": "nan", "barrier": "nan", "source": "yahoo aerial imagery;local knowledge", "name:zh": "nan", "name:zh-Hans": "nan", "name:zh-Hant": "nan", "website": "nan", "name_1": "nan", "name_2": "nan", "name_3": "nan", "name_4": "nan", "note": "nan", "religion": "jewish", "cemetery": "nan", "start_date": "nan", "ways": "nan", "type": "nan", "wikimedia_commons": "nan", "addr:state": "nan", "denomination": "nan", "fax": "nan", "opening_hours": "nan", "phone": "nan" }, "geometry": { "type": "Polygon", "coordinates": [ [ [ -122.3441012, 47.7523235 ], [ -122.3441221, 47.7505994 ], [ -122.3428472, 47.750605 ], [ -122.3428849, 47.7523427 ], [ -122.3441012, 47.7523235 ] ] ] } },
{ "type": "Feature", "properties": { "element_type": "way", "osmid": "35449703", "nodes": [ 415817091, 4541926304, 415817092, 4541926305, 415817093, 356539913, 415817095, 415817096, 415817091 ], "ele": "104", "gnis:county_id": "033", "gnis:created": "09/10/1979", "gnis:feature_id": "1504290", "gnis:state_id": "53", "landuse": "cemetery", "name": "Crown Hill Cemetery", "alt_name": "nan", "amenity": "nan", "wikidata": "Q117549324", "wikipedia": "nan", "city": "nan", "addr:city": "Seattle", "addr:housenumber": "8712", "addr:postcode": "98117", "addr:street": "12th Avenue Northwest", "barrier": "nan", "source": "yahoo aerial imagery;local knowledge", "name:zh": "nan", "name:zh-Hans": "nan", "name:zh-Hant": "nan", "website": "http://crownhillcemetery.us/", "name_1": "nan", "name_2": "nan", "name_3": "nan", "name_4": "nan", "note": "nan", "religion": "nan", "cemetery": "nan", "start_date": "nan", "ways": "nan", "type": "nan", "wikimedia_commons": "nan", "addr:state": "nan", "denomination": "nan", "fax": "nan", "opening_hours": "nan", "phone": "nan" }, "geometry": { "type": "Polygon", "coordinates": [ [ [ -122.3713704, 47.694202 ], [ -122.3713662, 47.6925857 ], [ -122.3713658, 47.6924501 ], [ -122.3712542, 47.6924503 ], [ -122.3687064, 47.6924552 ], [ -122.3687279, 47.69279 ], [ -122.3686585, 47.6928887 ], [ -122.3687005, 47.6942175 ], [ -122.3713704, 47.694202 ] ] ] } },
{ "type": "Feature", "properties": { "element_type": "way", "osmid": "35451353", "nodes": [ 415834948, 415834949, 415834950, 415834951, 415834952, 415834953, 415834954, 415834955, 415834956, 415834957, 415834948 ], "ele": "122", "gnis:county_id": "033", "gnis:created": "09/10/1979", "gnis:feature_id": "1505579", "gnis:state_id": "53", "landuse": "cemetery", "name": "Holyrood Cemetery", "alt_name": "nan", "amenity": "nan", "wikidata": "nan", "wikipedia": "nan", "city": "nan", "addr:city": "Shoreline", "addr:housenumber": "205", "addr:postcode": "98155", "addr:street": "NE 205th St", "barrier": "nan", "source": "yahoo aerial imagery;local knowledge", "name:zh": "nan", "name:zh-Hans": "nan", "name:zh-Hant": "nan", "website": "nan", "name_1": "nan", "name_2": "nan", "name_3": "nan", "name_4": "nan", "note": "nan", "religion": "christian", "cemetery": "nan", "start_date": "nan", "ways": "nan", "type": "nan", "wikimedia_commons": "nan", "addr:state": "WA", "denomination": "catholic", "fax": "nan", "opening_hours": "nan", "phone": "nan" }, "geometry": { "type": "Polygon", "coordinates": [ [ [ -122.3298261, 47.7774594 ], [ -122.3297491, 47.7775066 ], [ -122.3295323, 47.7775042 ], [ -122.3283708, 47.7774901 ], [ -122.3276816, 47.7775419 ], [ -122.3273178, 47.7775443 ], [ -122.3265901, 47.7775655 ], [ -122.3247045, 47.7775631 ], [ -122.3244981, 47.7704525 ], [ -122.3296406, 47.7705256 ], [ -122.3298261, 47.7774594 ] ] ] } },
{ "type": "Feature", "properties": { "element_type": "way", "osmid": "36288594", "nodes": [ 438209524, 423370513, 423370516, 423370518, 423370522, 423370525, 423370529, 423370533, 423370537, 423370541, 423370548, 438209483, 438209486, 438209490, 438209494, 438209499, 438209510, 438209514, 438209521, 438209524 ], "ele": "nan", "gnis:county_id": "nan", "gnis:created": "nan", "gnis:feature_id": "nan", "gnis:state_id": "nan", "landuse": "cemetery", "name": "Floral Hills Cemetery", "alt_name": "nan", "amenity": "nan", "wikidata": "nan", "wikipedia": "nan", "city": "nan", "addr:city": "nan", "addr:housenumber": "nan", "addr:postcode": "nan", "addr:street": "nan", "barrier": "nan", "source": "yahoo_wms;knowledge", "name:zh": "nan", "name:zh-Hans": "nan", "name:zh-Hant": "nan", "website": "nan", "name_1": "nan", "name_2": "nan", "name_3": "nan", "name_4": "nan", "note": "nan", "religion": "nan", "cemetery": "nan", "start_date": "nan", "ways": "nan", "type": "nan", "wikimedia_commons": "nan", "addr:state": "nan", "denomination": "nan", "fax": "nan", "opening_hours": "nan", "phone": "nan" }, "geometry": { "type": "Polygon", "coordinates": [ [ [ -122.2448659, 47.8259531 ], [ -122.2448128, 47.8274866 ], [ -122.2440747, 47.8279764 ], [ -122.2436026, 47.8285987 ], [ -122.2430876, 47.8290885 ], [ -122.2419203, 47.8292037 ], [ -122.2408646, 47.8291922 ], [ -122.2398432, 47.8291519 ], [ -122.23853, 47.8290136 ], [ -122.2385043, 47.8280686 ], [ -122.2385043, 47.8272215 ], [ -122.2384935, 47.8244434 ], [ -122.2386107, 47.8243758 ], [ -122.2387226, 47.8243774 ], [ -122.239923, 47.8248528 ], [ -122.2406468, 47.8251094 ], [ -122.2414271, 47.825359 ], [ -122.2426946, 47.8256512 ], [ -122.2439515, 47.8258557 ], [ -122.2448659, 47.8259531 ] ] ] } },
{ "type": "Feature", "properties": { "element_type": "way", "osmid": "37396857", "nodes": [ 436775379, 436775380, 436775381, 436775382, 436775383, 6933982770, 436775384, 436775385, 6933982780, 436775386, 436775387, 436775388, 436775389, 436775390, 436775391, 436775393, 436775394, 436775395, 436775397, 436775379 ], "ele": "161", "gnis:county_id": "061", "gnis:created": "09/10/1979", "gnis:feature_id": "1504310", "gnis:state_id": "53", "landuse": "cemetery", "name": "Cypress Lawn Memorial Park", "alt_name": "nan", "amenity": "nan", "wikidata": "nan", "wikipedia": "nan", "city": "nan", "addr:city": "nan", "addr:housenumber": "nan", "addr:postcode": "nan", "addr:street": "nan", "barrier": "nan", "source": "yahoo_wms", "name:zh": "nan", "name:zh-Hans": "nan", "name:zh-Hant": "nan", "website": "nan", "name_1": "nan", "name_2": "nan", "name_3": "nan", "name_4": "nan", "note": "nan", "religion": "nan", "cemetery": "nan", "start_date": "nan", "ways": "nan", "type": "nan", "wikimedia_commons": "nan", "addr:state": "nan", "denomination": "nan", "fax": "nan", "opening_hours": "nan", "phone": "nan" }, "geometry": { "type": "Polygon", "coordinates": [ [ [ -122.212513, 47.9213038 ], [ -122.2124883, 47.9179077 ], [ -122.2129739, 47.9178911 ], [ -122.2134432, 47.9173205 ], [ -122.2141594, 47.9175808 ], [ -122.2141278, 47.9168194 ], [ -122.2141017, 47.9161904 ], [ -122.2124553, 47.9160242 ], [ -122.2124618, 47.9149095 ], [ -122.2124636, 47.9146059 ], [ -122.2115581, 47.9146003 ], [ -122.2111464, 47.9148663 ], [ -122.210669, 47.9157582 ], [ -122.2088497, 47.9190213 ], [ -122.2099611, 47.9199852 ], [ -122.2108172, 47.920506 ], [ -122.2115251, 47.920866 ], [ -122.2120026, 47.9211154 ], [ -122.2122907, 47.9212594 ], [ -122.212513, 47.9213038 ] ] ] } },
{ "type": "Feature", "properties": { "element_type": "way", "osmid": "39367224", "nodes": [ 471702925, 6960930385, 471702926, 471702927, 471702928, 471702929, 8597170324, 471702930, 471702931, 471702932, 471702933, 471702934, 471702935, 471702936, 471702937, 471702938, 5431865926, 2160557644, 471702939, 471702925 ], "ele": "84", "gnis:county_id": "033", "gnis:created": "12/31/1992", "gnis:feature_id": "1510686", "gnis:state_id": "53", "landuse": "cemetery", "name": "Acacia Memorial Park", "alt_name": "nan", "amenity": "nan", "wikidata": "nan", "wikipedia": "nan", "city": "nan", "addr:city": "nan", "addr:housenumber": "nan", "addr:postcode": "nan", "addr:street": "nan", "barrier": "nan", "source": "yahoo_wms", "name:zh": "nan", "name:zh-Hans": "nan", "name:zh-Hant": "nan", "website": "nan", "name_1": "nan", "name_2": "nan", "name_3": "nan", "name_4": "nan", "note": "nan", "religion": "nan", "cemetery": "nan", "start_date": "nan", "ways": "nan", "type": "nan", "wikimedia_commons": "nan", "addr:state": "nan", "denomination": "nan", "fax": "nan", "opening_hours": "nan", "phone": "nan" }, "geometry": { "type": "Polygon", "coordinates": [ [ [ -122.2913936, 47.7410315 ], [ -122.2966782, 47.740989 ], [ -122.29929, 47.740968 ], [ -122.29929, 47.7373777 ], [ -122.2978824, 47.7373777 ], [ -122.2967237, 47.7373777 ], [ -122.2966764, 47.7373777 ], [ -122.2937969, 47.7373777 ], [ -122.2937969, 47.7369736 ], [ -122.2930072, 47.7369679 ], [ -122.2928012, 47.7369101 ], [ -122.2922862, 47.736558 ], [ -122.2922347, 47.7365522 ], [ -122.2919601, 47.7369852 ], [ -122.2916768, 47.7373315 ], [ -122.2913078, 47.7377702 ], [ -122.2913229, 47.7395263 ], [ -122.2913171, 47.7395855 ], [ -122.2913249, 47.7397559 ], [ -122.2913936, 47.7410315 ] ] ] } },
{ "type": "Feature", "properties": { "element_type": "way", "osmid": "159547041", "nodes": [ 1716565296, 1716565278, 1716565706, 9622735781, 1716564732, 2976584821, 2976584823, 1716564740, 2754247353, 1716565296 ], "ele": "66", "gnis:county_id": "033", "gnis:created": "02/05/2004", "gnis:feature_id": "2027190", "gnis:state_id": "53", "landuse": "cemetery", "name": "Fort Lawton Post Cemetery", "alt_name": "nan", "amenity": "nan", "wikidata": "Q117566935", "wikipedia": "nan", "city": "nan", "addr:city": "Seattle", "addr:housenumber": "nan", "addr:postcode": "98199", "addr:street": "Texas Way", "barrier": "nan", "source": "nan", "name:zh": "nan", "name:zh-Hans": "nan", "name:zh-Hant": "nan", "website": "https://www.cem.va.gov/cems/nchp/FtLawtonPost.asp", "name_1": "nan", "name_2": "nan", "name_3": "nan", "name_4": "nan", "note": "nan", "religion": "nan", "cemetery": "nan", "start_date": "nan", "ways": "nan", "type": "nan", "wikimedia_commons": "nan", "addr:state": "WA", "denomination": "nan", "fax": "425-413-9618", "opening_hours": "dawn-dusk", "phone": "+1-425-413-9614" }, "geometry": { "type": "Polygon", "coordinates": [ [ [ -122.406347, 47.6606021 ], [ -122.405521, 47.6606021 ], [ -122.4047882, 47.6606021 ], [ -122.4047863, 47.6601565 ], [ -122.404784, 47.6595795 ], [ -122.4060688, 47.6594523 ], [ -122.4063979, 47.6592981 ], [ -122.406673, 47.6595268 ], [ -122.4064837, 47.6596932 ], [ -122.406347, 47.6606021 ] ] ] } },
{ "type": "Feature", "properties": { "element_type": "way", "osmid": "161391628", "nodes": [ 1733685892, 1733685890, 1733685891, 1733685911, 1733685915, 1704972592, 1733685920, 1733685922, 1733685912, 1733685892 ], "ele": "nan", "gnis:county_id": "nan", "gnis:created": "nan", "gnis:feature_id": "nan", "gnis:state_id": "nan", "landuse": "cemetery", "name": "Bothell Pioneer Cemetery", "alt_name": "nan", "amenity": "nan", "wikidata": "Q4948628", "wikipedia": "nan", "city": "nan", "addr:city": "nan", "addr:housenumber": "nan", "addr:postcode": "nan", "addr:street": "nan", "barrier": "nan", "source": "nan", "name:zh": "nan", "name:zh-Hans": "nan", "name:zh-Hant": "nan", "website": "http://community.seattletimes.nwsource.com/archive/?date=20041028&slug=bothellcemetery28e", "name_1": "nan", "name_2": "nan", "name_3": "nan", "name_4": "nan", "note": "nan", "religion": "nan", "cemetery": "nan", "start_date": "nan", "ways": "nan", "type": "nan", "wikimedia_commons": "nan", "addr:state": "nan", "denomination": "nan", "fax": "nan", "opening_hours": "nan", "phone": "nan" }, "geometry": { "type": "Polygon", "coordinates": [ [ [ -122.1961549, 47.7584536 ], [ -122.195128, 47.7584276 ], [ -122.1940288, 47.7584464 ], [ -122.1937525, 47.7588341 ], [ -122.1937713, 47.7590486 ], [ -122.1943175, 47.759107 ], [ -122.1947154, 47.759107 ], [ -122.1961496, 47.7591066 ], [ -122.1961496, 47.7588034 ], [ -122.1961549, 47.7584536 ] ] ] } },
{ "type": "Feature", "properties": { "element_type": "way", "osmid": "170539264", "nodes": [ 1817093464, 1817093466, 1817093454, 356541375, 1817093455, 1817093456, 1817093464 ], "ele": "94", "gnis:county_id": "061", "gnis:created": "09/10/1979", "gnis:feature_id": "1508868", "gnis:state_id": "53", "landuse": "cemetery", "name": "Edmonds Cemetery", "alt_name": "nan", "amenity": "grave_yard", "wikidata": "nan", "wikipedia": "nan", "city": "nan", "addr:city": "nan", "addr:housenumber": "nan", "addr:postcode": "nan", "addr:street": "nan", "barrier": "nan", "source": "Local Knowledge", "name:zh": "nan", "name:zh-Hans": "nan", "name:zh-Hant": "nan", "website": "nan", "name_1": "nan", "name_2": "nan", "name_3": "nan", "name_4": "nan", "note": "nan", "religion": "nan", "cemetery": "nan", "start_date": "nan", "ways": "nan", "type": "nan", "wikimedia_commons": "nan", "addr:state": "nan", "denomination": "nan", "fax": "nan", "opening_hours": "nan", "phone": "nan" }, "geometry": { "type": "Polygon", "coordinates": [ [ [ -122.3682834, 47.7940685 ], [ -122.366836, 47.7940435 ], [ -122.3668014, 47.7923512 ], [ -122.3693952, 47.792351 ], [ -122.3694023, 47.7931275 ], [ -122.3682813, 47.7931321 ], [ -122.3682834, 47.7940685 ] ] ] } },
{ "type": "Feature", "properties": { "element_type": "way", "osmid": "291536478", "nodes": [ 2950024106, 2950024111, 2950024109, 2950024108, 2950024107, 2950024106 ], "ele": "nan", "gnis:county_id": "nan", "gnis:created": "nan", "gnis:feature_id": "nan", "gnis:state_id": "nan", "landuse": "cemetery", "name": "Hansville Cemetery", "alt_name": "nan", "amenity": "nan", "wikidata": "nan", "wikipedia": "nan", "city": "nan", "addr:city": "nan", "addr:housenumber": "nan", "addr:postcode": "nan", "addr:street": "nan", "barrier": "nan", "source": "nan", "name:zh": "nan", "name:zh-Hans": "nan", "name:zh-Hant": "nan", "website": "nan", "name_1": "nan", "name_2": "nan", "name_3": "nan", "name_4": "nan", "note": "nan", "religion": "nan", "cemetery": "nan", "start_date": "nan", "ways": "nan", "type": "nan", "wikimedia_commons": "nan", "addr:state": "nan", "denomination": "nan", "fax": "nan", "opening_hours": "nan", "phone": "nan" }, "geometry": { "type": "Polygon", "coordinates": [ [ [ -122.5437063, 47.9077366 ], [ -122.5441244, 47.9081017 ], [ -122.5448904, 47.908071 ], [ -122.546045, 47.9080449 ], [ -122.5459308, 47.9077386 ], [ -122.5437063, 47.9077366 ] ] ] } },
{ "type": "Feature", "properties": { "element_type": "way", "osmid": "296531514", "nodes": [ 3003227256, 3003227255, 3003260525, 3003227257, 3003227254, 3003227260, 3003227259, 3003227258, 3003227256 ], "ele": "nan", "gnis:county_id": "nan", "gnis:created": "nan", "gnis:feature_id": "nan", "gnis:state_id": "nan", "landuse": "cemetery", "name": "Hills of Eternity Cemetery", "alt_name": "nan", "amenity": "nan", "wikidata": "Q107541984", "wikipedia": "nan", "city": "nan", "addr:city": "Seattle", "addr:housenumber": "520", "addr:postcode": "98119", "addr:street": "West Raye Street", "barrier": "nan", "source": "nan", "name:zh": "nan", "name:zh-Hans": "nan", "name:zh-Hant": "nan", "website": "http://www.tdhs-nw.org/index.php/directions", "name_1": "nan", "name_2": "nan", "name_3": "nan", "name_4": "nan", "note": "nan", "religion": "jewish", "cemetery": "nan", "start_date": "nan", "ways": "nan", "type": "nan", "wikimedia_commons": "nan", "addr:state": "nan", "denomination": "nan", "fax": "nan", "opening_hours": "nan", "phone": "nan" }, "geometry": { "type": "Polygon", "coordinates": [ [ [ -122.3648487, 47.6450047 ], [ -122.3635467, 47.6450029 ], [ -122.3635846, 47.6433806 ], [ -122.3635881, 47.6432302 ], [ -122.3641353, 47.6432247 ], [ -122.3641255, 47.6435564 ], [ -122.3641299, 47.6438952 ], [ -122.3648809, 47.6439006 ], [ -122.3648487, 47.6450047 ] ] ] } },
{ "type": "Feature", "properties": { "element_type": "way", "osmid": "372107764", "nodes": [ 3756419645, 3756419629, 3756419640, 3756419631, 3756416715, 3756419645 ], "ele": "nan", "gnis:county_id": "nan", "gnis:created": "nan", "gnis:feature_id": "nan", "gnis:state_id": "nan", "landuse": "cemetery", "name": "Kirkland Cemetery", "alt_name": "nan", "amenity": "nan", "wikidata": "nan", "wikipedia": "nan", "city": "nan", "addr:city": "nan", "addr:housenumber": "nan", "addr:postcode": "nan", "addr:street": "nan", "barrier": "nan", "source": "nan", "name:zh": "nan", "name:zh-Hans": "nan", "name:zh-Hant": "nan", "website": "nan", "name_1": "nan", "name_2": "nan", "name_3": "nan", "name_4": "nan", "note": "nan", "religion": "christian", "cemetery": "nan", "start_date": "nan", "ways": "nan", "type": "nan", "wikimedia_commons": "nan", "addr:state": "nan", "denomination": "nan", "fax": "nan", "opening_hours": "nan", "phone": "nan" }, "geometry": { "type": "Polygon", "coordinates": [ [ [ -122.1804264, 47.6771274 ], [ -122.1783063, 47.6771182 ], [ -122.1782479, 47.6754925 ], [ -122.1802979, 47.6755209 ], [ -122.1803812, 47.675551 ], [ -122.1804264, 47.6771274 ] ] ] } },
{ "type": "Feature", "properties": { "element_type": "way", "osmid": "471191460", "nodes": [ 4653552062, 4653552063, 4653552064, 5432041972, 4653552070, 4653552065, 4653552066, 4653552067, 4653552062 ], "ele": "nan", "gnis:county_id": "nan", "gnis:created": "nan", "gnis:feature_id": "nan", "gnis:state_id": "nan", "landuse": "cemetery", "name": "Herzl Memorial Park", "alt_name": "nan", "amenity": "nan", "wikidata": "nan", "wikipedia": "nan", "city": "nan", "addr:city": "nan", "addr:housenumber": "nan", "addr:postcode": "nan", "addr:street": "nan", "barrier": "nan", "source": "nan", "name:zh": "nan", "name:zh-Hans": "nan", "name:zh-Hant": "nan", "website": "nan", "name_1": "nan", "name_2": "nan", "name_3": "nan", "name_4": "nan", "note": "nan", "religion": "jewish", "cemetery": "nan", "start_date": "nan", "ways": "nan", "type": "nan", "wikimedia_commons": "nan", "addr:state": "nan", "denomination": "nan", "fax": "nan", "opening_hours": "nan", "phone": "nan" }, "geometry": { "type": "Polygon", "coordinates": [ [ [ -122.355741, 47.7523044 ], [ -122.3542376, 47.7523052 ], [ -122.3546198, 47.7515533 ], [ -122.354622, 47.7515011 ], [ -122.3546278, 47.7514139 ], [ -122.3547189, 47.7498185 ], [ -122.3547844, 47.7497805 ], [ -122.3557081, 47.7505574 ], [ -122.355741, 47.7523044 ] ] ] } },
{ "type": "Feature", "properties": { "element_type": "way", "osmid": "909195764", "nodes": [ 8441804669, 8441804670, 8441804671, 8441804672, 8441804673, 8441804674, 8441804675, 8441804676, 8441804669 ], "ele": "nan", "gnis:county_id": "nan", "gnis:created": "nan", "gnis:feature_id": "nan", "gnis:state_id": "nan", "landuse": "cemetery", "name": "Pioneer Cemetery", "alt_name": "nan", "amenity": "nan", "wikidata": "nan", "wikipedia": "nan", "city": "nan", "addr:city": "nan", "addr:housenumber": "nan", "addr:postcode": "nan", "addr:street": "nan", "barrier": "nan", "source": "nan", "name:zh": "nan", "name:zh-Hans": "nan", "name:zh-Hant": "nan", "website": "nan", "name_1": "nan", "name_2": "nan", "name_3": "nan", "name_4": "nan", "note": "nan", "religion": "nan", "cemetery": "nan", "start_date": "nan", "ways": "nan", "type": "nan", "wikimedia_commons": "nan", "addr:state": "nan", "denomination": "nan", "fax": "nan", "opening_hours": "nan", "phone": "nan" }, "geometry": { "type": "Polygon", "coordinates": [ [ [ -122.3072785, 47.9440126 ], [ -122.3070875, 47.9435129 ], [ -122.3076017, 47.9434135 ], [ -122.3076282, 47.9434952 ], [ -122.3077196, 47.9434911 ], [ -122.3077095, 47.9436422 ], [ -122.3077257, 47.9438887 ], [ -122.3076465, 47.94395 ], [ -122.3072785, 47.9440126 ] ] ] } },
{ "type": "Feature", "properties": { "element_type": "way", "osmid": "1167322393", "nodes": [ 10855671765, 10855671764, 10855671763, 10855671762, 10855671765 ], "ele": "nan", "gnis:county_id": "nan", "gnis:created": "nan", "gnis:feature_id": "nan", "gnis:state_id": "nan", "landuse": "cemetery", "name": "Island Center Cemetery", "alt_name": "nan", "amenity": "nan", "wikidata": "nan", "wikipedia": "nan", "city": "nan", "addr:city": "nan", "addr:housenumber": "nan", "addr:postcode": "nan", "addr:street": "nan", "barrier": "nan", "source": "nan", "name:zh": "nan", "name:zh-Hans": "nan", "name:zh-Hant": "nan", "website": "https://www.findagrave.com/cemetery/564981/island-center-cemetery", "name_1": "nan", "name_2": "nan", "name_3": "nan", "name_4": "nan", "note": "nan", "religion": "nan", "cemetery": "nan", "start_date": "1889", "ways": "nan", "type": "nan", "wikimedia_commons": "nan", "addr:state": "nan", "denomination": "nan", "fax": "nan", "opening_hours": "nan", "phone": "nan" }, "geometry": { "type": "Polygon", "coordinates": [ [ [ -122.5647504, 47.6462839 ], [ -122.5639028, 47.6462851 ], [ -122.5638975, 47.6457164 ], [ -122.5647504, 47.645714 ], [ -122.5647504, 47.6462839 ] ] ] } },
{ "type": "Feature", "properties": { "element_type": "way", "osmid": "1176856903", "nodes": [ 10933523586, 10933523567, 10933523566, 10933523585, 10933523584, 10933523583, 10933523582, 10933523581, 10933523580, 10933523579, 10933523578, 10933523577, 10933523576, 10933523575, 10933523574, 10933523573, 10933523572, 10933523571, 10933523570, 10933523569, 10933523568, 10933523586 ], "ele": "nan", "gnis:county_id": "nan", "gnis:created": "nan", "gnis:feature_id": "nan", "gnis:state_id": "nan", "landuse": "cemetery", "name": "nan", "alt_name": "nan", "amenity": "nan", "wikidata": "nan", "wikipedia": "nan", "city": "nan", "addr:city": "nan", "addr:housenumber": "nan", "addr:postcode": "nan", "addr:street": "nan", "barrier": "nan", "source": "nan", "name:zh": "nan", "name:zh-Hans": "nan", "name:zh-Hant": "nan", "website": "nan", "name_1": "nan", "name_2": "nan", "name_3": "nan", "name_4": "nan", "note": "nan", "religion": "nan", "cemetery": "nan", "start_date": "nan", "ways": "nan", "type": "nan", "wikimedia_commons": "nan", "addr:state": "nan", "denomination": "nan", "fax": "nan", "opening_hours": "nan", "phone": "nan" }, "geometry": { "type": "Polygon", "coordinates": [ [ [ -122.6172182, 47.7653077 ], [ -122.6144493, 47.7653276 ], [ -122.6144546, 47.7648769 ], [ -122.6139469, 47.7648879 ], [ -122.6142242, 47.7646477 ], [ -122.6144646, 47.7644364 ], [ -122.6147234, 47.7642335 ], [ -122.6149945, 47.7640222 ], [ -122.6152656, 47.7638151 ], [ -122.6155368, 47.7636246 ], [ -122.6158202, 47.7634258 ], [ -122.6161183, 47.7632339 ], [ -122.6164015, 47.7630389 ], [ -122.6166988, 47.7628628 ], [ -122.6169961, 47.7626725 ], [ -122.6172988, 47.7624979 ], [ -122.6173092, 47.7624981 ], [ -122.6173053, 47.7628562 ], [ -122.6172714, 47.7629971 ], [ -122.6172467, 47.7631027 ], [ -122.6172406, 47.7632622 ], [ -122.6172182, 47.7653077 ] ] ] } },
{ "type": "Feature", "properties": { "element_type": "relation", "osmid": "3809310", "nodes": [ [ [ 2908383484, 48590771, 3158767587, 2908383458 ], [ 2908383484, 2908383483, 2908383457, 2908383458 ] ] ], "ele": "nan", "gnis:county_id": "nan", "gnis:created": "nan", "gnis:feature_id": "nan", "gnis:state_id": "nan", "landuse": "cemetery", "name": "Poulsbo Cemetery", "alt_name": "nan", "amenity": "nan", "wikidata": "nan", "wikipedia": "nan", "city": "nan", "addr:city": "nan", "addr:housenumber": "nan", "addr:postcode": "nan", "addr:street": "nan", "barrier": "nan", "source": "nan", "name:zh": "nan", "name:zh-Hans": "nan", "name:zh-Hant": "nan", "website": "nan", "name_1": "nan", "name_2": "nan", "name_3": "nan", "name_4": "nan", "note": "nan", "religion": "nan", "cemetery": "nan", "start_date": "nan", "ways": [ 287206717, 287206720 ], "type": "multipolygon", "wikimedia_commons": "nan", "addr:state": "nan", "denomination": "nan", "fax": "nan", "opening_hours": "nan", "phone": "nan" }, "geometry": { "type": "Polygon", "coordinates": [ [ [ -122.6280163, 47.7444726 ], [ -122.6253486, 47.7444649 ], [ -122.6253378, 47.7435412 ], [ -122.6280092, 47.7435527 ], [ -122.6280064, 47.7439405 ], [ -122.6280065, 47.7440597 ], [ -122.6280163, 47.7444726 ] ] ] } },
{ "type": "Feature", "properties": { "element_type": "relation", "osmid": "5012096", "nodes": [ [ [ 409433713, 4346296047, 409433718, 409433722, 3712387580, 409433725, 409433713 ], [ 409433733, 409433737, 409433742, 409433746, 409433733 ] ] ], "ele": "nan", "gnis:county_id": "nan", "gnis:created": "nan", "gnis:feature_id": "nan", "gnis:state_id": "nan", "landuse": "cemetery", "name": "Bikur Cholim Cemetery", "alt_name": "nan", "amenity": "nan", "wikidata": "Q117692744", "wikipedia": "nan", "city": "nan", "addr:city": "nan", "addr:housenumber": "nan", "addr:postcode": "nan", "addr:street": "nan", "barrier": "nan", "source": "nan", "name:zh": "nan", "name:zh-Hans": "nan", "name:zh-Hant": "nan", "website": "nan", "name_1": "nan", "name_2": "nan", "name_3": "nan", "name_4": "nan", "note": "nan", "religion": "jewish", "cemetery": "nan", "start_date": "nan", "ways": [ 34901985, 34901986 ], "type": "multipolygon", "wikimedia_commons": "nan", "addr:state": "nan", "denomination": "nan", "fax": "nan", "opening_hours": "nan", "phone": "nan" }, "geometry": { "type": "MultiPolygon", "coordinates": [ [ [ [ -122.341205, 47.7141482 ], [ -122.3394617, 47.7141465 ], [ -122.3394298, 47.7136082 ], [ -122.3394155, 47.7123893 ], [ -122.340772, 47.7123938 ], [ -122.3411912, 47.7123952 ], [ -122.341205, 47.7141482 ] ] ], [ [ [ -122.3405689, 47.7122304 ], [ -122.3394424, 47.7122304 ], [ -122.3394316, 47.7113859 ], [ -122.3406064, 47.7113931 ], [ -122.3405689, 47.7122304 ] ] ] ] } },
{ "type": "Feature", "properties": { "element_type": "relation", "osmid": "5012097", "nodes": [ [ [ 410738742, 409438872, 3712387609, 409438876, 356541497, 409433733, 409433746 ], [ 409433746, 409433742, 409433737, 409438885, 409438889, 409438893, 8986752684, 409438897, 409438900, 409438904, 409438907, 410738768, 410738742 ], [ 409438756, 409438762, 409438765, 409438769, 409438773, 409438777, 409438781, 409438784, 4543838623, 4543838622, 1709135489, 409438788, 409438792, 409438796, 409438800, 409438804, 409438808, 409438812, 409438815, 409438821, 409438825, 409438829, 409438832, 409438836, 409438840, 409438842, 409438843, 409438846, 409438851, 409438855, 409438859, 409438864, 409438756 ] ] ], "ele": "115", "gnis:county_id": "033", "gnis:created": "09/10/1979", "gnis:feature_id": "1509299", "gnis:state_id": "53", "landuse": "cemetery", "name": "Evergreen-Washelli Cemetery", "alt_name": "nan", "amenity": "nan", "wikidata": "Q5417254", "wikipedia": "nan", "city": "nan", "addr:city": "nan", "addr:housenumber": "nan", "addr:postcode": "nan", "addr:street": "nan", "barrier": "nan", "source": "nan", "name:zh": "nan", "name:zh-Hans": "nan", "name:zh-Hant": "nan", "website": "nan", "name_1": "nan", "name_2": "nan", "name_3": "nan", "name_4": "nan", "note": "nan", "religion": "nan", "cemetery": "nan", "start_date": "nan", "ways": [ 34901996, 360942674, 34901995 ], "type": "multipolygon", "wikimedia_commons": "nan", "addr:state": "nan", "denomination": "nan", "fax": "nan", "opening_hours": "nan", "phone": "nan" }, "geometry": { "type": "MultiPolygon", "coordinates": [ [ [ [ -122.3485545, 47.7194964 ], [ -122.3463235, 47.719495 ], [ -122.3463349, 47.7186661 ], [ -122.3459695, 47.7186607 ], [ -122.3459279, 47.715948 ], [ -122.3450696, 47.7159553 ], [ -122.3449945, 47.7116169 ], [ -122.3449356, 47.7084828 ], [ -122.3453979, 47.7084815 ], [ -122.3454136, 47.7087067 ], [ -122.3461008, 47.7087074 ], [ -122.3495007, 47.7087111 ], [ -122.3492539, 47.7093608 ], [ -122.3490447, 47.7099023 ], [ -122.3488408, 47.7104708 ], [ -122.3486262, 47.7110881 ], [ -122.3484224, 47.7116475 ], [ -122.3483044, 47.7119543 ], [ -122.3481273, 47.7123297 ], [ -122.3479798, 47.712725 ], [ -122.3479047, 47.7129686 ], [ -122.3478672, 47.7133078 ], [ -122.347894, 47.7136363 ], [ -122.3479342, 47.7139503 ], [ -122.3479959, 47.7144195 ], [ -122.3480496, 47.7150295 ], [ -122.3481166, 47.7155564 ], [ -122.3481917, 47.7160672 ], [ -122.3483039, 47.7166286 ], [ -122.3484032, 47.717455 ], [ -122.348473, 47.7180231 ], [ -122.3485887, 47.7189166 ], [ -122.3485545, 47.7194964 ] ] ], [ [ [ -122.3434211, 47.7086948 ], [ -122.3445385, 47.708693 ], [ -122.3445582, 47.7095846 ], [ -122.344619, 47.7122593 ], [ -122.3406225, 47.7122449 ], [ -122.3405689, 47.7122304 ], [ -122.3406064, 47.7113931 ], [ -122.3394316, 47.7113859 ], [ -122.3394424, 47.7122304 ], [ -122.3341959, 47.7122232 ], [ -122.3341369, 47.7097687 ], [ -122.3353493, 47.7097687 ], [ -122.3353209, 47.7092048 ], [ -122.3353171, 47.7091262 ], [ -122.3353225, 47.7086208 ], [ -122.3391849, 47.7086462 ], [ -122.3391956, 47.7086966 ], [ -122.3424517, 47.7086943 ], [ -122.3434211, 47.7086948 ] ] ] ] } },
{ "type": "Feature", "properties": { "element_type": "relation", "osmid": "5416133", "nodes": [ [ [ 3061312226, 3061312227, 3061312228, 3061312229, 3061312230, 3061312231, 3061312232, 3061317733, 3061317734, 3061317735, 3061317736, 3061317737, 3061317738, 3061317739, 3061317740, 3061312226 ], [ 3061332900, 3061332901, 3061332902, 3061332903, 3061332904, 3061332905, 3061332906, 3061332907, 3061332908, 3061332909, 3061332910, 3061332911, 3061332912, 3061332913, 3061332900 ], [ 3061332887, 3061332888, 3061332889, 3061332890, 3061332891, 3061332892, 3061332893, 3061332894, 3061332895, 3061332896, 3061332897, 3061332898, 3061332899, 3061332887 ] ] ], "ele": "113", "gnis:county_id": "061", "gnis:created": "11/01/1992", "gnis:feature_id": "1514501", "gnis:state_id": "53", "landuse": "cemetery", "name": "Abbey View Memorial Park", "alt_name": "nan", "amenity": "nan", "wikidata": "nan", "wikipedia": "nan", "city": "nan", "addr:city": "nan", "addr:housenumber": "nan", "addr:postcode": "nan", "addr:street": "nan", "barrier": "nan", "source": "nan", "name:zh": "nan", "name:zh-Hans": "nan", "name:zh-Hant": "nan", "website": "nan", "name_1": "nan", "name_2": "nan", "name_3": "nan", "name_4": "nan", "note": "nan", "religion": "christian", "cemetery": "nan", "start_date": "nan", "ways": [ 301952820, 301954769, 301954768 ], "type": "multipolygon", "wikimedia_commons": "nan", "addr:state": "nan", "denomination": "nan", "fax": "nan", "opening_hours": "nan", "phone": "nan" }, "geometry": { "type": "MultiPolygon", "coordinates": [ [ [ [ -122.2869882, 47.7773426 ], [ -122.2869641, 47.7783383 ], [ -122.2869161, 47.7810131 ], [ -122.2864996, 47.7810131 ], [ -122.2861632, 47.780927 ], [ -122.2854745, 47.7805987 ], [ -122.2852582, 47.7803619 ], [ -122.2852262, 47.7801197 ], [ -122.2852102, 47.7800659 ], [ -122.28509, 47.7790379 ], [ -122.285066, 47.7786935 ], [ -122.2849459, 47.7781176 ], [ -122.2848498, 47.7778324 ], [ -122.2844894, 47.7773211 ], [ -122.2869882, 47.7773426 ] ] ], [ [ [ -122.2848867, 47.7801088 ], [ -122.284834, 47.7801391 ], [ -122.2847539, 47.7801391 ], [ -122.2844896, 47.7801068 ], [ -122.2838969, 47.7799077 ], [ -122.2836086, 47.7798215 ], [ -122.2826395, 47.7797516 ], [ -122.2815823, 47.7797031 ], [ -122.280405, 47.7796493 ], [ -122.2803282, 47.7772985 ], [ -122.284278, 47.7773156 ], [ -122.2847185, 47.7779184 ], [ -122.2848386, 47.7782628 ], [ -122.2850228, 47.779829 ], [ -122.2850228, 47.7800443 ], [ -122.2848867, 47.7801088 ] ] ], [ [ [ -122.2805122, 47.7797978 ], [ -122.2810032, 47.7798272 ], [ -122.2813922, 47.7798566 ], [ -122.2814506, 47.7798729 ], [ -122.2814943, 47.7798925 ], [ -122.2815624, 47.7799383 ], [ -122.2815624, 47.779984 ], [ -122.2815673, 47.7802029 ], [ -122.2816062, 47.78035 ], [ -122.2816451, 47.7805362 ], [ -122.281222, 47.7805983 ], [ -122.2813679, 47.7809054 ], [ -122.280624, 47.7808825 ], [ -122.2805122, 47.7797978 ] ] ] ] } },
{ "type": "Feature", "properties": { "element_type": "way", "osmid": "37579526", "nodes": [ 440496393, 3487874697, 3487874696, 440496407, 440496393 ], "ele": "nan", "gnis:county_id": "nan", "gnis:created": "nan", "gnis:feature_id": "nan", "gnis:state_id": "nan", "landuse": "cemetery", "name": "Carnation Cemetery", "alt_name": "nan", "amenity": "nan", "wikidata": "nan", "wikipedia": "nan", "city": "nan", "addr:city": "nan", "addr:housenumber": "nan", "addr:postcode": "nan", "addr:street": "nan", "barrier": "nan", "source": "nan", "name:zh": "nan", "name:zh-Hans": "nan", "name:zh-Hant": "nan", "website": "nan", "name_1": "nan", "name_2": "nan", "name_3": "nan", "name_4": "nan", "note": "nan", "religion": "nan", "cemetery": "nan", "start_date": "nan", "ways": "nan", "type": "nan", "wikimedia_commons": "nan", "addr:state": "nan", "denomination": "nan", "fax": "nan", "opening_hours": "nan", "phone": "nan" }, "geometry": { "type": "Polygon", "coordinates": [ [ [ -121.9115729, 47.652933 ], [ -121.9105086, 47.6528347 ], [ -121.9106202, 47.651927 ], [ -121.9117532, 47.6519617 ], [ -121.9115729, 47.652933 ] ] ] } },
{ "type": "Feature", "properties": { "element_type": "way", "osmid": "40421266", "nodes": [ 489220857, 489220864, 489220871, 489220878, 489220879, 489220885, 489220892, 489220899, 489220906, 489220913, 489220921, 489220928, 489220935, 489220947, 489220948, 489220857 ], "ele": "22", "gnis:county_id": "061", "gnis:created": "09/10/1979", "gnis:feature_id": "1505076", "gnis:state_id": "53", "landuse": "cemetery", "name": "Grand Army of the Republic Cemetery", "alt_name": "nan", "amenity": "nan", "wikidata": "nan", "wikipedia": "nan", "city": "nan", "addr:city": "nan", "addr:housenumber": "nan", "addr:postcode": "nan", "addr:street": "nan", "barrier": "nan", "source": "nan", "name:zh": "nan", "name:zh-Hans": "nan", "name:zh-Hant": "nan", "website": "nan", "name_1": "nan", "name_2": "nan", "name_3": "nan", "name_4": "nan", "note": "nan", "religion": "nan", "cemetery": "nan", "start_date": "nan", "ways": "nan", "type": "nan", "wikimedia_commons": "nan", "addr:state": "nan", "denomination": "nan", "fax": "nan", "opening_hours": "nan", "phone": "nan" }, "geometry": { "type": "Polygon", "coordinates": [ [ [ -122.1171587, 47.9222481 ], [ -122.1170276, 47.918876 ], [ -122.1169586, 47.9188066 ], [ -122.1126534, 47.918802 ], [ -122.1127777, 47.9201573 ], [ -122.1132813, 47.9201851 ], [ -122.1136884, 47.9205783 ], [ -122.1140954, 47.9207957 ], [ -122.114261, 47.9208836 ], [ -122.1142886, 47.92136 ], [ -122.1143851, 47.921656 ], [ -122.1145301, 47.9219337 ], [ -122.1146542, 47.922188 ], [ -122.1149716, 47.92235 ], [ -122.1153372, 47.9223777 ], [ -122.1171587, 47.9222481 ] ] ] } },
{ "type": "Feature", "properties": { "element_type": "way", "osmid": "40838238", "nodes": [ 496724178, 496724180, 496724185, 496724195, 496724205, 496724219, 496724228, 496724235, 496724245, 496724178 ], "ele": "34", "gnis:county_id": "061", "gnis:created": "09/10/1979", "gnis:feature_id": "1509621", "gnis:state_id": "53", "landuse": "cemetery", "name": "Woodlawn Cemetery", "alt_name": "nan", "amenity": "nan", "wikidata": "nan", "wikipedia": "nan", "city": "nan", "addr:city": "nan", "addr:housenumber": "nan", "addr:postcode": "nan", "addr:street": "nan", "barrier": "nan", "source": "nan", "name:zh": "nan", "name:zh-Hans": "nan", "name:zh-Hant": "nan", "website": "nan", "name_1": "nan", "name_2": "nan", "name_3": "nan", "name_4": "nan", "note": "nan", "religion": "nan", "cemetery": "nan", "start_date": "nan", "ways": "nan", "type": "nan", "wikimedia_commons": "nan", "addr:state": "nan", "denomination": "nan", "fax": "nan", "opening_hours": "nan", "phone": "nan" }, "geometry": { "type": "Polygon", "coordinates": [ [ [ -122.128107, 47.9223341 ], [ -122.1281551, 47.9239858 ], [ -122.1307864, 47.9240006 ], [ -122.1308118, 47.92267 ], [ -122.1303311, 47.9225845 ], [ -122.1297797, 47.9225102 ], [ -122.1296021, 47.9224828 ], [ -122.1288508, 47.9223985 ], [ -122.1286102, 47.9223687 ], [ -122.128107, 47.9223341 ] ] ] } },
{ "type": "Feature", "properties": { "element_type": "way", "osmid": "53115256", "nodes": [ 672362154, 9727974939, 8204361181, 3224474070, 672362156, 672362157, 5385173837, 5385173827, 672362158, 2628055956, 2628055955, 9727482203, 672362159, 672362160, 3712430169, 672362161, 672362154 ], "ele": "18", "gnis:county_id": "033", "gnis:created": "04/01/1991", "gnis:feature_id": "1510638", "gnis:state_id": "53", "landuse": "cemetery", "name": "Cedar Lawns Memorial Park", "alt_name": "nan", "amenity": "nan", "wikidata": "nan", "wikipedia": "nan", "city": "nan", "addr:city": "nan", "addr:housenumber": "nan", "addr:postcode": "nan", "addr:street": "nan", "barrier": "nan", "source": "nan", "name:zh": "nan", "name:zh-Hans": "nan", "name:zh-Hant": "nan", "website": "nan", "name_1": "nan", "name_2": "nan", "name_3": "nan", "name_4": "nan", "note": "nan", "religion": "nan", "cemetery": "nan", "start_date": "nan", "ways": "nan", "type": "nan", "wikimedia_commons": "nan", "addr:state": "nan", "denomination": "nan", "fax": "nan", "opening_hours": "nan", "phone": "nan" }, "geometry": { "type": "Polygon", "coordinates": [ [ [ -122.1011518, 47.6703424 ], [ -122.1003584, 47.6703346 ], [ -122.1002481, 47.6703335 ], [ -122.099972, 47.6703308 ], [ -122.0999735, 47.6709773 ], [ -122.0963188, 47.6709799 ], [ -122.0962917, 47.6690025 ], [ -122.0973396, 47.6689977 ], [ -122.0973392, 47.6689285 ], [ -122.098496, 47.6689216 ], [ -122.0985026, 47.6690183 ], [ -122.0993619, 47.6690181 ], [ -122.0999738, 47.669018 ], [ -122.0999742, 47.6692089 ], [ -122.1002762, 47.6692037 ], [ -122.1011634, 47.6692101 ], [ -122.1011518, 47.6703424 ] ] ] } },
{ "type": "Feature", "properties": { "element_type": "way", "osmid": "367302616", "nodes": [ 672362154, 9727974939, 8204361181, 3712430169, 672362161, 672362154 ], "ele": "nan", "gnis:county_id": "nan", "gnis:created": "nan", "gnis:feature_id": "nan", "gnis:state_id": "nan", "landuse": "cemetery", "name": "Redmond Pioneer Cemetery", "alt_name": "nan", "amenity": "nan", "wikidata": "nan", "wikipedia": "nan", "city": "nan", "addr:city": "nan", "addr:housenumber": "nan", "addr:postcode": "nan", "addr:street": "nan", "barrier": "nan", "source": "nan", "name:zh": "nan", "name:zh-Hans": "nan", "name:zh-Hant": "nan", "website": "nan", "name_1": "nan", "name_2": "nan", "name_3": "nan", "name_4": "nan", "note": "nan", "religion": "nan", "cemetery": "nan", "start_date": "nan", "ways": "nan", "type": "nan", "wikimedia_commons": "nan", "addr:state": "nan", "denomination": "nan", "fax": "nan", "opening_hours": "nan", "phone": "nan" }, "geometry": { "type": "Polygon", "coordinates": [ [ [ -122.1011518, 47.6703424 ], [ -122.1003584, 47.6703346 ], [ -122.1002481, 47.6703335 ], [ -122.1002762, 47.6692037 ], [ -122.1011634, 47.6692101 ], [ -122.1011518, 47.6703424 ] ] ] } },
{ "type": "Feature", "properties": { "element_type": "way", "osmid": "472682342", "nodes": [ 4668755796, 4668755797, 4668755798, 4668755799, 4668755800, 4668755801, 4668755796 ], "ele": "nan", "gnis:county_id": "nan", "gnis:created": "nan", "gnis:feature_id": "nan", "gnis:state_id": "nan", "landuse": "cemetery", "name": "nan", "alt_name": "nan", "amenity": "nan", "wikidata": "nan", "wikipedia": "nan", "city": "nan", "addr:city": "nan", "addr:housenumber": "nan", "addr:postcode": "nan", "addr:street": "nan", "barrier": "nan", "source": "nan", "name:zh": "nan", "name:zh-Hans": "nan", "name:zh-Hant": "nan", "website": "nan", "name_1": "nan", "name_2": "nan", "name_3": "nan", "name_4": "nan", "note": "nan", "religion": "nan", "cemetery": "nan", "start_date": "nan", "ways": "nan", "type": "nan", "wikimedia_commons": "nan", "addr:state": "nan", "denomination": "nan", "fax": "nan", "opening_hours": "nan", "phone": "nan" }, "geometry": { "type": "Polygon", "coordinates": [ [ [ -121.7932657, 47.8640879 ], [ -121.7909, 47.8641239 ], [ -121.7908624, 47.8640843 ], [ -121.7908624, 47.8627635 ], [ -121.7912111, 47.8627599 ], [ -121.7932281, 47.8638971 ], [ -121.7932657, 47.8640879 ] ] ] } },
{ "type": "Feature", "properties": { "element_type": "way", "osmid": "489201845", "nodes": [ 4814725012, 4814725013, 4814725014, 4814725015, 4814725012 ], "ele": "nan", "gnis:county_id": "nan", "gnis:created": "nan", "gnis:feature_id": "nan", "gnis:state_id": "nan", "landuse": "cemetery", "name": "Duvall Pioneer Cemetery", "alt_name": "nan", "amenity": "nan", "wikidata": "nan", "wikipedia": "nan", "city": "nan", "addr:city": "nan", "addr:housenumber": "nan", "addr:postcode": "nan", "addr:street": "nan", "barrier": "nan", "source": "nan", "name:zh": "nan", "name:zh-Hans": "nan", "name:zh-Hant": "nan", "website": "nan", "name_1": "nan", "name_2": "nan", "name_3": "nan", "name_4": "nan", "note": "nan", "religion": "nan", "cemetery": "nan", "start_date": "nan", "ways": "nan", "type": "nan", "wikimedia_commons": "nan", "addr:state": "nan", "denomination": "nan", "fax": "nan", "opening_hours": "nan", "phone": "nan" }, "geometry": { "type": "Polygon", "coordinates": [ [ [ -121.9849162, 47.7476088 ], [ -121.9849538, 47.7479584 ], [ -121.9857447, 47.7479474 ], [ -121.9857326, 47.7476044 ], [ -121.9849162, 47.7476088 ] ] ] } },
{ "type": "Feature", "properties": { "element_type": "way", "osmid": "825718116", "nodes": [ 7709629409, 7709629408, 7709629407, 7709629406, 7709629405, 7709629404, 7709629403, 7709629409 ], "ele": "65", "gnis:county_id": "061", "gnis:created": "09/10/1979", "gnis:feature_id": "1528382", "gnis:state_id": "53", "landuse": "cemetery", "name": "Independent Order of Odd Fellows Cemetery", "alt_name": "nan", "amenity": "nan", "wikidata": "nan", "wikipedia": "nan", "city": "nan", "addr:city": "nan", "addr:housenumber": "nan", "addr:postcode": "nan", "addr:street": "nan", "barrier": "nan", "source": "nan", "name:zh": "nan", "name:zh-Hans": "nan", "name:zh-Hant": "nan", "website": "nan", "name_1": "nan", "name_2": "nan", "name_3": "nan", "name_4": "nan", "note": "nan", "religion": "nan", "cemetery": "nan", "start_date": "nan", "ways": "nan", "type": "nan", "wikimedia_commons": "nan", "addr:state": "nan", "denomination": "nan", "fax": "nan", "opening_hours": "nan", "phone": "nan" }, "geometry": { "type": "Polygon", "coordinates": [ [ [ -121.941711, 47.8644555 ], [ -121.9416896, 47.864002 ], [ -121.9416145, 47.863993 ], [ -121.9415662, 47.8639174 ], [ -121.9415742, 47.8635161 ], [ -121.9401312, 47.8635197 ], [ -121.94015, 47.8644968 ], [ -121.941711, 47.8644555 ] ] ] } },
{ "type": "Feature", "properties": { "element_type": "way", "osmid": "825718117", "nodes": [ 7709629421, 7709629420, 7709629419, 7709629418, 7709629417, 7709629416, 7709629415, 7709629414, 7709629413, 7709629412, 7709629411, 7709629410, 7709629421 ], "ele": "66", "gnis:county_id": "061", "gnis:created": "09/10/1979", "gnis:feature_id": "1523323", "gnis:state_id": "53", "landuse": "cemetery", "name": "Monroe Memorial Park", "alt_name": "nan", "amenity": "nan", "wikidata": "nan", "wikipedia": "nan", "city": "nan", "addr:city": "nan", "addr:housenumber": "nan", "addr:postcode": "nan", "addr:street": "nan", "barrier": "nan", "source": "nan", "name:zh": "nan", "name:zh-Hans": "nan", "name:zh-Hant": "nan", "website": "nan", "name_1": "nan", "name_2": "nan", "name_3": "nan", "name_4": "nan", "note": "nan", "religion": "nan", "cemetery": "nan", "start_date": "nan", "ways": "nan", "type": "nan", "wikimedia_commons": "nan", "addr:state": "nan", "denomination": "nan", "fax": "nan", "opening_hours": "nan", "phone": "nan" }, "geometry": { "type": "Polygon", "coordinates": [ [ [ -121.9425505, 47.8633776 ], [ -121.9425479, 47.8630501 ], [ -121.9428965, 47.8630537 ], [ -121.94291, 47.8618228 ], [ -121.9424298, 47.8618156 ], [ -121.9419363, 47.8617652 ], [ -121.9411853, 47.8616194 ], [ -121.9401446, 47.8613387 ], [ -121.9401205, 47.8613657 ], [ -121.9401231, 47.8619092 ], [ -121.9401446, 47.8626812 ], [ -121.9401956, 47.8634046 ], [ -121.9425505, 47.8633776 ] ] ] } },
{ "type": "Feature", "properties": { "element_type": "way", "osmid": "53056002", "nodes": [ 671850011, 10101758590, 10101758589, 10101758588, 10101758587, 671850012, 7409415917, 671850013, 671850014, 10101758586, 671850015, 671850017, 671850018, 10101758582, 10101758581, 10101758578, 10101758577, 10101758576, 671850011 ], "ele": "60", "gnis:county_id": "033", "gnis:created": "09/10/1979", "gnis:feature_id": "1519439", "gnis:state_id": "53", "landuse": "cemetery", "name": "Fall City Cemetery", "alt_name": "nan", "amenity": "nan", "wikidata": "nan", "wikipedia": "nan", "city": "nan", "addr:city": "nan", "addr:housenumber": "nan", "addr:postcode": "nan", "addr:street": "nan", "barrier": "nan", "source": "nan", "name:zh": "nan", "name:zh-Hans": "nan", "name:zh-Hant": "nan", "website": "nan", "name_1": "nan", "name_2": "nan", "name_3": "nan", "name_4": "nan", "note": "nan", "religion": "nan", "cemetery": "nan", "start_date": "nan", "ways": "nan", "type": "nan", "wikimedia_commons": "nan", "addr:state": "nan", "denomination": "nan", "fax": "nan", "opening_hours": "nan", "phone": "nan" }, "geometry": { "type": "Polygon", "coordinates": [ [ [ -121.8905682, 47.5615526 ], [ -121.8902929, 47.5626689 ], [ -121.8906731, 47.5626645 ], [ -121.8908972, 47.5624887 ], [ -121.8916399, 47.5615482 ], [ -121.8917942, 47.5615475 ], [ -121.8919357, 47.5614342 ], [ -121.8925536, 47.5609707 ], [ -121.8928615, 47.5606521 ], [ -121.8930246, 47.5603622 ], [ -121.8927752, 47.560366 ], [ -121.8927571, 47.559499 ], [ -121.8904119, 47.5594986 ], [ -121.8906761, 47.5598422 ], [ -121.8905823, 47.5599072 ], [ -121.890279, 47.5595079 ], [ -121.8901412, 47.5595089 ], [ -121.8905723, 47.5603647 ], [ -121.8905682, 47.5615526 ] ] ] } },
{ "type": "Feature", "properties": { "element_type": "way", "osmid": "92446338", "nodes": [ 1073251511, 1073251329, 1073251603, 1073251554, 1073251430, 1073251385, 1073251331, 1073251631, 1073251658, 4751003855, 6141244608, 1073251511 ], "ele": "168", "gnis:county_id": "033", "gnis:created": "05/01/1992", "gnis:feature_id": "1514104", "gnis:state_id": "53", "landuse": "cemetery", "name": "Black Diamond Cemetery", "alt_name": "nan", "amenity": "nan", "wikidata": "Q4920653", "wikipedia": "nan", "city": "nan", "addr:city": "Black Diamond", "addr:housenumber": "24431", "addr:postcode": "98010", "addr:street": "Morgan Street", "barrier": "nan", "source": "nan", "name:zh": "nan", "name:zh-Hans": "nan", "name:zh-Hant": "nan", "website": "nan", "name_1": "nan", "name_2": "nan", "name_3": "nan", "name_4": "nan", "note": "nan", "religion": "nan", "cemetery": "nan", "start_date": "nan", "ways": "nan", "type": "nan", "wikimedia_commons": "nan", "addr:state": "nan", "denomination": "nan", "fax": "nan", "opening_hours": "nan", "phone": "nan" }, "geometry": { "type": "Polygon", "coordinates": [ [ [ -122.0173335, 47.3116419 ], [ -122.0173563, 47.31031 ], [ -122.0172423, 47.3101915 ], [ -122.0169383, 47.3100936 ], [ -122.0164482, 47.3100807 ], [ -122.0161594, 47.3101116 ], [ -122.0160568, 47.3102121 ], [ -122.0159808, 47.3112735 ], [ -122.016129, 47.3113173 ], [ -122.016966, 47.3115195 ], [ -122.0170143, 47.3115312 ], [ -122.0173335, 47.3116419 ] ] ] } },
{ "type": "Feature", "properties": { "element_type": "way", "osmid": "164773440", "nodes": [ 1763781365, 11240248731, 1763781569, 1763781568, 1763781539, 1763781538, 1763781216, 1763744799, 2146130008, 1763781364, 1763781365 ], "ele": "nan", "gnis:county_id": "nan", "gnis:created": "nan", "gnis:feature_id": "nan", "gnis:state_id": "nan", "landuse": "cemetery", "name": "Tahoma National Cemetery", "alt_name": "nan", "amenity": "nan", "wikidata": "Q7675630", "wikipedia": "nan", "city": "nan", "addr:city": "Kent", "addr:housenumber": "18600", "addr:postcode": "98042", "addr:street": "SE 240th Street", "barrier": "nan", "source": "nan", "name:zh": "nan", "name:zh-Hans": "nan", "name:zh-Hant": "nan", "website": "https://www.cem.va.gov/CEM/cems/nchp/tahoma.asp", "name_1": "nan", "name_2": "nan", "name_3": "nan", "name_4": "nan", "note": "nan", "religion": "nan", "cemetery": "nan", "start_date": "nan", "ways": "nan", "type": "nan", "wikimedia_commons": "nan", "addr:state": "WA", "denomination": "nan", "fax": "+1-425-413-9618", "opening_hours": "Mo-Su 06:00-sunset", "phone": "+1-425-413-9614" }, "geometry": { "type": "Polygon", "coordinates": [ [ [ -122.1012741, 47.390583 ], [ -122.1012051, 47.3967057 ], [ -122.1011946, 47.3976904 ], [ -122.0961111, 47.3976644 ], [ -122.0961475, 47.3944076 ], [ -122.0910704, 47.3943815 ], [ -122.0911519, 47.3870973 ], [ -122.0963852, 47.3871242 ], [ -122.0963837, 47.3872579 ], [ -122.0963468, 47.3905577 ], [ -122.1012741, 47.390583 ] ] ] } },
{ "type": "Feature", "properties": { "element_type": "way", "osmid": "207104267", "nodes": [ 4725584895, 4725584896, 4725588628, 2172318638, 2172318643, 356541617, 2172318645, 2172318642, 2172318636, 4725540498, 4725540499, 2172310654, 4725584895 ], "ele": "70", "gnis:county_id": "033", "gnis:created": "08/01/1990", "gnis:feature_id": "1509782", "gnis:state_id": "53", "landuse": "cemetery", "name": "Hillside Cemetery", "alt_name": "nan", "amenity": "grave_yard", "wikidata": "nan", "wikipedia": "nan", "city": "nan", "addr:city": "nan", "addr:housenumber": "nan", "addr:postcode": "nan", "addr:street": "nan", "barrier": "nan", "source": "nan", "name:zh": "nan", "name:zh-Hans": "nan", "name:zh-Hant": "nan", "website": "nan", "name_1": "nan", "name_2": "nan", "name_3": "nan", "name_4": "nan", "note": "nan", "religion": "nan", "cemetery": "nan", "start_date": "nan", "ways": "nan", "type": "nan", "wikimedia_commons": "nan", "addr:state": "nan", "denomination": "nan", "fax": "nan", "opening_hours": "nan", "phone": "nan" }, "geometry": { "type": "Polygon", "coordinates": [ [ [ -122.0473388, 47.5296359 ], [ -122.046741, 47.5299634 ], [ -122.0445056, 47.5300398 ], [ -122.0441045, 47.5300535 ], [ -122.044126, 47.5297492 ], [ -122.0442762, 47.5295464 ], [ -122.0461612, 47.5288404 ], [ -122.0465897, 47.5288062 ], [ -122.046945, 47.5288574 ], [ -122.0473876, 47.5289753 ], [ -122.0477849, 47.5291573 ], [ -122.0478431, 47.5293124 ], [ -122.0473388, 47.5296359 ] ] ] } },
{ "type": "Feature", "properties": { "element_type": "way", "osmid": "402960693", "nodes": [ 4053568192, 4053568193, 4053568194, 4053568195, 4053568196, 4053568197, 4053568198, 4053568192 ], "ele": "nan", "gnis:county_id": "nan", "gnis:created": "nan", "gnis:feature_id": "nan", "gnis:state_id": "nan", "landuse": "cemetery", "name": "Preston Cemetery", "alt_name": "nan", "amenity": "nan", "wikidata": "nan", "wikipedia": "nan", "city": "nan", "addr:city": "nan", "addr:housenumber": "nan", "addr:postcode": "nan", "addr:street": "nan", "barrier": "nan", "source": "nan", "name:zh": "nan", "name:zh-Hans": "nan", "name:zh-Hant": "nan", "website": "nan", "name_1": "nan", "name_2": "nan", "name_3": "nan", "name_4": "nan", "note": "nan", "religion": "nan", "cemetery": "nan", "start_date": "nan", "ways": "nan", "type": "nan", "wikimedia_commons": "nan", "addr:state": "nan", "denomination": "nan", "fax": "nan", "opening_hours": "nan", "phone": "nan" }, "geometry": { "type": "Polygon", "coordinates": [ [ [ -121.9312835, 47.5269876 ], [ -121.9304589, 47.5269781 ], [ -121.9304005, 47.5269673 ], [ -121.9303545, 47.5269339 ], [ -121.9303332, 47.5268909 ], [ -121.9303651, 47.5262181 ], [ -121.9312959, 47.5262396 ], [ -121.9312835, 47.5269876 ] ] ] } },
{ "type": "Feature", "properties": { "element_type": "way", "osmid": "428776366", "nodes": [ 4278682791, 4278682792, 4278679977, 4278679976, 4278679982, 4278682791 ], "ele": "nan", "gnis:county_id": "nan", "gnis:created": "nan", "gnis:feature_id": "nan", "gnis:state_id": "nan", "landuse": "cemetery", "name": "Meridian Cemetery", "alt_name": "nan", "amenity": "nan", "wikidata": "nan", "wikipedia": "nan", "city": "nan", "addr:city": "nan", "addr:housenumber": "nan", "addr:postcode": "nan", "addr:street": "nan", "barrier": "nan", "source": "nan", "name:zh": "nan", "name:zh-Hans": "nan", "name:zh-Hant": "nan", "website": "nan", "name_1": "nan", "name_2": "nan", "name_3": "nan", "name_4": "nan", "note": "nan", "religion": "nan", "cemetery": "nan", "start_date": "nan", "ways": "nan", "type": "nan", "wikimedia_commons": "nan", "addr:state": "nan", "denomination": "nan", "fax": "nan", "opening_hours": "nan", "phone": "nan" }, "geometry": { "type": "Polygon", "coordinates": [ [ [ -122.1338107, 47.3571483 ], [ -122.134905, 47.3571578 ], [ -122.1349268, 47.3560046 ], [ -122.1336846, 47.3559922 ], [ -122.1336678, 47.3568005 ], [ -122.1338107, 47.3571483 ] ] ] } },
{ "type": "Feature", "properties": { "element_type": "way", "osmid": "479463788", "nodes": [ 4725584902, 4725584910, 4725584897, 4725584898, 4725584899, 4725584900, 4725584901, 4725584903, 4725584902 ], "ele": "nan", "gnis:county_id": "nan", "gnis:created": "nan", "gnis:feature_id": "nan", "gnis:state_id": "nan", "landuse": "cemetery", "name": "Hillside Cemetery", "alt_name": "nan", "amenity": "nan", "wikidata": "nan", "wikipedia": "nan", "city": "nan", "addr:city": "nan", "addr:housenumber": "nan", "addr:postcode": "nan", "addr:street": "nan", "barrier": "nan", "source": "nan", "name:zh": "nan", "name:zh-Hans": "nan", "name:zh-Hant": "nan", "website": "nan", "name_1": "nan", "name_2": "nan", "name_3": "nan", "name_4": "nan", "note": "nan", "religion": "nan", "cemetery": "nan", "start_date": "nan", "ways": "nan", "type": "nan", "wikimedia_commons": "nan", "addr:state": "nan", "denomination": "nan", "fax": "nan", "opening_hours": "nan", "phone": "nan" }, "geometry": { "type": "Polygon", "coordinates": [ [ [ -122.0525394, 47.5282556 ], [ -122.0524924, 47.5299419 ], [ -122.051848, 47.5299436 ], [ -122.0518007, 47.5293048 ], [ -122.0515035, 47.5290831 ], [ -122.0513055, 47.528594 ], [ -122.0515513, 47.5282428 ], [ -122.0520611, 47.528152 ], [ -122.0525394, 47.5282556 ] ] ] } },
{ "type": "Feature", "properties": { "element_type": "way", "osmid": "495040433", "nodes": [ 1863713284, 4868257279, 4868257280, 5417151909, 1863713292, 1863713294, 1863713290, 1863713284 ], "ele": "nan", "gnis:county_id": "nan", "gnis:created": "nan", "gnis:feature_id": "nan", "gnis:state_id": "nan", "landuse": "cemetery", "name": "American Moslem Foundation House of Mercy", "alt_name": "nan", "amenity": "nan", "wikidata": "nan", "wikipedia": "nan", "city": "nan", "addr:city": "nan", "addr:housenumber": "nan", "addr:postcode": "nan", "addr:street": "nan", "barrier": "nan", "source": "nan", "name:zh": "nan", "name:zh-Hans": "nan", "name:zh-Hant": "nan", "website": "http://americanmoslemfdtn.org/", "name_1": "nan", "name_2": "nan", "name_3": "nan", "name_4": "nan", "note": "nan", "religion": "muslim", "cemetery": "nan", "start_date": "nan", "ways": "nan", "type": "nan", "wikimedia_commons": "nan", "addr:state": "nan", "denomination": "nan", "fax": "nan", "opening_hours": "nan", "phone": "nan" }, "geometry": { "type": "Polygon", "coordinates": [ [ [ -122.1424485, 47.3724801 ], [ -122.1412921, 47.372499 ], [ -122.1412757, 47.3751541 ], [ -122.1418412, 47.3751616 ], [ -122.1424415, 47.3751695 ], [ -122.1426249, 47.3751695 ], [ -122.1426672, 47.3727189 ], [ -122.1424485, 47.3724801 ] ] ] } },
{ "type": "Feature", "properties": { "element_type": "way", "osmid": "511524941", "nodes": [ 5003367308, 356541713, 5003367306, 5003367307, 5003367308 ], "ele": "160", "gnis:county_id": "033", "gnis:created": "09/01/1990", "gnis:feature_id": "1510056", "gnis:state_id": "53", "landuse": "cemetery", "name": "Maple Valley Hobart Cemetery", "alt_name": "nan", "amenity": "grave_yard", "wikidata": "nan", "wikipedia": "nan", "city": "nan", "addr:city": "nan", "addr:housenumber": "nan", "addr:postcode": "nan", "addr:street": "nan", "barrier": "nan", "source": "nan", "name:zh": "nan", "name:zh-Hans": "nan", "name:zh-Hant": "nan", "website": "nan", "name_1": "nan", "name_2": "nan", "name_3": "nan", "name_4": "nan", "note": "nan", "religion": "nan", "cemetery": "nan", "start_date": "nan", "ways": "nan", "type": "nan", "wikimedia_commons": "nan", "addr:state": "nan", "denomination": "nan", "fax": "nan", "opening_hours": "nan", "phone": "nan" }, "geometry": { "type": "Polygon", "coordinates": [ [ [ -122.0062181, 47.4153657 ], [ -122.0051455, 47.4153567 ], [ -122.005167, 47.4141896 ], [ -122.0062396, 47.4141986 ], [ -122.0062181, 47.4153657 ] ] ] } },
{ "type": "Feature", "properties": { "element_type": "way", "osmid": "238271081", "nodes": [ 2461170764, 2461170730, 2461170736, 2461170689, 2461170735, 2461170723, 2461170750, 2461170733, 2461170729, 2461170718, 2461170754, 2461170755, 2461170748, 2461170764 ], "ele": "nan", "gnis:county_id": "nan", "gnis:created": "nan", "gnis:feature_id": "nan", "gnis:state_id": "nan", "landuse": "cemetery", "name": "Carbonado Cemetary", "alt_name": "nan", "amenity": "nan", "wikidata": "nan", "wikipedia": "nan", "city": "nan", "addr:city": "nan", "addr:housenumber": "nan", "addr:postcode": "nan", "addr:street": "nan", "barrier": "nan", "source": "nan", "name:zh": "nan", "name:zh-Hans": "nan", "name:zh-Hant": "nan", "website": "nan", "name_1": "nan", "name_2": "nan", "name_3": "nan", "name_4": "nan", "note": "nan", "religion": "nan", "cemetery": "nan", "start_date": "nan", "ways": "nan", "type": "nan", "wikimedia_commons": "nan", "addr:state": "nan", "denomination": "nan", "fax": "nan", "opening_hours": "nan", "phone": "nan" }, "geometry": { "type": "Polygon", "coordinates": [ [ [ -122.0594303, 47.0819849 ], [ -122.0599437, 47.0818362 ], [ -122.0602076, 47.0823001 ], [ -122.0603797, 47.0827447 ], [ -122.0604446, 47.0831897 ], [ -122.0604607, 47.0834125 ], [ -122.0602992, 47.0834169 ], [ -122.0603908, 47.0837449 ], [ -122.0599639, 47.0837858 ], [ -122.0598758, 47.0831842 ], [ -122.0598298, 47.0828397 ], [ -122.0598034, 47.0826874 ], [ -122.0597017, 47.0824274 ], [ -122.0594303, 47.0819849 ] ] ] } },
{ "type": "Feature", "properties": { "element_type": "way", "osmid": "238273290", "nodes": [ 2461195952, 2461195822, 2461195897, 2461195816, 2461195818, 2461196016, 2461195895, 2461195952 ], "ele": "nan", "gnis:county_id": "nan", "gnis:created": "nan", "gnis:feature_id": "nan", "gnis:state_id": "nan", "landuse": "cemetery", "name": "nan", "alt_name": "nan", "amenity": "nan", "wikidata": "nan", "wikipedia": "nan", "city": "nan", "addr:city": "nan", "addr:housenumber": "nan", "addr:postcode": "nan", "addr:street": "nan", "barrier": "nan", "source": "nan", "name:zh": "nan", "name:zh-Hans": "nan", "name:zh-Hant": "nan", "website": "nan", "name_1": "nan", "name_2": "nan", "name_3": "nan", "name_4": "nan", "note": "nan", "religion": "nan", "cemetery": "nan", "start_date": "nan", "ways": "nan", "type": "nan", "wikimedia_commons": "nan", "addr:state": "nan", "denomination": "nan", "fax": "nan", "opening_hours": "nan", "phone": "nan" }, "geometry": { "type": "Polygon", "coordinates": [ [ [ -122.0579236, 47.1137691 ], [ -122.0579338, 47.1135394 ], [ -122.0564747, 47.1127253 ], [ -122.0563347, 47.112867 ], [ -122.0562011, 47.1129626 ], [ -122.05553, 47.1129619 ], [ -122.0555622, 47.1137687 ], [ -122.0579236, 47.1137691 ] ] ] } },
{ "type": "Feature", "properties": { "element_type": "way", "osmid": "238273292", "nodes": [ 2461195912, 2461195888, 2461196058, 2461195923, 2461195944, 2461195845, 2461195817, 2461195912 ], "ele": "nan", "gnis:county_id": "nan", "gnis:created": "nan", "gnis:feature_id": "nan", "gnis:state_id": "nan", "landuse": "cemetery", "name": "nan", "alt_name": "nan", "amenity": "nan", "wikidata": "nan", "wikipedia": "nan", "city": "nan", "addr:city": "nan", "addr:housenumber": "nan", "addr:postcode": "nan", "addr:street": "nan", "barrier": "nan", "source": "nan", "name:zh": "nan", "name:zh-Hans": "nan", "name:zh-Hant": "nan", "website": "nan", "name_1": "nan", "name_2": "nan", "name_3": "nan", "name_4": "nan", "note": "nan", "religion": "nan", "cemetery": "nan", "start_date": "nan", "ways": "nan", "type": "nan", "wikimedia_commons": "nan", "addr:state": "nan", "denomination": "nan", "fax": "nan", "opening_hours": "nan", "phone": "nan" }, "geometry": { "type": "Polygon", "coordinates": [ [ [ -122.0550317, 47.1119842 ], [ -122.0537764, 47.1119659 ], [ -122.0536637, 47.1118455 ], [ -122.0531111, 47.1115567 ], [ -122.0535511, 47.1111481 ], [ -122.0543981, 47.1115928 ], [ -122.054919, 47.1119002 ], [ -122.0550317, 47.1119842 ] ] ] } },
{ "type": "Feature", "properties": { "element_type": "way", "osmid": "270649548", "nodes": [ 2756636161, 2756636265, 2756636079, 2756636120, 2756636222, 2756636243, 2756636114, 2756636259, 2756636119, 2756636099, 2756636068, 2756636271, 2756636316, 2756636238, 2756636283, 2756636277, 2756636263, 2756636232, 2756636177, 2756636320, 2756636315, 2756636156, 2756636273, 2756636104, 2756636295, 2756636147, 2756636302, 2756636161 ], "ele": "nan", "gnis:county_id": "nan", "gnis:created": "nan", "gnis:feature_id": "nan", "gnis:state_id": "nan", "landuse": "cemetery", "name": "Buckley Cemetery", "alt_name": "nan", "amenity": "nan", "wikidata": "nan", "wikipedia": "nan", "city": "nan", "addr:city": "nan", "addr:housenumber": "nan", "addr:postcode": "nan", "addr:street": "nan", "barrier": "nan", "source": "nan", "name:zh": "nan", "name:zh-Hans": "nan", "name:zh-Hant": "nan", "website": "nan", "name_1": "nan", "name_2": "nan", "name_3": "nan", "name_4": "nan", "note": "nan", "religion": "nan", "cemetery": "nan", "start_date": "nan", "ways": "nan", "type": "nan", "wikimedia_commons": "nan", "addr:state": "nan", "denomination": "nan", "fax": "nan", "opening_hours": "nan", "phone": "nan" }, "geometry": { "type": "Polygon", "coordinates": [ [ [ -122.0247014, 47.1712759 ], [ -122.0244085, 47.1713696 ], [ -122.0228287, 47.1718426 ], [ -122.0225926, 47.1718536 ], [ -122.0221664, 47.1718085 ], [ -122.0219696, 47.1716971 ], [ -122.0219232, 47.1715877 ], [ -122.0220396, 47.1712491 ], [ -122.0221895, 47.1709532 ], [ -122.0223236, 47.1706095 ], [ -122.0227084, 47.1701853 ], [ -122.0242694, 47.1687101 ], [ -122.0243472, 47.168659 ], [ -122.0243713, 47.1686098 ], [ -122.0243821, 47.1684986 ], [ -122.0243928, 47.1683709 ], [ -122.0244143, 47.1683162 ], [ -122.0245215, 47.1682086 ], [ -122.0257098, 47.1671163 ], [ -122.0258519, 47.1671911 ], [ -122.0260263, 47.1673042 ], [ -122.0261309, 47.1673534 ], [ -122.0259485, 47.1677035 ], [ -122.0257839, 47.1680446 ], [ -122.0256373, 47.168349 ], [ -122.0253396, 47.1689854 ], [ -122.024953, 47.1700302 ], [ -122.0247014, 47.1712759 ] ] ] } },
{ "type": "Feature", "properties": { "element_type": "way", "osmid": "469843815", "nodes": [ 4641174706, 4641171310, 4641171307, 4641171308, 4641174706 ], "ele": "nan", "gnis:county_id": "nan", "gnis:created": "nan", "gnis:feature_id": "nan", "gnis:state_id": "nan", "landuse": "cemetery", "name": "Franklin Cemetary", "alt_name": "nan", "amenity": "nan", "wikidata": "nan", "wikipedia": "nan", "city": "nan", "addr:city": "nan", "addr:housenumber": "nan", "addr:postcode": "nan", "addr:street": "nan", "barrier": "nan", "source": "nan", "name:zh": "nan", "name:zh-Hans": "nan", "name:zh-Hant": "nan", "website": "nan", "name_1": "nan", "name_2": "nan", "name_3": "nan", "name_4": "nan", "note": "nan", "religion": "christian", "cemetery": "nan", "start_date": "nan", "ways": "nan", "type": "nan", "wikimedia_commons": "nan", "addr:state": "nan", "denomination": "nan", "fax": "nan", "opening_hours": "nan", "phone": "nan" }, "geometry": { "type": "Polygon", "coordinates": [ [ [ -121.9680936, 47.2932728 ], [ -121.9677793, 47.2932742 ], [ -121.967707, 47.2932769 ], [ -121.9682354, 47.292947 ], [ -121.9680936, 47.2932728 ] ] ] } },
{ "type": "Feature", "properties": { "element_type": "way", "osmid": "604130125", "nodes": [ 5733237976, 5733237978, 5733237977, 5733237980, 7713361626, 7713361625, 7713361624, 7713361623, 5733237981, 5733237982, 7713361622, 7713361621, 5733237976 ], "ele": "200", "gnis:county_id": "033", "gnis:created": "09/10/1979", "gnis:feature_id": "1520874", "gnis:state_id": "53", "landuse": "cemetery", "name": "Enumclaw Evergreen Memorial Park", "alt_name": "Holy Cross Cemetery", "amenity": "nan", "wikidata": "nan", "wikipedia": "nan", "city": "nan", "addr:city": "nan", "addr:housenumber": "nan", "addr:postcode": "nan", "addr:street": "nan", "barrier": "nan", "source": "nan", "name:zh": "nan", "name:zh-Hans": "nan", "name:zh-Hant": "nan", "website": "nan", "name_1": "nan", "name_2": "nan", "name_3": "nan", "name_4": "nan", "note": "nan", "religion": "nan", "cemetery": "nan", "start_date": "nan", "ways": "nan", "type": "nan", "wikimedia_commons": "nan", "addr:state": "nan", "denomination": "nan", "fax": "nan", "opening_hours": "nan", "phone": "nan" }, "geometry": { "type": "Polygon", "coordinates": [ [ [ -122.023159, 47.2264338 ], [ -122.0231375, 47.2255959 ], [ -122.0267451, 47.225574 ], [ -122.0267424, 47.2282225 ], [ -122.0266995, 47.2282844 ], [ -122.0242131, 47.2282862 ], [ -122.0236525, 47.2282589 ], [ -122.0231643, 47.2282334 ], [ -122.0216945, 47.2282261 ], [ -122.0217052, 47.2265194 ], [ -122.0217374, 47.2264811 ], [ -122.0218179, 47.2264647 ], [ -122.023159, 47.2264338 ] ] ] } },
{ "type": "Feature", "properties": { "element_type": "way", "osmid": "775107441", "nodes": [ 356545498, 7231350550, 7231350551, 7231350552, 356545498 ], "ele": "215", "gnis:county_id": "033", "gnis:created": "09/10/1979", "gnis:feature_id": "1521770", "gnis:state_id": "53", "landuse": "cemetery", "name": "Krain Cemetery", "alt_name": "nan", "amenity": "grave_yard", "wikidata": "nan", "wikipedia": "nan", "city": "nan", "addr:city": "nan", "addr:housenumber": "nan", "addr:postcode": "nan", "addr:street": "nan", "barrier": "nan", "source": "nan", "name:zh": "nan", "name:zh-Hans": "nan", "name:zh-Hant": "nan", "website": "nan", "name_1": "nan", "name_2": "nan", "name_3": "nan", "name_4": "nan", "note": "nan", "religion": "nan", "cemetery": "nan", "start_date": "nan", "ways": "nan", "type": "nan", "wikimedia_commons": "nan", "addr:state": "nan", "denomination": "nan", "fax": "nan", "opening_hours": "nan", "phone": "nan" }, "geometry": { "type": "Polygon", "coordinates": [ [ [ -122.0024943, 47.2433888 ], [ -122.0013092, 47.2433964 ], [ -122.0013019, 47.242872 ], [ -122.002487, 47.2428644 ], [ -122.0024943, 47.2433888 ] ] ] } }
]
}
