{
"type": "FeatureCollection",
"crs": { "type": "name", "properties": { "name": "urn:ogc:def:crs:OGC:1.3:CRS84" } },
"features": [
{ "type": "Feature", "properties": { "element_type": "node", "osmid": "358595813", "amenity": "university", "ele": "299", "gnis:county_id": "067", "gnis:created": "09/20/1979", "gnis:feature_id": "496350", "gnis:state_id": "21", "name": "Lexington Theological Seminary", "operator": "nan", "nodes": "nan", "wikidata": "nan", "addr:city": "nan", "addr:housenumber": "nan", "addr:state": "nan", "addr:street": "nan", "building": "nan", "addr:postcode": "nan", "wheelchair": "nan", "atm": "nan", "internet_access": "nan", "building:levels": "nan", "addr:housename": "nan", "internet_access:fee": "nan", "source": "nan", "levels": "nan", "landuse": "nan", "phone": "nan", "website": "nan", "wikipedia": "nan", "ways": "nan", "type": "nan" }, "geometry": { "type": "Point", "coordinates": [ -84.5087797, 38.0372094 ] } },
{ "type": "Feature", "properties": { "element_type": "node", "osmid": "2512319934", "amenity": "university", "ele": "nan", "gnis:county_id": "nan", "gnis:created": "nan", "gnis:feature_id": "nan", "gnis:state_id": "nan", "name": "CATS Center", "operator": "nan", "nodes": "nan", "wikidata": "nan", "addr:city": "nan", "addr:housenumber": "nan", "addr:state": "nan", "addr:street": "nan", "building": "nan", "addr:postcode": "nan", "wheelchair": "nan", "atm": "nan", "internet_access": "nan", "building:levels": "nan", "addr:housename": "nan", "internet_access:fee": "nan", "source": "nan", "levels": "nan", "landuse": "nan", "phone": "nan", "website": "nan", "wikipedia": "nan", "ways": "nan", "type": "nan" }, "geometry": { "type": "Point", "coordinates": [ -84.5002891, 38.0389027 ] } },
{ "type": "Feature", "properties": { "element_type": "node", "osmid": "2685496526", "amenity": "university", "ele": "nan", "gnis:county_id": "nan", "gnis:created": "nan", "gnis:feature_id": "nan", "gnis:state_id": "nan", "name": "Gaines Center for the Humanities", "operator": "University of Kentucky", "nodes": "nan", "wikidata": "nan", "addr:city": "nan", "addr:housenumber": "nan", "addr:state": "nan", "addr:street": "nan", "building": "nan", "addr:postcode": "nan", "wheelchair": "nan", "atm": "nan", "internet_access": "nan", "building:levels": "nan", "addr:housename": "nan", "internet_access:fee": "nan", "source": "nan", "levels": "nan", "landuse": "nan", "phone": "nan", "website": "nan", "wikipedia": "nan", "ways": "nan", "type": "nan" }, "geometry": { "type": "Point", "coordinates": [ -84.4987618, 38.0406118 ] } },
{ "type": "Feature", "properties": { "element_type": "node", "osmid": "3160526865", "amenity": "university", "ele": "nan", "gnis:county_id": "nan", "gnis:created": "nan", "gnis:feature_id": "nan", "gnis:state_id": "nan", "name": "Main Entrance at the University of Kentucky", "operator": "nan", "nodes": "nan", "wikidata": "nan", "addr:city": "nan", "addr:housenumber": "nan", "addr:state": "nan", "addr:street": "nan", "building": "nan", "addr:postcode": "nan", "wheelchair": "nan", "atm": "nan", "internet_access": "nan", "building:levels": "nan", "addr:housename": "nan", "internet_access:fee": "nan", "source": "nan", "levels": "nan", "landuse": "nan", "phone": "nan", "website": "nan", "wikipedia": "nan", "ways": "nan", "type": "nan" }, "geometry": { "type": "Point", "coordinates": [ -84.5064246, 38.0390011 ] } },
{ "type": "Feature", "properties": { "element_type": "node", "osmid": "10288055652", "amenity": "university", "ele": "nan", "gnis:county_id": "nan", "gnis:created": "nan", "gnis:feature_id": "nan", "gnis:state_id": "nan", "name": "Frontier Nursing University", "operator": "nan", "nodes": "nan", "wikidata": "nan", "addr:city": "nan", "addr:housenumber": "nan", "addr:state": "nan", "addr:street": "nan", "building": "nan", "addr:postcode": "nan", "wheelchair": "nan", "atm": "nan", "internet_access": "nan", "building:levels": "nan", "addr:housename": "nan", "internet_access:fee": "nan", "source": "nan", "levels": "nan", "landuse": "nan", "phone": "nan", "website": "nan", "wikipedia": "nan", "ways": "nan", "type": "nan" }, "geometry": { "type": "Point", "coordinates": [ -84.6930969, 38.0515434 ] } },
{ "type": "Feature", "properties": { "element_type": "way", "osmid": "45035589", "amenity": "university", "ele": "nan", "gnis:county_id": "nan", "gnis:created": "nan", "gnis:feature_id": "nan", "gnis:state_id": "nan", "name": "Transylvania University", "operator": "nan", "nodes": [ 571140704, 571140705, 2819389483, 1736017078, 571140706, 571140708, 2685514056, 2685514053, 571140709, 163434844, 4083565800, 7028739511, 163488517, 4053599280, 571140711, 571140712, 571140713, 571140714, 571140704 ], "wikidata": "Q956056", "addr:city": "nan", "addr:housenumber": "nan", "addr:state": "nan", "addr:street": "nan", "building": "nan", "addr:postcode": "nan", "wheelchair": "nan", "atm": "nan", "internet_access": "nan", "building:levels": "nan", "addr:housename": "nan", "internet_access:fee": "nan", "source": "nan", "levels": "nan", "landuse": "nan", "phone": "nan", "website": "nan", "wikipedia": "nan", "ways": "nan", "type": "nan" }, "geometry": { "type": "Polygon", "coordinates": [ [ [ -84.4925514, 38.0495256 ], [ -84.495408, 38.0520894 ], [ -84.494727, 38.052572 ], [ -84.4946751, 38.0526088 ], [ -84.4945922, 38.0526675 ], [ -84.4963803, 38.0542162 ], [ -84.4955211, 38.0548172 ], [ -84.4951609, 38.0550704 ], [ -84.4930221, 38.0565652 ], [ -84.4912776, 38.0549794 ], [ -84.4913285, 38.0549442 ], [ -84.4918624, 38.0545754 ], [ -84.4923779, 38.0542193 ], [ -84.4932846, 38.0535928 ], [ -84.4933533, 38.0535465 ], [ -84.4913861, 38.0517401 ], [ -84.492402, 38.0510262 ], [ -84.4915413, 38.0502442 ], [ -84.4925514, 38.0495256 ] ] ] } },
{ "type": "Feature", "properties": { "element_type": "way", "osmid": "130063558", "amenity": "university", "ele": "nan", "gnis:county_id": "nan", "gnis:created": "nan", "gnis:feature_id": "nan", "gnis:state_id": "nan", "name": "Frazee Hall", "operator": "nan", "nodes": [ 4047412350, 4047412351, 4047412346, 4047412345, 1433669419, 1433669420, 4047412341, 4047412340, 4047412342, 4047412343, 4047412344, 1433669421, 4047412347, 4047412348, 4047412352, 4047412349, 1433669418, 4047412350 ], "wikidata": "nan", "addr:city": "Lexington", "addr:housenumber": "406", "addr:state": "KY", "addr:street": "Administration Drive", "building": "yes", "addr:postcode": "nan", "wheelchair": "nan", "atm": "nan", "internet_access": "nan", "building:levels": "nan", "addr:housename": "nan", "internet_access:fee": "nan", "source": "nan", "levels": "nan", "landuse": "nan", "phone": "nan", "website": "nan", "wikipedia": "nan", "ways": "nan", "type": "nan" }, "geometry": { "type": "Polygon", "coordinates": [ [ [ -84.5040849, 38.0401498 ], [ -84.5040806, 38.040153 ], [ -84.5040253, 38.0401054 ], [ -84.5040276, 38.0401036 ], [ -84.5039863, 38.040068 ], [ -84.5041779, 38.0399288 ], [ -84.5042243, 38.0399687 ], [ -84.5042306, 38.0399641 ], [ -84.5042565, 38.0399864 ], [ -84.5042826, 38.0400088 ], [ -84.5042766, 38.0400132 ], [ -84.504331, 38.0400601 ], [ -84.5042646, 38.0401083 ], [ -84.5042696, 38.0401126 ], [ -84.5042133, 38.0401534 ], [ -84.504205, 38.0401463 ], [ -84.5041377, 38.0401952 ], [ -84.5040849, 38.0401498 ] ] ] } },
{ "type": "Feature", "properties": { "element_type": "way", "osmid": "130666276", "amenity": "university", "ele": "nan", "gnis:county_id": "nan", "gnis:created": "nan", "gnis:feature_id": "nan", "gnis:state_id": "nan", "name": "Hager Administration Building", "operator": "Asbury University", "nodes": [ 1438440609, 4376096927, 1438440621, 1438440619, 1438440605, 5098516969, 1438440606, 1438440607, 1438440624, 1438440617, 1438440622, 1438440604, 1438440620, 1438440618, 1438440609 ], "wikidata": "nan", "addr:city": "Wilmore", "addr:housenumber": "1", "addr:state": "KY", "addr:street": "Macklem Drive", "building": "yes", "addr:postcode": "40390", "wheelchair": "no", "atm": "nan", "internet_access": "nan", "building:levels": "nan", "addr:housename": "nan", "internet_access:fee": "nan", "source": "nan", "levels": "nan", "landuse": "nan", "phone": "nan", "website": "nan", "wikipedia": "nan", "ways": "nan", "type": "nan" }, "geometry": { "type": "Polygon", "coordinates": [ [ [ -84.6619053, 37.8634166 ], [ -84.661814, 37.8633547 ], [ -84.661731, 37.8632959 ], [ -84.66179, 37.8632515 ], [ -84.6617548, 37.8632278 ], [ -84.6618113, 37.86318 ], [ -84.6618946, 37.8631096 ], [ -84.6619348, 37.8631413 ], [ -84.6619858, 37.863099 ], [ -84.6621414, 37.8632176 ], [ -84.6620713, 37.8632765 ], [ -84.6621521, 37.8633404 ], [ -84.6620555, 37.8634314 ], [ -84.6619697, 37.8633658 ], [ -84.6619053, 37.8634166 ] ] ] } },
{ "type": "Feature", "properties": { "element_type": "way", "osmid": "130666510", "amenity": "university", "ele": "nan", "gnis:county_id": "nan", "gnis:created": "nan", "gnis:feature_id": "nan", "gnis:state_id": "nan", "name": "Z. T. Johnson Cafeteria", "operator": "Asbury University", "nodes": [ 1438444116, 1438444132, 1438444121, 5098516980, 1438444143, 1438444137, 1438444134, 1438444118, 1438444146, 1438444129, 1438444140, 1438444123, 1438444128, 1438444116 ], "wikidata": "nan", "addr:city": "nan", "addr:housenumber": "nan", "addr:state": "nan", "addr:street": "nan", "building": "yes", "addr:postcode": "nan", "wheelchair": "nan", "atm": "nan", "internet_access": "nan", "building:levels": "nan", "addr:housename": "nan", "internet_access:fee": "nan", "source": "nan", "levels": "nan", "landuse": "nan", "phone": "nan", "website": "nan", "wikipedia": "nan", "ways": "nan", "type": "nan" }, "geometry": { "type": "Polygon", "coordinates": [ [ [ -84.6618813, 37.8636525 ], [ -84.6621897, 37.8636313 ], [ -84.6622166, 37.8635509 ], [ -84.6623321, 37.8635732 ], [ -84.662458, 37.8635974 ], [ -84.6624365, 37.8636864 ], [ -84.6626725, 37.8638092 ], [ -84.6625677, 37.8639508 ], [ -84.6623882, 37.8638579 ], [ -84.6623373, 37.8640379 ], [ -84.6620905, 37.8639892 ], [ -84.6621415, 37.8638113 ], [ -84.6619001, 37.863824 ], [ -84.6618813, 37.8636525 ] ] ] } },
{ "type": "Feature", "properties": { "element_type": "way", "osmid": "130666537", "amenity": "university", "ele": "nan", "gnis:county_id": "nan", "gnis:created": "nan", "gnis:feature_id": "nan", "gnis:state_id": "nan", "name": "Hughes Memorial Auditorium", "operator": "Asbury University", "nodes": [ 1438445314, 1438449533, 1438445319, 1438445320, 1438445318, 4609217795, 2338537214, 2338537207, 4395012928, 2338537234, 2338537239, 1438445314 ], "wikidata": "nan", "addr:city": "nan", "addr:housenumber": "nan", "addr:state": "nan", "addr:street": "nan", "building": "yes", "addr:postcode": "nan", "wheelchair": "nan", "atm": "nan", "internet_access": "nan", "building:levels": "nan", "addr:housename": "nan", "internet_access:fee": "nan", "source": "nan", "levels": "nan", "landuse": "nan", "phone": "nan", "website": "nan", "wikipedia": "nan", "ways": "nan", "type": "nan" }, "geometry": { "type": "Polygon", "coordinates": [ [ [ -84.6624342, 37.8626045 ], [ -84.6627152, 37.8627586 ], [ -84.6628757, 37.8628466 ], [ -84.6630494, 37.8626492 ], [ -84.6626087, 37.8624076 ], [ -84.6625962, 37.8624218 ], [ -84.6625709, 37.8624506 ], [ -84.6625363, 37.8624316 ], [ -84.662487, 37.8624877 ], [ -84.6624296, 37.8625529 ], [ -84.6624634, 37.8625714 ], [ -84.6624342, 37.8626045 ] ] ] } },
{ "type": "Feature", "properties": { "element_type": "way", "osmid": "130666582", "amenity": "university", "ele": "nan", "gnis:county_id": "nan", "gnis:created": "nan", "gnis:feature_id": "nan", "gnis:state_id": "nan", "name": "Morrison Hall", "operator": "Asbury University", "nodes": [ 1438448052, 2338537278, 2338537274, 5098516971, 2338537294, 2338537299, 1438448050, 2338537312, 2338537311, 2338537322, 2338537320, 2338537337, 2338537342, 1438448058, 1438448060, 1438449534, 1438448052 ], "wikidata": "nan", "addr:city": "nan", "addr:housenumber": "nan", "addr:state": "nan", "addr:street": "nan", "building": "yes", "addr:postcode": "nan", "wheelchair": "yes", "atm": "nan", "internet_access": "nan", "building:levels": "nan", "addr:housename": "nan", "internet_access:fee": "nan", "source": "nan", "levels": "nan", "landuse": "nan", "phone": "nan", "website": "nan", "wikipedia": "nan", "ways": "nan", "type": "nan" }, "geometry": { "type": "Polygon", "coordinates": [ [ [ -84.6623568, 37.8626911 ], [ -84.6623272, 37.8627232 ], [ -84.6622875, 37.8627003 ], [ -84.662242, 37.8627496 ], [ -84.6622017, 37.8627932 ], [ -84.6622434, 37.8628172 ], [ -84.6622231, 37.8628391 ], [ -84.6623101, 37.8628892 ], [ -84.662319, 37.8628796 ], [ -84.6624015, 37.8629271 ], [ -84.6624086, 37.8629193 ], [ -84.6625931, 37.8630256 ], [ -84.6625758, 37.8630444 ], [ -84.6626347, 37.8630784 ], [ -84.6627717, 37.8629302 ], [ -84.6625531, 37.8628043 ], [ -84.6623568, 37.8626911 ] ] ] } },
{ "type": "Feature", "properties": { "element_type": "way", "osmid": "130666924", "amenity": "university", "ele": "nan", "gnis:county_id": "nan", "gnis:created": "nan", "gnis:feature_id": "nan", "gnis:state_id": "nan", "name": "Reasoner Hall", "operator": "Asbury University", "nodes": [ 1438449534, 1438449533, 1438445319, 1438448060, 1438449534 ], "wikidata": "nan", "addr:city": "nan", "addr:housenumber": "nan", "addr:state": "nan", "addr:street": "nan", "building": "yes", "addr:postcode": "nan", "wheelchair": "nan", "atm": "nan", "internet_access": "nan", "building:levels": "nan", "addr:housename": "nan", "internet_access:fee": "nan", "source": "nan", "levels": "nan", "landuse": "nan", "phone": "nan", "website": "nan", "wikipedia": "nan", "ways": "nan", "type": "nan" }, "geometry": { "type": "Polygon", "coordinates": [ [ [ -84.6625531, 37.8628043 ], [ -84.6627152, 37.8627586 ], [ -84.6628757, 37.8628466 ], [ -84.6627717, 37.8629302 ], [ -84.6625531, 37.8628043 ] ] ] } },
{ "type": "Feature", "properties": { "element_type": "way", "osmid": "130667116", "amenity": "university", "ele": "nan", "gnis:county_id": "nan", "gnis:created": "nan", "gnis:feature_id": "nan", "gnis:state_id": "nan", "name": "Kinlaw Library", "operator": "Asbury University", "nodes": [ 1438449821, 1438449820, 1438449819, 4395012926, 4395012927, 2530119690, 1438449821 ], "wikidata": "nan", "addr:city": "nan", "addr:housenumber": "nan", "addr:state": "nan", "addr:street": "nan", "building": "yes", "addr:postcode": "nan", "wheelchair": "nan", "atm": "nan", "internet_access": "nan", "building:levels": "nan", "addr:housename": "nan", "internet_access:fee": "nan", "source": "nan", "levels": "nan", "landuse": "nan", "phone": "nan", "website": "nan", "wikipedia": "nan", "ways": "nan", "type": "nan" }, "geometry": { "type": "Polygon", "coordinates": [ [ [ -84.6621509, 37.8618879 ], [ -84.6624771, 37.8616164 ], [ -84.6630222, 37.8620245 ], [ -84.6628756, 37.8621465 ], [ -84.6628375, 37.8621782 ], [ -84.6626959, 37.8622961 ], [ -84.6621509, 37.8618879 ] ] ] } },
{ "type": "Feature", "properties": { "element_type": "way", "osmid": "130667216", "amenity": "university", "ele": "nan", "gnis:county_id": "nan", "gnis:created": "nan", "gnis:feature_id": "nan", "gnis:state_id": "nan", "name": "Student Center", "operator": "Asbury University", "nodes": [ 1438450391, 2338537395, 2338537393, 5098516968, 2338537373, 2338537375, 1438450390, 1438450388, 1438450396, 1438450386, 1438450394, 1438450385, 2338537439, 2338537441, 4376166888, 2338537461, 2338537458, 4384314302, 4384314305, 1438450387, 1438450392, 1438450393, 1438450389, 1438450391 ], "wikidata": "nan", "addr:city": "nan", "addr:housenumber": "nan", "addr:state": "nan", "addr:street": "nan", "building": "yes", "addr:postcode": "nan", "wheelchair": "nan", "atm": "yes", "internet_access": "yes", "building:levels": "nan", "addr:housename": "nan", "internet_access:fee": "nan", "source": "nan", "levels": "nan", "landuse": "nan", "phone": "nan", "website": "nan", "wikipedia": "nan", "ways": "nan", "type": "nan" }, "geometry": { "type": "Polygon", "coordinates": [ [ [ -84.6624882, 37.863376 ], [ -84.6625295, 37.8633378 ], [ -84.6625116, 37.8633242 ], [ -84.6625476, 37.8632871 ], [ -84.6626061, 37.863233 ], [ -84.6626233, 37.8632447 ], [ -84.6626618, 37.8632091 ], [ -84.6627881, 37.8632944 ], [ -84.6627476, 37.8633318 ], [ -84.6627977, 37.8633656 ], [ -84.6628343, 37.8633319 ], [ -84.663019, 37.8634566 ], [ -84.662993, 37.8634807 ], [ -84.663006, 37.8634895 ], [ -84.6629397, 37.8635533 ], [ -84.6628877, 37.8635986 ], [ -84.6628747, 37.8635898 ], [ -84.6628428, 37.8636193 ], [ -84.6627206, 37.8635368 ], [ -84.6626613, 37.8634967 ], [ -84.6626937, 37.8634668 ], [ -84.6626405, 37.8634309 ], [ -84.6626105, 37.8634585 ], [ -84.6624882, 37.863376 ] ] ] } },
{ "type": "Feature", "properties": { "element_type": "way", "osmid": "130669167", "amenity": "university", "ele": "nan", "gnis:county_id": "nan", "gnis:created": "nan", "gnis:feature_id": "nan", "gnis:state_id": "nan", "name": "Johnson Hall", "operator": "Asbury University", "nodes": [ 1438466305, 2355981076, 2355981082, 2355981079, 2355981065, 1438466310, 2530119810, 2530119808, 2355981085, 1438466311, 1438466312, 2355981099, 2530119807, 2530119805, 1438466302, 2355981110, 2355981102, 2355981106, 2355981113, 4609217792, 5098516972, 1438466305 ], "wikidata": "nan", "addr:city": "nan", "addr:housenumber": "nan", "addr:state": "nan", "addr:street": "nan", "building": "yes", "addr:postcode": "nan", "wheelchair": "nan", "atm": "nan", "internet_access": "nan", "building:levels": "nan", "addr:housename": "nan", "internet_access:fee": "nan", "source": "nan", "levels": "nan", "landuse": "nan", "phone": "nan", "website": "nan", "wikipedia": "nan", "ways": "nan", "type": "nan" }, "geometry": { "type": "Polygon", "coordinates": [ [ [ -84.663241, 37.8625408 ], [ -84.6633275, 37.8624425 ], [ -84.6633797, 37.8624711 ], [ -84.6633987, 37.8624495 ], [ -84.6633465, 37.8624209 ], [ -84.6635806, 37.8621548 ], [ -84.6637045, 37.8622227 ], [ -84.663474, 37.8624847 ], [ -84.6634538, 37.8624736 ], [ -84.6634365, 37.8624932 ], [ -84.6636898, 37.8626321 ], [ -84.6637044, 37.8626154 ], [ -84.6636607, 37.8625914 ], [ -84.6638963, 37.8623237 ], [ -84.6640175, 37.8623901 ], [ -84.6637852, 37.8626541 ], [ -84.6637488, 37.8626341 ], [ -84.6637343, 37.8626506 ], [ -84.6637707, 37.8626706 ], [ -84.6636753, 37.862779 ], [ -84.6634701, 37.8626665 ], [ -84.663241, 37.8625408 ] ] ] } },
{ "type": "Feature", "properties": { "element_type": "way", "osmid": "130669332", "amenity": "university", "ele": "nan", "gnis:county_id": "nan", "gnis:created": "nan", "gnis:feature_id": "nan", "gnis:state_id": "nan", "name": "Trustees Hall", "operator": "Asbury University", "nodes": [ 1438468108, 2355981119, 2355981125, 2355981122, 2355981116, 5098552325, 1438468104, 1438468107, 2355981131, 2355981128, 1438468105, 1438468106, 4384371118, 4376118924, 4384314292, 4376693612, 1438468108 ], "wikidata": "nan", "addr:city": "nan", "addr:housenumber": "nan", "addr:state": "nan", "addr:street": "nan", "building": "yes", "addr:postcode": "nan", "wheelchair": "nan", "atm": "nan", "internet_access": "wlan", "building:levels": "3", "addr:housename": "nan", "internet_access:fee": "nan", "source": "nan", "levels": "nan", "landuse": "nan", "phone": "nan", "website": "nan", "wikipedia": "nan", "ways": "nan", "type": "nan" }, "geometry": { "type": "Polygon", "coordinates": [ [ [ -84.6639472, 37.862864 ], [ -84.664036, 37.862762 ], [ -84.6640693, 37.8627801 ], [ -84.6640847, 37.8627624 ], [ -84.6640515, 37.8627443 ], [ -84.6641611, 37.8626184 ], [ -84.6642806, 37.8624813 ], [ -84.6643954, 37.8625436 ], [ -84.6641662, 37.8628066 ], [ -84.664119, 37.862781 ], [ -84.6641001, 37.8628026 ], [ -84.6644675, 37.8630021 ], [ -84.6644163, 37.8630609 ], [ -84.6643821, 37.8631002 ], [ -84.6641764, 37.8629865 ], [ -84.6641549, 37.8629746 ], [ -84.6639472, 37.862864 ] ] ] } },
{ "type": "Feature", "properties": { "element_type": "way", "osmid": "130669714", "amenity": "university", "ele": "nan", "gnis:county_id": "nan", "gnis:created": "nan", "gnis:feature_id": "nan", "gnis:state_id": "nan", "name": "Hamman-Ray Science Center", "operator": "Asbury University", "nodes": [ 1438475475, 5098516975, 5098516976, 1438475478, 1438475476, 1438475477, 1438475475 ], "wikidata": "nan", "addr:city": "nan", "addr:housenumber": "nan", "addr:state": "nan", "addr:street": "nan", "building": "yes", "addr:postcode": "nan", "wheelchair": "nan", "atm": "nan", "internet_access": "nan", "building:levels": "nan", "addr:housename": "nan", "internet_access:fee": "nan", "source": "nan", "levels": "nan", "landuse": "nan", "phone": "nan", "website": "nan", "wikipedia": "nan", "ways": "nan", "type": "nan" }, "geometry": { "type": "Polygon", "coordinates": [ [ [ -84.6646322, 37.8632294 ], [ -84.6647396, 37.8632864 ], [ -84.665046, 37.863449 ], [ -84.6651487, 37.8635035 ], [ -84.6652801, 37.8633452 ], [ -84.6647532, 37.8630799 ], [ -84.6646322, 37.8632294 ] ] ] } },
{ "type": "Feature", "properties": { "element_type": "way", "osmid": "130669737", "amenity": "university", "ele": "nan", "gnis:county_id": "nan", "gnis:created": "nan", "gnis:feature_id": "nan", "gnis:state_id": "nan", "name": "Original Asbury Building", "operator": "Asbury University", "nodes": [ 1438475905, 1438475901, 1438475903, 1438475904, 1438475905 ], "wikidata": "nan", "addr:city": "nan", "addr:housenumber": "nan", "addr:state": "nan", "addr:street": "nan", "building": "yes", "addr:postcode": "nan", "wheelchair": "nan", "atm": "nan", "internet_access": "nan", "building:levels": "2", "addr:housename": "nan", "internet_access:fee": "nan", "source": "nan", "levels": "nan", "landuse": "nan", "phone": "nan", "website": "nan", "wikipedia": "nan", "ways": "nan", "type": "nan" }, "geometry": { "type": "Polygon", "coordinates": [ [ [ -84.6639843, 37.8633359 ], [ -84.6640767, 37.8632315 ], [ -84.6641537, 37.863274 ], [ -84.6640613, 37.8633784 ], [ -84.6639843, 37.8633359 ] ] ] } },
{ "type": "Feature", "properties": { "element_type": "way", "osmid": "130670020", "amenity": "university", "ele": "nan", "gnis:county_id": "nan", "gnis:created": "nan", "gnis:feature_id": "nan", "gnis:state_id": "nan", "name": "Jameson Recital Hall", "operator": "Asbury University", "nodes": [ 1438479449, 1438479447, 4406148655, 1438479451, 1438479458, 1438479449 ], "wikidata": "nan", "addr:city": "nan", "addr:housenumber": "nan", "addr:state": "nan", "addr:street": "nan", "building": "yes", "addr:postcode": "nan", "wheelchair": "nan", "atm": "nan", "internet_access": "nan", "building:levels": "nan", "addr:housename": "nan", "internet_access:fee": "nan", "source": "nan", "levels": "nan", "landuse": "nan", "phone": "nan", "website": "nan", "wikipedia": "nan", "ways": "nan", "type": "nan" }, "geometry": { "type": "Polygon", "coordinates": [ [ [ -84.66477, 37.8639914 ], [ -84.6649738, 37.8637542 ], [ -84.6650183, 37.8637776 ], [ -84.6651187, 37.8638304 ], [ -84.6649202, 37.8640718 ], [ -84.66477, 37.8639914 ] ] ] } },
{ "type": "Feature", "properties": { "element_type": "way", "osmid": "130671128", "amenity": "university", "ele": "nan", "gnis:county_id": "nan", "gnis:created": "nan", "gnis:feature_id": "nan", "gnis:state_id": "nan", "name": "McCreless Fine Arts Center", "operator": "nan", "nodes": [ 1438495106, 4365127305, 1438495076, 4617730721, 1438495085, 1438495088, 4376118926, 1438495104, 1438495071, 1438495074, 1438495108, 1438495110, 1438495082, 1438495090, 1438495112, 1438495106 ], "wikidata": "nan", "addr:city": "nan", "addr:housenumber": "nan", "addr:state": "nan", "addr:street": "nan", "building": "yes", "addr:postcode": "nan", "wheelchair": "nan", "atm": "nan", "internet_access": "nan", "building:levels": "nan", "addr:housename": "nan", "internet_access:fee": "nan", "source": "nan", "levels": "nan", "landuse": "nan", "phone": "nan", "website": "nan", "wikipedia": "nan", "ways": "nan", "type": "nan" }, "geometry": { "type": "Polygon", "coordinates": [ [ [ -84.6641208, 37.8637183 ], [ -84.6641972, 37.8636245 ], [ -84.6643718, 37.8634165 ], [ -84.6644485, 37.8634567 ], [ -84.6645173, 37.8634928 ], [ -84.6643912, 37.8636494 ], [ -84.6646102, 37.8637608 ], [ -84.664811, 37.8638712 ], [ -84.6647195, 37.8639808 ], [ -84.6646987, 37.8639703 ], [ -84.6646474, 37.8640328 ], [ -84.6645114, 37.863965 ], [ -84.6645794, 37.8638862 ], [ -84.6643143, 37.8637407 ], [ -84.6642677, 37.8637946 ], [ -84.6641208, 37.8637183 ] ] ] } },
{ "type": "Feature", "properties": { "element_type": "way", "osmid": "130882262", "amenity": "university", "ele": "nan", "gnis:county_id": "nan", "gnis:created": "nan", "gnis:feature_id": "nan", "gnis:state_id": "nan", "name": "Miller Center for Communication Arts", "operator": "Asbury University", "nodes": [ 1440466100, 1440466104, 1440466106, 1440466112, 1440466109, 1440466096, 1440466103, 1440466102, 1440466095, 1440466107, 1440466113, 1440466101, 1440466110, 1440466105, 1440466093, 1440466097, 1440466092, 1440466099, 1440466108, 1440466111, 1440466098, 1440466100 ], "wikidata": "nan", "addr:city": "nan", "addr:housenumber": "nan", "addr:state": "nan", "addr:street": "nan", "building": "yes", "addr:postcode": "nan", "wheelchair": "nan", "atm": "nan", "internet_access": "nan", "building:levels": "nan", "addr:housename": "nan", "internet_access:fee": "nan", "source": "nan", "levels": "nan", "landuse": "nan", "phone": "nan", "website": "nan", "wikipedia": "nan", "ways": "nan", "type": "nan" }, "geometry": { "type": "Polygon", "coordinates": [ [ [ -84.6657822, 37.8632452 ], [ -84.6655763, 37.8634796 ], [ -84.6656254, 37.8635065 ], [ -84.6655156, 37.8636314 ], [ -84.6655477, 37.8636399 ], [ -84.6655092, 37.863682 ], [ -84.6656222, 37.8637465 ], [ -84.6656024, 37.8637681 ], [ -84.6657301, 37.863841 ], [ -84.6657966, 37.8638769 ], [ -84.665812, 37.8638592 ], [ -84.6659353, 37.8639258 ], [ -84.6659664, 37.8638899 ], [ -84.6659942, 37.8639049 ], [ -84.6660925, 37.8637921 ], [ -84.6661133, 37.8638034 ], [ -84.6663329, 37.8635526 ], [ -84.666128, 37.8634408 ], [ -84.6661712, 37.8633915 ], [ -84.6659262, 37.8632575 ], [ -84.6658867, 37.8633024 ], [ -84.6657822, 37.8632452 ] ] ] } },
{ "type": "Feature", "properties": { "element_type": "way", "osmid": "130882316", "amenity": "university", "ele": "nan", "gnis:county_id": "nan", "gnis:created": "nan", "gnis:feature_id": "nan", "gnis:state_id": "nan", "name": "The Luce Center", "operator": "Asbury University", "nodes": [ 1440467087, 1440467079, 1440467073, 1440467078, 1440467075, 1440467084, 1440467090, 1440467081, 1440467076, 1440467085, 1440467088, 1440467086, 1440467080, 1440467089, 1440467070, 1440467074, 1440467087 ], "wikidata": "nan", "addr:city": "nan", "addr:housenumber": "nan", "addr:state": "nan", "addr:street": "nan", "building": "yes", "addr:postcode": "nan", "wheelchair": "nan", "atm": "nan", "internet_access": "nan", "building:levels": "nan", "addr:housename": "nan", "internet_access:fee": "nan", "source": "nan", "levels": "nan", "landuse": "nan", "phone": "nan", "website": "nan", "wikipedia": "nan", "ways": "nan", "type": "nan" }, "geometry": { "type": "Polygon", "coordinates": [ [ [ -84.6667817, 37.8662729 ], [ -84.6664375, 37.8657826 ], [ -84.6669255, 37.8655691 ], [ -84.6669499, 37.8656039 ], [ -84.6671475, 37.8655175 ], [ -84.6671204, 37.8654789 ], [ -84.66749, 37.8653172 ], [ -84.6678137, 37.8657783 ], [ -84.6673609, 37.8659764 ], [ -84.6674061, 37.8660408 ], [ -84.6672639, 37.866103 ], [ -84.6672447, 37.8660758 ], [ -84.6671945, 37.8660977 ], [ -84.6672233, 37.8661388 ], [ -84.6669707, 37.8662493 ], [ -84.666939, 37.8662041 ], [ -84.6667817, 37.8662729 ] ] ] } },
{ "type": "Feature", "properties": { "element_type": "way", "osmid": "130882390", "amenity": "university", "ele": "nan", "gnis:county_id": "nan", "gnis:created": "nan", "gnis:feature_id": "nan", "gnis:state_id": "nan", "name": "Physical Plant", "operator": "Asbury University", "nodes": [ 1440468547, 1440468534, 1440468548, 1440468551, 1440468550, 1440468533, 1440468536, 1440468549, 1440468546, 1440468544, 2338537414, 1440468547 ], "wikidata": "nan", "addr:city": "nan", "addr:housenumber": "nan", "addr:state": "nan", "addr:street": "nan", "building": "yes", "addr:postcode": "nan", "wheelchair": "nan", "atm": "nan", "internet_access": "nan", "building:levels": "nan", "addr:housename": "nan", "internet_access:fee": "nan", "source": "nan", "levels": "nan", "landuse": "nan", "phone": "nan", "website": "nan", "wikipedia": "nan", "ways": "nan", "type": "nan" }, "geometry": { "type": "Polygon", "coordinates": [ [ [ -84.6677804, 37.8632627 ], [ -84.6678583, 37.8631728 ], [ -84.6679029, 37.8631969 ], [ -84.6681846, 37.862872 ], [ -84.6684055, 37.8629913 ], [ -84.6682681, 37.8631498 ], [ -84.6682983, 37.8631661 ], [ -84.668118, 37.8633742 ], [ -84.6680883, 37.8633581 ], [ -84.6680465, 37.8634063 ], [ -84.6680292, 37.863397 ], [ -84.6677804, 37.8632627 ] ] ] } },
{ "type": "Feature", "properties": { "element_type": "way", "osmid": "130882505", "amenity": "university", "ele": "nan", "gnis:county_id": "nan", "gnis:created": "nan", "gnis:feature_id": "nan", "gnis:state_id": "nan", "name": "Kresge Hall", "operator": "Asbury University", "nodes": [ 1440470508, 2338537785, 2338537781, 2338537784, 2338537786, 1440470503, 1440470506, 2338537802, 2338537807, 2338537803, 2338537801, 1440470504, 1440470508 ], "wikidata": "nan", "addr:city": "nan", "addr:housenumber": "nan", "addr:state": "nan", "addr:street": "nan", "building": "yes", "addr:postcode": "nan", "wheelchair": "nan", "atm": "nan", "internet_access": "nan", "building:levels": "nan", "addr:housename": "nan", "internet_access:fee": "nan", "source": "nan", "levels": "nan", "landuse": "nan", "phone": "nan", "website": "nan", "wikipedia": "nan", "ways": "nan", "type": "nan" }, "geometry": { "type": "Polygon", "coordinates": [ [ [ -84.661225, 37.8649997 ], [ -84.6616243, 37.8650401 ], [ -84.6616273, 37.8650214 ], [ -84.6617925, 37.8650381 ], [ -84.6617895, 37.8650568 ], [ -84.6620568, 37.8650838 ], [ -84.662023, 37.8652918 ], [ -84.6617554, 37.8652648 ], [ -84.6617525, 37.8652824 ], [ -84.6616108, 37.8652681 ], [ -84.6616137, 37.8652505 ], [ -84.6611912, 37.8652078 ], [ -84.661225, 37.8649997 ] ] ] } },
{ "type": "Feature", "properties": { "element_type": "way", "osmid": "130882563", "amenity": "university", "ele": "nan", "gnis:county_id": "nan", "gnis:created": "nan", "gnis:feature_id": "nan", "gnis:state_id": "nan", "name": "Thacker", "operator": "Asbury University", "nodes": [ 1440471757, 1440471764, 1440471762, 1440471760, 1440472653, 1440471757 ], "wikidata": "nan", "addr:city": "nan", "addr:housenumber": "nan", "addr:state": "nan", "addr:street": "nan", "building": "yes", "addr:postcode": "nan", "wheelchair": "nan", "atm": "nan", "internet_access": "nan", "building:levels": "nan", "addr:housename": "nan", "internet_access:fee": "nan", "source": "nan", "levels": "nan", "landuse": "nan", "phone": "nan", "website": "nan", "wikipedia": "nan", "ways": "nan", "type": "nan" }, "geometry": { "type": "Polygon", "coordinates": [ [ [ -84.6619492, 37.8648111 ], [ -84.6619677, 37.8646714 ], [ -84.6621372, 37.8646859 ], [ -84.6621187, 37.8648215 ], [ -84.6620615, 37.8648193 ], [ -84.6619492, 37.8648111 ] ] ] } },
{ "type": "Feature", "properties": { "element_type": "way", "osmid": "130882580", "amenity": "university", "ele": "nan", "gnis:county_id": "nan", "gnis:created": "nan", "gnis:feature_id": "nan", "gnis:state_id": "nan", "name": "Eddy", "operator": "Asbury University", "nodes": [ 1440472656, 1440471757, 1440472653, 1440472654, 1440472652, 1440472656 ], "wikidata": "nan", "addr:city": "nan", "addr:housenumber": "nan", "addr:state": "nan", "addr:street": "nan", "building": "yes", "addr:postcode": "nan", "wheelchair": "nan", "atm": "nan", "internet_access": "nan", "building:levels": "nan", "addr:housename": "nan", "internet_access:fee": "nan", "source": "nan", "levels": "nan", "landuse": "nan", "phone": "nan", "website": "nan", "wikipedia": "nan", "ways": "nan", "type": "nan" }, "geometry": { "type": "Polygon", "coordinates": [ [ [ -84.6619117, 37.8648101 ], [ -84.6619492, 37.8648111 ], [ -84.6620615, 37.8648193 ], [ -84.662049, 37.8649682 ], [ -84.6618886, 37.8649519 ], [ -84.6619117, 37.8648101 ] ] ] } },
{ "type": "Feature", "properties": { "element_type": "way", "osmid": "130882610", "amenity": "university", "ele": "nan", "gnis:county_id": "nan", "gnis:created": "nan", "gnis:feature_id": "nan", "gnis:state_id": "nan", "name": "Fisher", "operator": "Asbury University", "nodes": [ 1440473606, 1440473608, 1440474398, 4376708429, 1440473609, 1440473606 ], "wikidata": "nan", "addr:city": "nan", "addr:housenumber": "nan", "addr:state": "nan", "addr:street": "nan", "building": "yes", "addr:postcode": "nan", "wheelchair": "nan", "atm": "nan", "internet_access": "nan", "building:levels": "nan", "addr:housename": "nan", "internet_access:fee": "nan", "source": "nan", "levels": "nan", "landuse": "nan", "phone": "nan", "website": "nan", "wikipedia": "nan", "ways": "nan", "type": "nan" }, "geometry": { "type": "Polygon", "coordinates": [ [ [ -84.6613634, 37.8648979 ], [ -84.6613837, 37.8647505 ], [ -84.661323, 37.864743 ], [ -84.661223, 37.864735 ], [ -84.661208, 37.8648845 ], [ -84.6613634, 37.8648979 ] ] ] } },
{ "type": "Feature", "properties": { "element_type": "way", "osmid": "130882823", "amenity": "university", "ele": "nan", "gnis:county_id": "nan", "gnis:created": "nan", "gnis:feature_id": "nan", "gnis:state_id": "nan", "name": "Davis", "operator": "Asbury University", "nodes": [ 1440474394, 4376708431, 1440474400, 1440473607, 1440474398, 1440474394 ], "wikidata": "nan", "addr:city": "nan", "addr:housenumber": "nan", "addr:state": "nan", "addr:street": "nan", "building": "yes", "addr:postcode": "nan", "wheelchair": "nan", "atm": "nan", "internet_access": "nan", "building:levels": "nan", "addr:housename": "nan", "internet_access:fee": "nan", "source": "nan", "levels": "nan", "landuse": "nan", "phone": "nan", "website": "nan", "wikipedia": "nan", "ways": "nan", "type": "nan" }, "geometry": { "type": "Polygon", "coordinates": [ [ [ -84.661341, 37.8646107 ], [ -84.6613124, 37.8646018 ], [ -84.661201, 37.8645988 ], [ -84.661183, 37.8647311 ], [ -84.661323, 37.864743 ], [ -84.661341, 37.8646107 ] ] ] } },
{ "type": "Feature", "properties": { "element_type": "way", "osmid": "130882866", "amenity": "university", "ele": "nan", "gnis:county_id": "nan", "gnis:created": "nan", "gnis:feature_id": "nan", "gnis:state_id": "nan", "name": "Howell", "operator": "Asbury University", "nodes": [ 1440474980, 4376708430, 4376708431, 2338537742, 2338537741, 1440474980 ], "wikidata": "nan", "addr:city": "nan", "addr:housenumber": "nan", "addr:state": "nan", "addr:street": "nan", "building": "yes", "addr:postcode": "nan", "wheelchair": "nan", "atm": "nan", "internet_access": "nan", "building:levels": "nan", "addr:housename": "nan", "internet_access:fee": "nan", "source": "nan", "levels": "nan", "landuse": "nan", "phone": "nan", "website": "nan", "wikipedia": "nan", "ways": "nan", "type": "nan" }, "geometry": { "type": "Polygon", "coordinates": [ [ [ -84.6611903, 37.8644771 ], [ -84.6611784, 37.8645932 ], [ -84.6613124, 37.8646018 ], [ -84.6613231, 37.8644856 ], [ -84.6612085, 37.8644783 ], [ -84.6611903, 37.8644771 ] ] ] } },
{ "type": "Feature", "properties": { "element_type": "way", "osmid": "130882888", "amenity": "university", "ele": "nan", "gnis:county_id": "nan", "gnis:created": "nan", "gnis:feature_id": "nan", "gnis:state_id": "nan", "name": "Pike", "operator": "Asbury University", "nodes": [ 1440475228, 1440475230, 1440475231, 2338537742, 2338537741, 1440475228 ], "wikidata": "nan", "addr:city": "nan", "addr:housenumber": "nan", "addr:state": "nan", "addr:street": "nan", "building": "yes", "addr:postcode": "nan", "wheelchair": "nan", "atm": "nan", "internet_access": "nan", "building:levels": "nan", "addr:housename": "nan", "internet_access:fee": "nan", "source": "nan", "levels": "nan", "landuse": "nan", "phone": "nan", "website": "nan", "wikipedia": "nan", "ways": "nan", "type": "nan" }, "geometry": { "type": "Polygon", "coordinates": [ [ [ -84.6612265, 37.864364 ], [ -84.6613774, 37.8643769 ], [ -84.6613611, 37.8644953 ], [ -84.6613231, 37.8644856 ], [ -84.6612085, 37.8644783 ], [ -84.6612265, 37.864364 ] ] ] } },
{ "type": "Feature", "properties": { "element_type": "way", "osmid": "130882904", "amenity": "university", "ele": "nan", "gnis:county_id": "nan", "gnis:created": "nan", "gnis:feature_id": "nan", "gnis:state_id": "nan", "name": "Center for Wholeness and Wellness", "operator": "Asbury University", "nodes": [ 1440475427, 4376096929, 1440475430, 1440475428, 4617754566, 1440475427 ], "wikidata": "nan", "addr:city": "nan", "addr:housenumber": "nan", "addr:state": "nan", "addr:street": "nan", "building": "yes", "addr:postcode": "nan", "wheelchair": "nan", "atm": "nan", "internet_access": "nan", "building:levels": "nan", "addr:housename": "nan", "internet_access:fee": "nan", "source": "nan", "levels": "nan", "landuse": "nan", "phone": "nan", "website": "nan", "wikipedia": "nan", "ways": "nan", "type": "nan" }, "geometry": { "type": "Polygon", "coordinates": [ [ [ -84.6624766, 37.8644487 ], [ -84.6624817, 37.8643045 ], [ -84.662482, 37.8642963 ], [ -84.6627368, 37.8643005 ], [ -84.6627302, 37.8644581 ], [ -84.6624766, 37.8644487 ] ] ] } },
{ "type": "Feature", "properties": { "element_type": "way", "osmid": "130883890", "amenity": "university", "ele": "nan", "gnis:county_id": "nan", "gnis:created": "nan", "gnis:feature_id": "nan", "gnis:state_id": "nan", "name": "Art Annex", "operator": "nan", "nodes": [ 1440489678, 1440489674, 1440489675, 1440489677, 1440489676, 1440489673, 1440489678 ], "wikidata": "nan", "addr:city": "nan", "addr:housenumber": "nan", "addr:state": "nan", "addr:street": "nan", "building": "yes", "addr:postcode": "nan", "wheelchair": "nan", "atm": "nan", "internet_access": "nan", "building:levels": "nan", "addr:housename": "nan", "internet_access:fee": "nan", "source": "nan", "levels": "nan", "landuse": "nan", "phone": "nan", "website": "nan", "wikipedia": "nan", "ways": "nan", "type": "nan" }, "geometry": { "type": "Polygon", "coordinates": [ [ [ -84.6603225, 37.8641824 ], [ -84.6603529, 37.8640948 ], [ -84.660593, 37.8641467 ], [ -84.6605867, 37.8641649 ], [ -84.6606401, 37.8641764 ], [ -84.660616, 37.8642458 ], [ -84.6603225, 37.8641824 ] ] ] } },
{ "type": "Feature", "properties": { "element_type": "way", "osmid": "130884364", "amenity": "university", "ele": "nan", "gnis:county_id": "nan", "gnis:created": "nan", "gnis:feature_id": "nan", "gnis:state_id": "nan", "name": "Bellevue House", "operator": "nan", "nodes": [ 1440489820, 1440489821, 1440489822, 1440489823, 1440489820 ], "wikidata": "nan", "addr:city": "nan", "addr:housenumber": "nan", "addr:state": "nan", "addr:street": "nan", "building": "yes", "addr:postcode": "nan", "wheelchair": "nan", "atm": "nan", "internet_access": "nan", "building:levels": "nan", "addr:housename": "nan", "internet_access:fee": "nan", "source": "nan", "levels": "nan", "landuse": "nan", "phone": "nan", "website": "nan", "wikipedia": "nan", "ways": "nan", "type": "nan" }, "geometry": { "type": "Polygon", "coordinates": [ [ [ -84.6608276, 37.8645203 ], [ -84.6607251, 37.8645121 ], [ -84.6607427, 37.8643849 ], [ -84.6608431, 37.8643935 ], [ -84.6608276, 37.8645203 ] ] ] } },
{ "type": "Feature", "properties": { "element_type": "way", "osmid": "130885106", "amenity": "university", "ele": "nan", "gnis:county_id": "nan", "gnis:created": "nan", "gnis:feature_id": "nan", "gnis:state_id": "nan", "name": "Corbitt Hall", "operator": "Asbury University", "nodes": [ 1440490489, 1440490488, 1440490485, 1440490477, 1440490489 ], "wikidata": "nan", "addr:city": "nan", "addr:housenumber": "nan", "addr:state": "nan", "addr:street": "nan", "building": "yes", "addr:postcode": "nan", "wheelchair": "nan", "atm": "nan", "internet_access": "nan", "building:levels": "nan", "addr:housename": "nan", "internet_access:fee": "nan", "source": "nan", "levels": "nan", "landuse": "nan", "phone": "nan", "website": "nan", "wikipedia": "nan", "ways": "nan", "type": "nan" }, "geometry": { "type": "Polygon", "coordinates": [ [ [ -84.6640966, 37.8620983 ], [ -84.6637783, 37.8619361 ], [ -84.6638847, 37.8617933 ], [ -84.6642146, 37.8619564 ], [ -84.6640966, 37.8620983 ] ] ] } },
{ "type": "Feature", "properties": { "element_type": "way", "osmid": "161627589", "amenity": "university", "ele": "nan", "gnis:county_id": "nan", "gnis:created": "nan", "gnis:feature_id": "nan", "gnis:state_id": "nan", "name": "James F. Hardymon building", "operator": "University of Kentucky", "nodes": [ 1736017261, 1736017108, 1736017111, 1736017109, 1736017110, 1736017153, 1736017154, 1736017152, 1736017214, 1736017213, 1736017261 ], "wikidata": "nan", "addr:city": "Lexington", "addr:housenumber": "301", "addr:state": "nan", "addr:street": "Rose Street", "building": "yes", "addr:postcode": "40506", "wheelchair": "nan", "atm": "nan", "internet_access": "wlan", "building:levels": "nan", "addr:housename": "Digital Village 1", "internet_access:fee": "yes", "source": "http://ukcc.uky.edu/cgi-bin/dynamo?maps.391+campus+0495", "levels": "nan", "landuse": "nan", "phone": "nan", "website": "nan", "wikipedia": "nan", "ways": "nan", "type": "nan" }, "geometry": { "type": "Polygon", "coordinates": [ [ [ -84.4978185, 38.0400452 ], [ -84.4976575, 38.0399037 ], [ -84.4977568, 38.039834 ], [ -84.4976575, 38.0397558 ], [ -84.4977273, 38.0397009 ], [ -84.4976173, 38.0396016 ], [ -84.497789, 38.0394727 ], [ -84.498025, 38.0396755 ], [ -84.4979848, 38.0397051 ], [ -84.498135, 38.0398319 ], [ -84.4978185, 38.0400452 ] ] ] } },
{ "type": "Feature", "properties": { "element_type": "way", "osmid": "163057393", "amenity": "university", "ele": "nan", "gnis:county_id": "nan", "gnis:created": "nan", "gnis:feature_id": "nan", "gnis:state_id": "nan", "name": "Dickey Hall", "operator": "nan", "nodes": [ 1748326004, 1748326000, 1748326016, 1748325964, 1748325977, 1748325995, 1748325980, 1748325956, 3754583393, 1748325974, 1748325955, 1748326002, 4010026018, 1748325983, 1748326004 ], "wikidata": "nan", "addr:city": "nan", "addr:housenumber": "nan", "addr:state": "nan", "addr:street": "nan", "building": "yes", "addr:postcode": "nan", "wheelchair": "nan", "atm": "nan", "internet_access": "nan", "building:levels": "nan", "addr:housename": "nan", "internet_access:fee": "nan", "source": "nan", "levels": "nan", "landuse": "nan", "phone": "nan", "website": "nan", "wikipedia": "nan", "ways": "nan", "type": "nan" }, "geometry": { "type": "Polygon", "coordinates": [ [ [ -84.5082308, 38.0410782 ], [ -84.5082871, 38.0410423 ], [ -84.5083435, 38.0410824 ], [ -84.5084025, 38.0410402 ], [ -84.5083515, 38.0410022 ], [ -84.5084132, 38.0409515 ], [ -84.5081986, 38.0407677 ], [ -84.5082308, 38.0407297 ], [ -84.5082024, 38.0407062 ], [ -84.5081745, 38.0406832 ], [ -84.5081262, 38.0407085 ], [ -84.5079063, 38.0405163 ], [ -84.5078177, 38.0405767 ], [ -84.5077266, 38.0406388 ], [ -84.5082308, 38.0410782 ] ] ] } },
{ "type": "Feature", "properties": { "element_type": "way", "osmid": "206394209", "amenity": "university", "ele": "nan", "gnis:county_id": "nan", "gnis:created": "nan", "gnis:feature_id": "nan", "gnis:state_id": "nan", "name": "Frank Bateman Stanger Hall", "operator": "nan", "nodes": [ 2164052590, 2338537295, 2338537285, 2338537280, 2338537253, 2164052585, 2164052590 ], "wikidata": "nan", "addr:city": "nan", "addr:housenumber": "nan", "addr:state": "nan", "addr:street": "nan", "building": "yes", "addr:postcode": "nan", "wheelchair": "nan", "atm": "nan", "internet_access": "nan", "building:levels": "nan", "addr:housename": "nan", "internet_access:fee": "nan", "source": "nan", "levels": "nan", "landuse": "nan", "phone": "nan", "website": "nan", "wikipedia": "nan", "ways": "nan", "type": "nan" }, "geometry": { "type": "Polygon", "coordinates": [ [ [ -84.6603013, 37.8629113 ], [ -84.6600396, 37.8627989 ], [ -84.6600692, 37.8627557 ], [ -84.6600419, 37.8627437 ], [ -84.6601162, 37.8626351 ], [ -84.6604113, 37.8627651 ], [ -84.6603013, 37.8629113 ] ] ] } },
{ "type": "Feature", "properties": { "element_type": "way", "osmid": "206394507", "amenity": "university", "ele": "nan", "gnis:county_id": "nan", "gnis:created": "nan", "gnis:feature_id": "nan", "gnis:state_id": "nan", "name": "Sherman Thomas Student Center", "operator": "nan", "nodes": [ 2164054762, 2338537004, 2338537008, 2338536987, 2338536985, 2164054767, 2338536973, 2338536962, 2338536959, 2338536953, 2338536941, 2338536933, 2338536888, 2338536909, 2164054764, 2338536900, 2338536923, 2338536932, 2338536919, 2338536930, 2338536939, 2338536957, 2338536943, 2338536951, 2338536945, 2338536982, 2338536972, 2338536999, 2338536997, 2164054763, 2164054766, 2338537013, 2338537007, 2338537035, 2338537038, 2164054769, 2338537042, 2338537047, 2338537054, 2338537063, 2338537058, 2338537089, 2164054768, 2338537096, 2164054765, 2164054762 ], "wikidata": "nan", "addr:city": "nan", "addr:housenumber": "nan", "addr:state": "nan", "addr:street": "nan", "building": "yes", "addr:postcode": "nan", "wheelchair": "nan", "atm": "nan", "internet_access": "nan", "building:levels": "nan", "addr:housename": "nan", "internet_access:fee": "nan", "source": "nan", "levels": "nan", "landuse": "nan", "phone": "nan", "website": "nan", "wikipedia": "nan", "ways": "nan", "type": "nan" }, "geometry": { "type": "Polygon", "coordinates": [ [ [ -84.660321, 37.8617567 ], [ -84.6606025, 37.8614275 ], [ -84.6606131, 37.8614332 ], [ -84.6606807, 37.8613541 ], [ -84.6606702, 37.8613484 ], [ -84.6606845, 37.8613316 ], [ -84.6606301, 37.8613026 ], [ -84.660649, 37.8612805 ], [ -84.6606266, 37.8612685 ], [ -84.6606401, 37.8612527 ], [ -84.6605982, 37.8612304 ], [ -84.6606154, 37.8612103 ], [ -84.6605062, 37.8611521 ], [ -84.6604792, 37.8611836 ], [ -84.6603307, 37.8611044 ], [ -84.660274, 37.8611707 ], [ -84.6603175, 37.8611939 ], [ -84.6603037, 37.8612101 ], [ -84.6602642, 37.8611891 ], [ -84.6602512, 37.8612043 ], [ -84.6602907, 37.8612253 ], [ -84.6602637, 37.8612568 ], [ -84.6602202, 37.8612336 ], [ -84.660205, 37.8612514 ], [ -84.6601807, 37.8612384 ], [ -84.6600978, 37.8613354 ], [ -84.6600332, 37.8613009 ], [ -84.6599526, 37.8613951 ], [ -84.6599339, 37.8613851 ], [ -84.6598996, 37.8614253 ], [ -84.6598736, 37.8614114 ], [ -84.6598434, 37.8614468 ], [ -84.6598165, 37.8614325 ], [ -84.6596331, 37.861647 ], [ -84.6596599, 37.8616613 ], [ -84.6596586, 37.8616628 ], [ -84.6596458, 37.8616777 ], [ -84.6596954, 37.8617041 ], [ -84.6596804, 37.8617216 ], [ -84.6597318, 37.8617489 ], [ -84.6597467, 37.8617315 ], [ -84.6600209, 37.8618777 ], [ -84.6600338, 37.8618628 ], [ -84.6600866, 37.861891 ], [ -84.6602389, 37.8617129 ], [ -84.660321, 37.8617567 ] ] ] } },
{ "type": "Feature", "properties": { "element_type": "way", "osmid": "206439964", "amenity": "university", "ele": "nan", "gnis:county_id": "nan", "gnis:created": "nan", "gnis:feature_id": "nan", "gnis:state_id": "nan", "name": "Newton W. Grice Hall", "operator": "nan", "nodes": [ 2164460239, 2164460226, 2164460229, 2164460223, 2164460219, 2164460233, 2164460242, 2164460236, 2164460239 ], "wikidata": "nan", "addr:city": "nan", "addr:housenumber": "nan", "addr:state": "nan", "addr:street": "nan", "building": "yes", "addr:postcode": "nan", "wheelchair": "nan", "atm": "nan", "internet_access": "nan", "building:levels": "nan", "addr:housename": "nan", "internet_access:fee": "nan", "source": "nan", "levels": "3", "landuse": "nan", "phone": "nan", "website": "nan", "wikipedia": "nan", "ways": "nan", "type": "nan" }, "geometry": { "type": "Polygon", "coordinates": [ [ [ -84.6607412, 37.8606838 ], [ -84.6604402, 37.860889 ], [ -84.6603383, 37.8608149 ], [ -84.660371, 37.8607919 ], [ -84.6603195, 37.8607567 ], [ -84.660561, 37.8605809 ], [ -84.6606017, 37.8606119 ], [ -84.6606325, 37.8605896 ], [ -84.6607412, 37.8606838 ] ] ] } },
{ "type": "Feature", "properties": { "element_type": "way", "osmid": "206456356", "amenity": "university", "ele": "nan", "gnis:county_id": "nan", "gnis:created": "nan", "gnis:feature_id": "nan", "gnis:state_id": "nan", "name": "Larabee-Morris Hall", "operator": "nan", "nodes": [ 2164618361, 2164618376, 2338537317, 2338537326, 2338537328, 2338537349, 2338537346, 2338537352, 2164618361 ], "wikidata": "nan", "addr:city": "nan", "addr:housenumber": "nan", "addr:state": "nan", "addr:street": "nan", "building": "yes", "addr:postcode": "nan", "wheelchair": "nan", "atm": "nan", "internet_access": "nan", "building:levels": "nan", "addr:housename": "nan", "internet_access:fee": "nan", "source": "nan", "levels": "nan", "landuse": "nan", "phone": "nan", "website": "nan", "wikipedia": "nan", "ways": "nan", "type": "nan" }, "geometry": { "type": "Polygon", "coordinates": [ [ [ -84.6603655, 37.8630624 ], [ -84.66051, 37.8628401 ], [ -84.6607044, 37.8629189 ], [ -84.6606675, 37.8629757 ], [ -84.6607016, 37.8629895 ], [ -84.660628, 37.8631028 ], [ -84.660595, 37.8630894 ], [ -84.6605611, 37.8631416 ], [ -84.6603655, 37.8630624 ] ] ] } },
{ "type": "Feature", "properties": { "element_type": "way", "osmid": "206456817", "amenity": "university", "ele": "nan", "gnis:county_id": "nan", "gnis:created": "nan", "gnis:feature_id": "nan", "gnis:state_id": "nan", "name": "Crary-McPheeters Building", "operator": "nan", "nodes": [ 2164621952, 2338537087, 2338537090, 2338537084, 2338537079, 2164621955, 2164621953, 2164621954, 2164621952 ], "wikidata": "nan", "addr:city": "nan", "addr:housenumber": "nan", "addr:state": "nan", "addr:street": "nan", "building": "university", "addr:postcode": "nan", "wheelchair": "nan", "atm": "nan", "internet_access": "nan", "building:levels": "nan", "addr:housename": "nan", "internet_access:fee": "nan", "source": "nan", "levels": "nan", "landuse": "nan", "phone": "nan", "website": "nan", "wikipedia": "nan", "ways": "nan", "type": "nan" }, "geometry": { "type": "Polygon", "coordinates": [ [ [ -84.6614021, 37.8619231 ], [ -84.6612552, 37.8618493 ], [ -84.6612338, 37.8618758 ], [ -84.6611659, 37.8618428 ], [ -84.6611879, 37.8618154 ], [ -84.6610609, 37.8617516 ], [ -84.6611765, 37.8616083 ], [ -84.6615177, 37.8617798 ], [ -84.6614021, 37.8619231 ] ] ] } },
{ "type": "Feature", "properties": { "element_type": "way", "osmid": "206456857", "amenity": "university", "ele": "nan", "gnis:county_id": "nan", "gnis:created": "nan", "gnis:feature_id": "nan", "gnis:state_id": "nan", "name": "Henry Clay Morrison Administration Building", "operator": "nan", "nodes": [ 2164622899, 2164622900, 2338537114, 2338537107, 2338537085, 2338537094, 2164622903, 2338537084, 2338537090, 2164622901, 2338537115, 2338537118, 4619609761, 2338537136, 2338537129, 2164622899 ], "wikidata": "nan", "addr:city": "nan", "addr:housenumber": "nan", "addr:state": "nan", "addr:street": "nan", "building": "yes", "addr:postcode": "nan", "wheelchair": "nan", "atm": "nan", "internet_access": "nan", "building:levels": "nan", "addr:housename": "nan", "internet_access:fee": "nan", "source": "nan", "levels": "nan", "landuse": "nan", "phone": "nan", "website": "nan", "wikipedia": "nan", "ways": "nan", "type": "nan" }, "geometry": { "type": "Polygon", "coordinates": [ [ [ -84.6610682, 37.8621588 ], [ -84.6608868, 37.8620707 ], [ -84.660956, 37.8619819 ], [ -84.6608757, 37.8619429 ], [ -84.6609507, 37.8618466 ], [ -84.6610311, 37.8618856 ], [ -84.6610924, 37.861807 ], [ -84.6611659, 37.8618428 ], [ -84.6612338, 37.8618758 ], [ -84.6612737, 37.8618951 ], [ -84.661202, 37.8619871 ], [ -84.6612353, 37.8620033 ], [ -84.661195, 37.862055 ], [ -84.661181, 37.862073 ], [ -84.6611477, 37.8620568 ], [ -84.6610682, 37.8621588 ] ] ] } },
{ "type": "Feature", "properties": { "element_type": "way", "osmid": "206457220", "amenity": "university", "ele": "nan", "gnis:county_id": "nan", "gnis:created": "nan", "gnis:feature_id": "nan", "gnis:state_id": "nan", "name": "J. C. McPheeters Leadership Center", "operator": "nan", "nodes": [ 2164625400, 2164625401, 2164625399, 2164625402, 2164625400 ], "wikidata": "nan", "addr:city": "nan", "addr:housenumber": "nan", "addr:state": "nan", "addr:street": "nan", "building": "yes", "addr:postcode": "nan", "wheelchair": "nan", "atm": "nan", "internet_access": "nan", "building:levels": "nan", "addr:housename": "nan", "internet_access:fee": "nan", "source": "nan", "levels": "nan", "landuse": "nan", "phone": "nan", "website": "nan", "wikipedia": "nan", "ways": "nan", "type": "nan" }, "geometry": { "type": "Polygon", "coordinates": [ [ [ -84.6599941, 37.8627843 ], [ -84.659763, 37.8626844 ], [ -84.6598698, 37.8625304 ], [ -84.6601009, 37.8626303 ], [ -84.6599941, 37.8627843 ] ] ] } },
{ "type": "Feature", "properties": { "element_type": "way", "osmid": "225026273", "amenity": "university", "ele": "nan", "gnis:county_id": "nan", "gnis:created": "nan", "gnis:feature_id": "nan", "gnis:state_id": "nan", "name": "nan", "operator": "nan", "nodes": [ 2338536739, 2338536793, 2338536707, 2338536618, 2338536654, 2338536714, 2338536745, 2338536682, 2338536739 ], "wikidata": "nan", "addr:city": "nan", "addr:housenumber": "nan", "addr:state": "nan", "addr:street": "nan", "building": "yes", "addr:postcode": "nan", "wheelchair": "nan", "atm": "nan", "internet_access": "nan", "building:levels": "nan", "addr:housename": "nan", "internet_access:fee": "nan", "source": "nan", "levels": "nan", "landuse": "nan", "phone": "nan", "website": "nan", "wikipedia": "nan", "ways": "nan", "type": "nan" }, "geometry": { "type": "Polygon", "coordinates": [ [ [ -84.659745, 37.8607034 ], [ -84.6594928, 37.860879 ], [ -84.6592504, 37.8606622 ], [ -84.6595025, 37.8604865 ], [ -84.6595913, 37.8605659 ], [ -84.6594397, 37.8606715 ], [ -84.659503, 37.8607282 ], [ -84.6596546, 37.8606226 ], [ -84.659745, 37.8607034 ] ] ] } },
{ "type": "Feature", "properties": { "element_type": "way", "osmid": "262963662", "amenity": "university", "ele": "nan", "gnis:county_id": "nan", "gnis:created": "nan", "gnis:feature_id": "nan", "gnis:state_id": "nan", "name": "Transylvania University Sports Complex", "operator": "nan", "nodes": [ 2686038642, 2686038644, 2686038646, 2686038648, 2686038650, 2686038652, 2686038654, 1587842000, 1587841974, 2686038642 ], "wikidata": "nan", "addr:city": "nan", "addr:housenumber": "nan", "addr:state": "nan", "addr:street": "nan", "building": "nan", "addr:postcode": "nan", "wheelchair": "nan", "atm": "nan", "internet_access": "nan", "building:levels": "nan", "addr:housename": "nan", "internet_access:fee": "nan", "source": "nan", "levels": "nan", "landuse": "nan", "phone": "nan", "website": "nan", "wikipedia": "nan", "ways": "nan", "type": "nan" }, "geometry": { "type": "Polygon", "coordinates": [ [ [ -84.4953953, 38.0588097 ], [ -84.4974621, 38.0574117 ], [ -84.4988232, 38.0585936 ], [ -84.4975385, 38.0590994 ], [ -84.4967824, 38.0594387 ], [ -84.4963433, 38.0596947 ], [ -84.4958869, 38.0600366 ], [ -84.4956941, 38.059817 ], [ -84.4961122, 38.0595002 ], [ -84.4953953, 38.0588097 ] ] ] } },
{ "type": "Feature", "properties": { "element_type": "way", "osmid": "441807869", "amenity": "university", "ele": "nan", "gnis:county_id": "nan", "gnis:created": "nan", "gnis:feature_id": "nan", "gnis:state_id": "nan", "name": "Asbury University", "operator": "nan", "nodes": [ 4395041124, 2530119982, 2530119993, 4600404011, 4395041125, 4395041126, 4395041127, 4395041128, 164800466, 4395041129, 4395041130, 4395041131, 4395041132, 4395041133, 4395041134, 4395041135, 4639314148, 4395041136, 4395041137, 4395041138, 4395041139, 4376756811, 4376756810, 4376756809, 4376756808, 6985968505, 391820087, 2530933472, 2530119953, 2530119971, 1715621443, 1715621404, 4639306181, 4639306180, 4639306179, 4395041140, 4639306178, 4639306177, 4395041141, 4395041142, 4395041143, 4395041144, 4395041145, 4395041146, 4395041147, 5078039296, 4395041148, 4395041149, 4395041150, 4600404019, 4617754566, 4395041151, 4395041152, 4395041153, 4395041154, 4395041155, 4395041156, 1440489678, 1440489674, 4395041157, 4395041158, 4395041159, 4395041160, 4395041161, 4395041162, 4395041163, 4395041164, 4395041165, 4395041166, 4395041167, 4395041124 ], "wikidata": "Q4803762", "addr:city": "nan", "addr:housenumber": "nan", "addr:state": "nan", "addr:street": "nan", "building": "nan", "addr:postcode": "nan", "wheelchair": "nan", "atm": "nan", "internet_access": "wlan", "building:levels": "nan", "addr:housename": "nan", "internet_access:fee": "nan", "source": "nan", "levels": "nan", "landuse": "nan", "phone": "nan", "website": "nan", "wikipedia": "nan", "ways": "nan", "type": "nan" }, "geometry": { "type": "Polygon", "coordinates": [ [ [ -84.663488, 37.8608691 ], [ -84.6637903, 37.8609933 ], [ -84.6638494, 37.8610272 ], [ -84.6639506, 37.8610719 ], [ -84.6641621, 37.8611654 ], [ -84.6638379, 37.8615721 ], [ -84.663789, 37.8616591 ], [ -84.6652479, 37.8624086 ], [ -84.6668191, 37.8632079 ], [ -84.666997, 37.8629961 ], [ -84.6674419, 37.8632573 ], [ -84.6680479, 37.8624957 ], [ -84.6677407, 37.8622951 ], [ -84.6681738, 37.8617915 ], [ -84.668053, 37.8611473 ], [ -84.6670961, 37.8606596 ], [ -84.6678244, 37.8598231 ], [ -84.6682779, 37.8593023 ], [ -84.6707525, 37.8615741 ], [ -84.6693389, 37.8627457 ], [ -84.6701615, 37.8637504 ], [ -84.6719555, 37.8627413 ], [ -84.6721808, 37.862627 ], [ -84.6726797, 37.8623687 ], [ -84.6741281, 37.8641855 ], [ -84.6740959, 37.8642444 ], [ -84.673947, 37.864517 ], [ -84.6709319, 37.8658843 ], [ -84.6706461, 37.8659187 ], [ -84.6690958, 37.8664523 ], [ -84.669267, 37.8672622 ], [ -84.6678184, 37.8675005 ], [ -84.6673788, 37.8673327 ], [ -84.6671877, 37.8671584 ], [ -84.6671242, 37.8670942 ], [ -84.6666476, 37.866636 ], [ -84.6665197, 37.8664881 ], [ -84.6664006, 37.8663037 ], [ -84.6661804, 37.8659703 ], [ -84.6657535, 37.865323 ], [ -84.6656182, 37.8650895 ], [ -84.6653207, 37.8648768 ], [ -84.6647131, 37.8646027 ], [ -84.6640704, 37.8643329 ], [ -84.6636364, 37.8641617 ], [ -84.6634712, 37.8641435 ], [ -84.6632502, 37.8641308 ], [ -84.6628689, 37.8641103 ], [ -84.662774, 37.8641038 ], [ -84.6627604, 37.8641851 ], [ -84.6627302, 37.8644581 ], [ -84.6625548, 37.8654176 ], [ -84.660952, 37.865263 ], [ -84.6609289, 37.8652499 ], [ -84.6609511, 37.8645631 ], [ -84.6606022, 37.8645353 ], [ -84.6606827, 37.8642592 ], [ -84.6603225, 37.8641824 ], [ -84.6603529, 37.8640948 ], [ -84.6604209, 37.8638897 ], [ -84.6606898, 37.8634109 ], [ -84.6608142, 37.8632266 ], [ -84.6611883, 37.8627082 ], [ -84.6617547, 37.8619825 ], [ -84.6622366, 37.8614227 ], [ -84.6629857, 37.8618171 ], [ -84.6631629, 37.8615836 ], [ -84.6624095, 37.8612115 ], [ -84.6625544, 37.8610448 ], [ -84.6631459, 37.8613294 ], [ -84.663488, 37.8608691 ] ] ] } },
{ "type": "Feature", "properties": { "element_type": "way", "osmid": "473227834", "amenity": "university", "ele": "nan", "gnis:county_id": "nan", "gnis:created": "nan", "gnis:feature_id": "nan", "gnis:state_id": "nan", "name": "Spanish House (University Residence)", "operator": "nan", "nodes": [ 4673878605, 4673878606, 4673878607, 4673878608, 4673878609, 4673878610, 4673878605 ], "wikidata": "nan", "addr:city": "nan", "addr:housenumber": "nan", "addr:state": "nan", "addr:street": "nan", "building": "nan", "addr:postcode": "nan", "wheelchair": "nan", "atm": "nan", "internet_access": "nan", "building:levels": "nan", "addr:housename": "nan", "internet_access:fee": "nan", "source": "nan", "levels": "nan", "landuse": "nan", "phone": "nan", "website": "nan", "wikipedia": "nan", "ways": "nan", "type": "nan" }, "geometry": { "type": "Polygon", "coordinates": [ [ [ -84.6630311, 37.8653635 ], [ -84.6629141, 37.8653545 ], [ -84.6629289, 37.8652349 ], [ -84.6629781, 37.8652387 ], [ -84.6629808, 37.8652167 ], [ -84.6630486, 37.8652219 ], [ -84.6630311, 37.8653635 ] ] ] } },
{ "type": "Feature", "properties": { "element_type": "way", "osmid": "538126708", "amenity": "university", "ele": "nan", "gnis:county_id": "nan", "gnis:created": "nan", "gnis:feature_id": "nan", "gnis:state_id": "nan", "name": "Asbury Theological Seminary", "operator": "nan", "nodes": [ 5209480551, 5209480552, 5209480553, 5209480554, 5209480555, 5209480556, 5209480557, 5209480558, 5209480559, 5209480560, 5209480561, 5209480562, 5209480563, 5209480564, 5209480565, 5209480566, 5209480568, 5209480567, 5209480550, 5209480549, 5209480548, 5209480551 ], "wikidata": "Q2645880", "addr:city": "nan", "addr:housenumber": "nan", "addr:state": "nan", "addr:street": "nan", "building": "nan", "addr:postcode": "nan", "wheelchair": "nan", "atm": "nan", "internet_access": "nan", "building:levels": "nan", "addr:housename": "nan", "internet_access:fee": "nan", "source": "nan", "levels": "nan", "landuse": "university", "phone": "+1 800 227 2879", "website": "https://asburyseminary.edu/", "wikipedia": "en:Asbury Theological Seminary", "ways": "nan", "type": "nan" }, "geometry": { "type": "Polygon", "coordinates": [ [ [ -84.6575159, 37.861301 ], [ -84.6581703, 37.8597862 ], [ -84.658908, 37.859886 ], [ -84.659693, 37.8594955 ], [ -84.6605655, 37.86035 ], [ -84.6609086, 37.8602392 ], [ -84.6614157, 37.8605507 ], [ -84.6616769, 37.8607306 ], [ -84.6618965, 37.8605463 ], [ -84.6621493, 37.8607448 ], [ -84.6624494, 37.8609796 ], [ -84.6622605, 37.8612187 ], [ -84.6616492, 37.8619404 ], [ -84.6612185, 37.8624823 ], [ -84.6606488, 37.8632896 ], [ -84.660232, 37.8639762 ], [ -84.6577799, 37.8639038 ], [ -84.658337, 37.8627631 ], [ -84.658915, 37.8629035 ], [ -84.6590039, 37.8627565 ], [ -84.6592095, 37.8625909 ], [ -84.6575159, 37.861301 ] ] ] } },
{ "type": "Feature", "properties": { "element_type": "way", "osmid": "1059428257", "amenity": "university", "ele": "250", "gnis:county_id": "239", "gnis:created": "09/20/1979", "gnis:feature_id": "500000", "gnis:state_id": "21", "name": "Midway University", "operator": "nan", "nodes": [ 9733842981, 9733842975, 9733842977, 9733842980, 358601784, 9733842982, 391974360, 391974359, 391974358, 9733842985, 9733842984, 9733842978, 9733842976, 9733842983, 9733842974, 9733842979, 9733842981 ], "wikidata": "Q14690940", "addr:city": "Midway", "addr:housenumber": "512", "addr:state": "nan", "addr:street": "East Stephens Street", "building": "nan", "addr:postcode": "40347", "wheelchair": "nan", "atm": "nan", "internet_access": "nan", "building:levels": "nan", "addr:housename": "nan", "internet_access:fee": "nan", "source": "nan", "levels": "nan", "landuse": "nan", "phone": "859-846-4421", "website": "https://www.midway.edu/", "wikipedia": "nan", "ways": "nan", "type": "nan" }, "geometry": { "type": "Polygon", "coordinates": [ [ [ -84.6813458, 38.1483583 ], [ -84.682707, 38.1461218 ], [ -84.6807085, 38.145543 ], [ -84.6790579, 38.1442531 ], [ -84.678232, 38.1435713 ], [ -84.6773092, 38.1427586 ], [ -84.677071, 38.142918 ], [ -84.676676, 38.14302 ], [ -84.675765, 38.142975 ], [ -84.6740531, 38.1459811 ], [ -84.6763567, 38.1464982 ], [ -84.6792878, 38.146889 ], [ -84.6798711, 38.1471501 ], [ -84.6804984, 38.1475208 ], [ -84.680774, 38.1477572 ], [ -84.6810954, 38.1480686 ], [ -84.6813458, 38.1483583 ] ] ] } },
{ "type": "Feature", "properties": { "element_type": "way", "osmid": "1152722552", "amenity": "university", "ele": "nan", "gnis:county_id": "nan", "gnis:created": "nan", "gnis:feature_id": "nan", "gnis:state_id": "nan", "name": "Frontier Nursing University", "operator": "nan", "nodes": [ 10721776961, 10721776962, 3015223649, 10721776963, 10721776964, 10721776965, 10721776966, 10721776967, 10721776968, 10721776969, 10721776970, 10721776971, 10721776972, 10721776973, 10721776961 ], "wikidata": "nan", "addr:city": "Versailles", "addr:housenumber": "2050", "addr:state": "KY", "addr:street": "Lexington Road", "building": "nan", "addr:postcode": "40383", "wheelchair": "nan", "atm": "nan", "internet_access": "nan", "building:levels": "nan", "addr:housename": "nan", "internet_access:fee": "nan", "source": "nan", "levels": "nan", "landuse": "nan", "phone": "nan", "website": "https://portal.frontier.edu/web/fnu/campus-map", "wikipedia": "nan", "ways": "nan", "type": "nan" }, "geometry": { "type": "Polygon", "coordinates": [ [ [ -84.693159, 38.0525417 ], [ -84.6924702, 38.0525599 ], [ -84.6922164, 38.0524759 ], [ -84.6917565, 38.0522595 ], [ -84.6909466, 38.0512591 ], [ -84.6910204, 38.0506814 ], [ -84.6921274, 38.0494304 ], [ -84.692725, 38.0484172 ], [ -84.6997344, 38.0493596 ], [ -84.7005858, 38.0496899 ], [ -84.6995693, 38.050526 ], [ -84.6986225, 38.0512183 ], [ -84.6973033, 38.0521133 ], [ -84.6967721, 38.0517023 ], [ -84.693159, 38.0525417 ] ] ] } },
{ "type": "Feature", "properties": { "element_type": "way", "osmid": "1214646066", "amenity": "university", "ele": "nan", "gnis:county_id": "nan", "gnis:created": "nan", "gnis:feature_id": "nan", "gnis:state_id": "nan", "name": "nan", "operator": "nan", "nodes": [ 266973986, 266973987, 266973988, 266973989, 266973990, 266973991, 266973992, 266973993, 11253854612, 11253854564, 11253854570, 11253854621, 11253854578, 11253854609, 11253854587, 11253854590, 11253854558, 11253854566, 11253854604, 11253854602, 11253854567, 11253854589, 11253854551, 11253854599, 11253854569, 11253854607, 11253854618, 11253854561, 11253854577, 11253854611, 11253854559, 11253854593, 11253854556, 11253854565, 11253854613, 11253854575, 11253854582, 11253854563, 11253854594, 11253854606, 11253854555, 11253854608, 11253854574, 11253854553, 11253854579, 11253854580, 11253854623, 11253854616, 11253854584, 11253854560, 11253854622, 11253854601, 11253854597, 11253854549, 11253854610, 11253854562, 11253854557, 11253854605, 11253854598, 11253854581, 11253854603, 11253854552, 11253854588, 11253854573, 11253854595, 11253854591, 11253854571, 11253854550, 11253854600, 11253854615, 11253854572, 11253854592, 11253854585, 11253854586, 11253854576, 11258684301, 11253854617, 11253854619, 11258706642, 11258684324, 11258684309, 11253854554, 266973982, 11253854620, 266973983, 11253854568, 11253854596, 266973984, 11253854583, 11253854614, 11258684319, 266973985, 266973986 ], "wikidata": "nan", "addr:city": "nan", "addr:housenumber": "nan", "addr:state": "nan", "addr:street": "nan", "building": "nan", "addr:postcode": "nan", "wheelchair": "nan", "atm": "nan", "internet_access": "nan", "building:levels": "nan", "addr:housename": "nan", "internet_access:fee": "nan", "source": "nan", "levels": "nan", "landuse": "nan", "phone": "nan", "website": "nan", "wikipedia": "nan", "ways": "nan", "type": "nan" }, "geometry": { "type": "Polygon", "coordinates": [ [ [ -84.6896821, 37.8571276 ], [ -84.6904346, 37.8580637 ], [ -84.6923249, 37.8590914 ], [ -84.6939033, 37.859587 ], [ -84.6959956, 37.8599173 ], [ -84.6978492, 37.8605046 ], [ -84.6996821, 37.8608861 ], [ -84.701238, 37.8611139 ], [ -84.7018158, 37.8611189 ], [ -84.7017966, 37.8614429 ], [ -84.7017184, 37.8616995 ], [ -84.7015876, 37.8618596 ], [ -84.7012862, 37.8621173 ], [ -84.7009663, 37.8625567 ], [ -84.7002498, 37.8641339 ], [ -84.7000363, 37.8646308 ], [ -84.6999605, 37.8648879 ], [ -84.6998362, 37.8651418 ], [ -84.6997112, 37.8653209 ], [ -84.6995078, 37.8655778 ], [ -84.699319, 37.8657003 ], [ -84.6991264, 37.865996 ], [ -84.6990823, 37.8661842 ], [ -84.6990531, 37.866442 ], [ -84.6989226, 37.8666143 ], [ -84.6986068, 37.8667237 ], [ -84.6981649, 37.8666617 ], [ -84.6978037, 37.866569 ], [ -84.6974667, 37.8664543 ], [ -84.6972496, 37.8662394 ], [ -84.6971035, 37.8660821 ], [ -84.6971009, 37.865722 ], [ -84.696984, 37.865543 ], [ -84.6967308, 37.8653495 ], [ -84.6963944, 37.8653458 ], [ -84.6960831, 37.8654698 ], [ -84.6958394, 37.8655436 ], [ -84.6954383, 37.8654343 ], [ -84.6949945, 37.8654067 ], [ -84.694537, 37.8654857 ], [ -84.6942181, 37.8656733 ], [ -84.6941152, 37.8658441 ], [ -84.6939379, 37.8660518 ], [ -84.6937046, 37.8663213 ], [ -84.6934337, 37.866629 ], [ -84.6933218, 37.8667899 ], [ -84.6933284, 37.8670167 ], [ -84.6934147, 37.8672476 ], [ -84.6935294, 37.8674056 ], [ -84.6936498, 37.8675937 ], [ -84.693591, 37.8677462 ], [ -84.6934528, 37.8679088 ], [ -84.6931587, 37.8679739 ], [ -84.6927736, 37.8679339 ], [ -84.6923007, 37.8679014 ], [ -84.6919387, 37.8679571 ], [ -84.6916346, 37.8681132 ], [ -84.6913725, 37.8683263 ], [ -84.6909106, 37.8676155 ], [ -84.6898091, 37.8676007 ], [ -84.6881556, 37.8675514 ], [ -84.6882815, 37.8653531 ], [ -84.6893154, 37.8649274 ], [ -84.6881023, 37.8602732 ], [ -84.6848096, 37.8599766 ], [ -84.684746, 37.8594244 ], [ -84.679882, 37.858074 ], [ -84.6841071, 37.8543593 ], [ -84.6841588, 37.8541615 ], [ -84.6839646, 37.8535968 ], [ -84.6838128, 37.853062 ], [ -84.6838616, 37.8530051 ], [ -84.6839104, 37.8528606 ], [ -84.683977, 37.8523758 ], [ -84.6841098, 37.8515311 ], [ -84.6841152, 37.8514968 ], [ -84.6842133, 37.8508754 ], [ -84.6845647, 37.8495018 ], [ -84.6846211, 37.8495154 ], [ -84.6866137, 37.8499965 ], [ -84.6872813, 37.8501577 ], [ -84.6885465, 37.8504632 ], [ -84.6883974, 37.8507958 ], [ -84.688215, 37.8516617 ], [ -84.6881444, 37.8529041 ], [ -84.6880786, 37.853426 ], [ -84.6881824, 37.8539243 ], [ -84.6884635, 37.8540332 ], [ -84.6885532, 37.8542197 ], [ -84.6885135, 37.854506 ], [ -84.6885542, 37.8546028 ], [ -84.6890214, 37.8557145 ], [ -84.6896821, 37.8571276 ] ] ] } },
{ "type": "Feature", "properties": { "element_type": "relation", "osmid": "2991480", "amenity": "university", "ele": "nan", "gnis:county_id": "nan", "gnis:created": "nan", "gnis:feature_id": "nan", "gnis:state_id": "nan", "name": "Glide-Crawford Hall", "operator": "Asbury University", "nodes": [ [ [ 1438442551, 1438442563, 1438442552, 5098516981, 1438442550, 1438442568, 1438442565, 2338537558, 2338537556, 2338537560, 2338537535, 2338537525, 1438442549, 4639306187, 1438442551 ], [ 2338537511, 2338537521, 2338537473, 2338537457, 2338537511 ] ] ], "wikidata": "nan", "addr:city": "nan", "addr:housenumber": "nan", "addr:state": "nan", "addr:street": "nan", "building": "yes", "addr:postcode": "nan", "wheelchair": "nan", "atm": "nan", "internet_access": "nan", "building:levels": "nan", "addr:housename": "nan", "internet_access:fee": "nan", "source": "nan", "levels": "nan", "landuse": "nan", "phone": "nan", "website": "nan", "wikipedia": "nan", "ways": [ 130666476, 225026281 ], "type": "multipolygon" }, "geometry": { "type": "Polygon", "coordinates": [ [ [ -84.6614957, 37.8635276 ], [ -84.6616027, 37.8638286 ], [ -84.6615354, 37.8638458 ], [ -84.6615439, 37.8638665 ], [ -84.6611452, 37.8639684 ], [ -84.6611367, 37.8639477 ], [ -84.661074, 37.8639638 ], [ -84.6609163, 37.8635605 ], [ -84.6610956, 37.8635188 ], [ -84.6610801, 37.8634746 ], [ -84.6611545, 37.8634555 ], [ -84.6612363, 37.8634371 ], [ -84.6612495, 37.8634749 ], [ -84.661459, 37.8634244 ], [ -84.6614957, 37.8635276 ] ], [ [ -84.661341, 37.8635905 ], [ -84.6611177, 37.8636402 ], [ -84.6611856, 37.8638306 ], [ -84.661409, 37.8637809 ], [ -84.661341, 37.8635905 ] ] ] } },
{ "type": "Feature", "properties": { "element_type": "relation", "osmid": "4815526", "amenity": "university", "ele": "nan", "gnis:county_id": "nan", "gnis:created": "nan", "gnis:feature_id": "505846", "gnis:state_id": "nan", "name": "University of Kentucky", "operator": "nan", "nodes": [ [ [ 3468182879, 3468182878, 3468149265, 3468149264, 3468149263, 3394727534, 3394727535, 3394727536, 3394727537, 3393115532, 3394727538, 3394727539, 3409053649, 4079447495, 3409053648, 3394727540, 3409053647, 7134828240, 3394727541, 3394727542, 4679381305, 4679381304, 3394727543, 3394727544, 3394727545, 4010046356, 4010046355, 3394727546, 3394727547, 3394727548, 4002857782, 3394727549, 3394727550, 3394727551, 3394727552, 3394727553, 3394727554, 3394727556, 3394727555, 3394727557, 3394727558, 2631983494, 2631983493, 2631983492, 3394727363, 3394727364, 3394727365, 3394727366, 3394727367, 3381184815, 3394727368, 3394727369, 3394727370, 3394727371, 3394727372, 3394727373, 2689331542, 2689331541, 3394727374, 3394727375, 3394727376, 3394727377, 3394727378, 3394727379, 9073079839, 3394727380, 4038846922, 3757661895, 8221973008, 1259943833, 4038846924, 3394727384, 3418891754, 3418891729, 3394727385, 3394727386, 3394727387, 3394727388, 9073574163, 3394727389, 8062418176, 4028328084, 4028328083, 4028328082, 3394727390, 3394727391, 4030824293, 3394727392, 3394727493, 8228241025, 3394727494, 8221867995, 10959466577, 10959466575, 163430246, 8230467300, 3394727495, 3394727497, 3394727498, 3394727499, 7025279682, 4029272723, 4029272777, 8230345510, 3394727500, 5144317394, 3468163572, 3468163573, 3468163574, 3468163575, 3468163576, 4049453560, 4049453611, 3394727502, 3394727503, 3394727504, 3394727505, 3394727506, 9528095488, 3757660576, 3394727507, 8388593307, 3394727508, 9501559742, 8388593305, 3394727513, 8388593306, 3394727509, 3394727510, 3394727511, 3394727512, 3394727514, 8388593304, 8388593303, 9501571431, 5144317322, 3394727515, 3394727516, 3394727517, 3394727518, 3394727519, 3394727520, 3394727521, 3394727522, 8793334591, 3394727523, 5144317324, 3394727524, 3394727525, 4129059788, 3394727526, 3394727527, 3394727528, 3394727529, 3394727530, 3394727531, 3394727532, 3468149266, 3468149262, 3468182879 ], [ 2629857918, 2629857921, 2629857923, 2629857925, 2629857927, 2629857929, 2629857931, 2629857933, 2629857934, 2629857935, 2629857936, 2629857918 ] ] ], "wikidata": "Q1360303", "addr:city": "Lexington", "addr:housenumber": "101", "addr:state": "KY", "addr:street": "Main Building", "building": "nan", "addr:postcode": "40506", "wheelchair": "nan", "atm": "nan", "internet_access": "nan", "building:levels": "nan", "addr:housename": "nan", "internet_access:fee": "nan", "source": "nan", "levels": "nan", "landuse": "nan", "phone": "+1 859 257 9000", "website": "http://www.uky.edu/", "wikipedia": "nan", "ways": [ 332357782, 257471351 ], "type": "multipolygon" }, "geometry": { "type": "Polygon", "coordinates": [ [ [ -84.5120536, 38.0267133 ], [ -84.5123138, 38.0269267 ], [ -84.512244, 38.0271634 ], [ -84.5117793, 38.0273395 ], [ -84.5108513, 38.0271493 ], [ -84.5105637, 38.0279125 ], [ -84.5101737, 38.0290645 ], [ -84.5110025, 38.0292608 ], [ -84.5108021, 38.0296448 ], [ -84.5125517, 38.0299947 ], [ -84.5152329, 38.0306389 ], [ -84.5144192, 38.0320336 ], [ -84.5138533, 38.0331384 ], [ -84.5132538, 38.0343087 ], [ -84.5125892, 38.0358001 ], [ -84.5124395, 38.0361603 ], [ -84.5118805, 38.0371586 ], [ -84.5115316, 38.0377515 ], [ -84.51069, 38.0374152 ], [ -84.511623, 38.0360491 ], [ -84.5117781, 38.0358222 ], [ -84.5119382, 38.0355877 ], [ -84.5111913, 38.0354213 ], [ -84.5110608, 38.0359745 ], [ -84.510599, 38.0365566 ], [ -84.5105458, 38.0366389 ], [ -84.5104232, 38.0368285 ], [ -84.5095827, 38.0381604 ], [ -84.508561, 38.0379345 ], [ -84.5074709, 38.0376897 ], [ -84.5074135, 38.0376768 ], [ -84.5071696, 38.038464 ], [ -84.5079767, 38.0386219 ], [ -84.5078738, 38.0388693 ], [ -84.5080471, 38.038912 ], [ -84.5079063, 38.0392959 ], [ -84.5075867, 38.0392362 ], [ -84.5075163, 38.0394069 ], [ -84.5089297, 38.0397151 ], [ -84.5089931, 38.0395321 ], [ -84.5091165, 38.0395532 ], [ -84.5090467, 38.0398194 ], [ -84.5097334, 38.039963 ], [ -84.5099733, 38.0397704 ], [ -84.5101317, 38.0397985 ], [ -84.5100327, 38.0400823 ], [ -84.5099614, 38.0405906 ], [ -84.509997, 38.0409992 ], [ -84.5100761, 38.041487 ], [ -84.5102762, 38.0420924 ], [ -84.5090111, 38.0426809 ], [ -84.5081122, 38.0431291 ], [ -84.5073367, 38.0436045 ], [ -84.5069005, 38.0432414 ], [ -84.506164, 38.0436967 ], [ -84.505846, 38.0433702 ], [ -84.506361, 38.0430175 ], [ -84.5065203, 38.042914 ], [ -84.5054987, 38.0420127 ], [ -84.5052413, 38.041969 ], [ -84.50439, 38.041258 ], [ -84.5043105, 38.0411889 ], [ -84.5030306, 38.0420989 ], [ -84.5030125, 38.0421123 ], [ -84.5018685, 38.0429397 ], [ -84.501804, 38.043019 ], [ -84.501279, 38.043396 ], [ -84.5012755, 38.0433975 ], [ -84.5008842, 38.0430491 ], [ -84.5003385, 38.043402 ], [ -84.4998837, 38.0430231 ], [ -84.4997236, 38.0428728 ], [ -84.4996231, 38.0427785 ], [ -84.4995947, 38.0427518 ], [ -84.4993373, 38.0425584 ], [ -84.4988259, 38.0421168 ], [ -84.499367, 38.0417244 ], [ -84.4994525, 38.0417951 ], [ -84.4995697, 38.0418943 ], [ -84.4996024, 38.0419195 ], [ -84.499871, 38.042159 ], [ -84.5004908, 38.0417235 ], [ -84.5000414, 38.04133 ], [ -84.5003157, 38.0411576 ], [ -84.49997, 38.0408504 ], [ -84.4991754, 38.0414358 ], [ -84.499106, 38.041487 ], [ -84.4982057, 38.0406913 ], [ -84.4971052, 38.0397069 ], [ -84.497097, 38.039702 ], [ -84.4971014, 38.0397004 ], [ -84.4977105, 38.0392724 ], [ -84.4977395, 38.0392521 ], [ -84.4985153, 38.0387087 ], [ -84.4985427, 38.0386899 ], [ -84.498615, 38.0386413 ], [ -84.4982309, 38.0382956 ], [ -84.4993753, 38.0374684 ], [ -84.4987538, 38.0369169 ], [ -84.4978018, 38.0360613 ], [ -84.497363, 38.0356669 ], [ -84.4959952, 38.0344524 ], [ -84.4959298, 38.0343794 ], [ -84.4956185, 38.0341117 ], [ -84.496816, 38.0333252 ], [ -84.4976153, 38.0327505 ], [ -84.4968374, 38.032066 ], [ -84.4973256, 38.0316899 ], [ -84.4982, 38.0324716 ], [ -84.4987218, 38.032149 ], [ -84.497484, 38.0310599 ], [ -84.4973766, 38.0309688 ], [ -84.497325, 38.030925 ], [ -84.4980433, 38.0302597 ], [ -84.497634, 38.0299755 ], [ -84.4978379, 38.0298022 ], [ -84.4958983, 38.0288967 ], [ -84.4982861, 38.0259291 ], [ -84.4991909, 38.0246723 ], [ -84.5014996, 38.0217157 ], [ -84.4998269, 38.0210073 ], [ -84.4987511, 38.0205819 ], [ -84.4987459, 38.0205511 ], [ -84.4986182, 38.0197898 ], [ -84.4984839, 38.0192036 ], [ -84.4984357, 38.0189776 ], [ -84.4984633, 38.0186441 ], [ -84.4985339, 38.0179099 ], [ -84.4982391, 38.0177948 ], [ -84.4977595, 38.0176659 ], [ -84.497416, 38.0175715 ], [ -84.4974904, 38.0165166 ], [ -84.4975324, 38.0157534 ], [ -84.4975566, 38.0153677 ], [ -84.4975855, 38.014906 ], [ -84.4976425, 38.0142366 ], [ -84.4953873, 38.0136272 ], [ -84.495427, 38.0132668 ], [ -84.5029878, 38.0143147 ], [ -84.503538, 38.0096954 ], [ -84.5059574, 38.0106041 ], [ -84.5051581, 38.0130513 ], [ -84.5118689, 38.0139515 ], [ -84.5115763, 38.0152153 ], [ -84.5113828, 38.0160117 ], [ -84.5112018, 38.0166099 ], [ -84.5106832, 38.0193784 ], [ -84.5105586, 38.0200143 ], [ -84.5098369, 38.0212981 ], [ -84.5098054, 38.0213541 ], [ -84.5110729, 38.0219174 ], [ -84.5125842, 38.0225105 ], [ -84.5115279, 38.0253524 ], [ -84.5117771, 38.0254078 ], [ -84.5137054, 38.0263252 ], [ -84.5134075, 38.0267861 ], [ -84.5125069, 38.0264132 ], [ -84.5115701, 38.0260253 ], [ -84.5113896, 38.0265449 ], [ -84.5120536, 38.0267133 ] ], [ [ -84.5061176, 38.0424602 ], [ -84.5067197, 38.0430322 ], [ -84.5069174, 38.0429055 ], [ -84.5068576, 38.0428548 ], [ -84.5069404, 38.0427969 ], [ -84.5070047, 38.0426702 ], [ -84.5068025, 38.0424819 ], [ -84.5068806, 38.0424276 ], [ -84.5068162, 38.0423624 ], [ -84.5068622, 38.0423226 ], [ -84.5066278, 38.0421127 ], [ -84.5061176, 38.0424602 ] ] ] } }
]
}
