{
"type": "FeatureCollection",
"crs": { "type": "name", "properties": { "name": "urn:ogc:def:crs:OGC:1.3:CRS84" } },
"features": [
{ "type": "Feature", "properties": { "element_type": "node", "osmid": "358582551", "amenity": "school", "ele": "294", "gnis:county_id": "067", "gnis:created": "01/01/2000", "gnis:feature_id": "487679", "gnis:state_id": "21", "name": "Booker T Washington Montessori Magnet School", "wikidata": "nan", "operator": "nan", "designation": "nan", "addr:city": "nan", "addr:housenumber": "nan", "addr:postcode": "nan", "addr:street": "nan", "sport": "nan", "website": "nan", "addr:state": "nan", "email": "nan", "fax": "nan", "phone": "nan", "denomination": "nan", "grades": "nan", "religion": "nan", "nodes": "nan", "building": "nan", "addr:housename": "nan", "wikipedia": "nan", "building:levels": "nan", "gnis:edited": "nan", "name:etymology:wikidata": "nan", "capacity": "nan", "contact:email": "nan", "contact:phone": "nan", "contact:website": "nan", "fee": "nan", "operator:type": "nan", "preschool": "nan", "ways": "nan", "type": "nan" }, "geometry": { "type": "Point", "coordinates": [ -84.5015602, 38.0624998 ] } },
{ "type": "Feature", "properties": { "element_type": "node", "osmid": "358582792", "amenity": "school", "ele": "304", "gnis:county_id": "067", "gnis:created": "09/20/1979", "gnis:feature_id": "487872", "gnis:state_id": "21", "name": "Briar Hill School", "wikidata": "nan", "operator": "nan", "designation": "nan", "addr:city": "nan", "addr:housenumber": "nan", "addr:postcode": "nan", "addr:street": "nan", "sport": "nan", "website": "nan", "addr:state": "nan", "email": "nan", "fax": "nan", "phone": "nan", "denomination": "nan", "grades": "nan", "religion": "nan", "nodes": "nan", "building": "nan", "addr:housename": "nan", "wikipedia": "nan", "building:levels": "nan", "gnis:edited": "nan", "name:etymology:wikidata": "nan", "capacity": "nan", "contact:email": "nan", "contact:phone": "nan", "contact:website": "nan", "fee": "nan", "operator:type": "nan", "preschool": "nan", "ways": "nan", "type": "nan" }, "geometry": { "type": "Point", "coordinates": [ -84.3560452, 38.0667442 ] } },
{ "type": "Feature", "properties": { "element_type": "node", "osmid": "358584577", "amenity": "school", "ele": "285", "gnis:county_id": "067", "gnis:created": "09/20/1979", "gnis:feature_id": "489288", "gnis:state_id": "21", "name": "Bluegrass Community & Technical College - Leestown Campus", "wikidata": "nan", "operator": "nan", "designation": "nan", "addr:city": "nan", "addr:housenumber": "nan", "addr:postcode": "nan", "addr:street": "nan", "sport": "nan", "website": "nan", "addr:state": "nan", "email": "nan", "fax": "nan", "phone": "nan", "denomination": "nan", "grades": "nan", "religion": "nan", "nodes": "nan", "building": "nan", "addr:housename": "nan", "wikipedia": "nan", "building:levels": "nan", "gnis:edited": "nan", "name:etymology:wikidata": "nan", "capacity": "nan", "contact:email": "nan", "contact:phone": "nan", "contact:website": "nan", "fee": "nan", "operator:type": "nan", "preschool": "nan", "ways": "nan", "type": "nan" }, "geometry": { "type": "Point", "coordinates": [ -84.5360513, 38.0681324 ] } },
{ "type": "Feature", "properties": { "element_type": "node", "osmid": "358584955", "amenity": "school", "ele": "316", "gnis:county_id": "067", "gnis:created": "09/20/1979", "gnis:feature_id": "489492", "gnis:state_id": "21", "name": "Christ the King School", "wikidata": "nan", "operator": "nan", "designation": "nan", "addr:city": "nan", "addr:housenumber": "nan", "addr:postcode": "nan", "addr:street": "nan", "sport": "nan", "website": "nan", "addr:state": "nan", "email": "nan", "fax": "nan", "phone": "nan", "denomination": "nan", "grades": "nan", "religion": "nan", "nodes": "nan", "building": "nan", "addr:housename": "nan", "wikipedia": "nan", "building:levels": "nan", "gnis:edited": "nan", "name:etymology:wikidata": "nan", "capacity": "nan", "contact:email": "nan", "contact:phone": "nan", "contact:website": "nan", "fee": "nan", "operator:type": "nan", "preschool": "nan", "ways": "nan", "type": "nan" }, "geometry": { "type": "Point", "coordinates": [ -84.4873672, 38.0222606 ] } },
{ "type": "Feature", "properties": { "element_type": "node", "osmid": "358586200", "amenity": "school", "ele": "296", "gnis:county_id": "067", "gnis:created": "01/01/2000", "gnis:feature_id": "490307", "gnis:state_id": "21", "name": "Crawford Middle School", "wikidata": "nan", "operator": "nan", "designation": "nan", "addr:city": "nan", "addr:housenumber": "nan", "addr:postcode": "nan", "addr:street": "nan", "sport": "nan", "website": "nan", "addr:state": "nan", "email": "nan", "fax": "nan", "phone": "nan", "denomination": "nan", "grades": "nan", "religion": "nan", "nodes": "nan", "building": "nan", "addr:housename": "nan", "wikipedia": "nan", "building:levels": "nan", "gnis:edited": "nan", "name:etymology:wikidata": "nan", "capacity": "nan", "contact:email": "nan", "contact:phone": "nan", "contact:website": "nan", "fee": "nan", "operator:type": "nan", "preschool": "nan", "ways": "nan", "type": "nan" }, "geometry": { "type": "Point", "coordinates": [ -84.4313416, 38.0516609 ] } },
{ "type": "Feature", "properties": { "element_type": "node", "osmid": "358595639", "amenity": "school", "ele": "286", "gnis:county_id": "067", "gnis:created": "01/01/2000", "gnis:feature_id": "496186", "gnis:state_id": "21", "name": "Leestown Middle School", "wikidata": "nan", "operator": "nan", "designation": "nan", "addr:city": "nan", "addr:housenumber": "nan", "addr:postcode": "nan", "addr:street": "nan", "sport": "nan", "website": "nan", "addr:state": "nan", "email": "nan", "fax": "nan", "phone": "nan", "denomination": "nan", "grades": "nan", "religion": "nan", "nodes": "nan", "building": "nan", "addr:housename": "nan", "wikipedia": "nan", "building:levels": "nan", "gnis:edited": "nan", "name:etymology:wikidata": "nan", "capacity": "nan", "contact:email": "nan", "contact:phone": "nan", "contact:website": "nan", "fee": "nan", "operator:type": "nan", "preschool": "nan", "ways": "nan", "type": "nan" }, "geometry": { "type": "Point", "coordinates": [ -84.5341069, 38.0720211 ] } },
{ "type": "Feature", "properties": { "element_type": "node", "osmid": "358599632", "amenity": "school", "ele": "292", "gnis:county_id": "113", "gnis:created": "09/20/1979", "gnis:feature_id": "498857", "gnis:state_id": "21", "name": "Mount Pleasant School", "wikidata": "nan", "operator": "nan", "designation": "nan", "addr:city": "nan", "addr:housenumber": "nan", "addr:postcode": "nan", "addr:street": "nan", "sport": "nan", "website": "nan", "addr:state": "nan", "email": "nan", "fax": "nan", "phone": "nan", "denomination": "nan", "grades": "nan", "religion": "nan", "nodes": "nan", "building": "nan", "addr:housename": "nan", "wikipedia": "nan", "building:levels": "nan", "gnis:edited": "nan", "name:etymology:wikidata": "nan", "capacity": "nan", "contact:email": "nan", "contact:phone": "nan", "contact:website": "nan", "fee": "nan", "operator:type": "nan", "preschool": "nan", "ways": "nan", "type": "nan" }, "geometry": { "type": "Point", "coordinates": [ -84.6297932, 37.9473274 ] } },
{ "type": "Feature", "properties": { "element_type": "node", "osmid": "358602078", "amenity": "school", "ele": "254", "gnis:county_id": "017", "gnis:created": "09/20/1979", "gnis:feature_id": "500175", "gnis:state_id": "21", "name": "Paris High School", "wikidata": "Q7137296", "operator": "nan", "designation": "nan", "addr:city": "nan", "addr:housenumber": "nan", "addr:postcode": "nan", "addr:street": "nan", "sport": "nan", "website": "nan", "addr:state": "nan", "email": "nan", "fax": "nan", "phone": "nan", "denomination": "nan", "grades": "nan", "religion": "nan", "nodes": "nan", "building": "nan", "addr:housename": "nan", "wikipedia": "nan", "building:levels": "nan", "gnis:edited": "nan", "name:etymology:wikidata": "nan", "capacity": "nan", "contact:email": "nan", "contact:phone": "nan", "contact:website": "nan", "fee": "nan", "operator:type": "nan", "preschool": "nan", "ways": "nan", "type": "nan" }, "geometry": { "type": "Point", "coordinates": [ -84.2549314, 38.2125765 ] } },
{ "type": "Feature", "properties": { "element_type": "node", "osmid": "358603170", "amenity": "school", "ele": "292", "gnis:county_id": "239", "gnis:created": "09/20/1979", "gnis:feature_id": "500770", "gnis:state_id": "21", "name": "Pisgah School", "wikidata": "nan", "operator": "nan", "designation": "nan", "addr:city": "nan", "addr:housenumber": "nan", "addr:postcode": "nan", "addr:street": "nan", "sport": "nan", "website": "nan", "addr:state": "nan", "email": "nan", "fax": "nan", "phone": "nan", "denomination": "nan", "grades": "nan", "religion": "nan", "nodes": "nan", "building": "nan", "addr:housename": "nan", "wikipedia": "nan", "building:levels": "nan", "gnis:edited": "nan", "name:etymology:wikidata": "nan", "capacity": "nan", "contact:email": "nan", "contact:phone": "nan", "contact:website": "nan", "fee": "nan", "operator:type": "nan", "preschool": "nan", "ways": "nan", "type": "nan" }, "geometry": { "type": "Point", "coordinates": [ -84.653555, 38.0489653 ] } },
{ "type": "Feature", "properties": { "element_type": "node", "osmid": "358604345", "amenity": "school", "ele": "298", "gnis:county_id": "049", "gnis:created": "09/20/1979", "gnis:feature_id": "501383", "gnis:state_id": "21", "name": "Providence School", "wikidata": "nan", "operator": "nan", "designation": "nan", "addr:city": "nan", "addr:housenumber": "nan", "addr:postcode": "nan", "addr:street": "nan", "sport": "nan", "website": "nan", "addr:state": "nan", "email": "nan", "fax": "nan", "phone": "nan", "denomination": "nan", "grades": "nan", "religion": "nan", "nodes": "nan", "building": "nan", "addr:housename": "nan", "wikipedia": "nan", "building:levels": "nan", "gnis:edited": "nan", "name:etymology:wikidata": "nan", "capacity": "nan", "contact:email": "nan", "contact:phone": "nan", "contact:website": "nan", "fee": "nan", "operator:type": "nan", "preschool": "nan", "ways": "nan", "type": "nan" }, "geometry": { "type": "Point", "coordinates": [ -84.24493, 37.9184122 ] } },
{ "type": "Feature", "properties": { "element_type": "node", "osmid": "358605745", "amenity": "school", "ele": "290", "gnis:county_id": "067", "gnis:created": "01/01/2000", "gnis:feature_id": "502504", "gnis:state_id": "21", "name": "Russell Cave Elementary School", "wikidata": "nan", "operator": "Fayette County Public Schools", "designation": "nan", "addr:city": "nan", "addr:housenumber": "nan", "addr:postcode": "nan", "addr:street": "nan", "sport": "nan", "website": "nan", "addr:state": "nan", "email": "nan", "fax": "nan", "phone": "nan", "denomination": "nan", "grades": "nan", "religion": "nan", "nodes": "nan", "building": "nan", "addr:housename": "nan", "wikipedia": "nan", "building:levels": "nan", "gnis:edited": "nan", "name:etymology:wikidata": "nan", "capacity": "nan", "contact:email": "nan", "contact:phone": "nan", "contact:website": "nan", "fee": "nan", "operator:type": "nan", "preschool": "nan", "ways": "nan", "type": "nan" }, "geometry": { "type": "Point", "coordinates": [ -84.4463379, 38.1206809 ] } },
{ "type": "Feature", "properties": { "element_type": "node", "osmid": "358608188", "amenity": "school", "ele": "261", "gnis:county_id": "017", "gnis:created": "09/20/1979", "gnis:feature_id": "503978", "gnis:state_id": "21", "name": "South Side School", "wikidata": "nan", "operator": "nan", "designation": "nan", "addr:city": "nan", "addr:housenumber": "nan", "addr:postcode": "nan", "addr:street": "nan", "sport": "nan", "website": "nan", "addr:state": "nan", "email": "nan", "fax": "nan", "phone": "nan", "denomination": "nan", "grades": "nan", "religion": "nan", "nodes": "nan", "building": "nan", "addr:housename": "nan", "wikipedia": "nan", "building:levels": "nan", "gnis:edited": "nan", "name:etymology:wikidata": "nan", "capacity": "nan", "contact:email": "nan", "contact:phone": "nan", "contact:website": "nan", "fee": "nan", "operator:type": "nan", "preschool": "nan", "ways": "nan", "type": "nan" }, "geometry": { "type": "Point", "coordinates": [ -84.2599315, 38.2042432 ] } },
{ "type": "Feature", "properties": { "element_type": "node", "osmid": "358608860", "amenity": "school", "ele": "294", "gnis:county_id": "067", "gnis:created": "01/01/2000", "gnis:feature_id": "505317", "gnis:state_id": "21", "name": "Mary Todd Elementary School", "wikidata": "nan", "operator": "nan", "designation": "nan", "addr:city": "nan", "addr:housenumber": "nan", "addr:postcode": "nan", "addr:street": "nan", "sport": "nan", "website": "nan", "addr:state": "nan", "email": "nan", "fax": "nan", "phone": "nan", "denomination": "nan", "grades": "nan", "religion": "nan", "nodes": "nan", "building": "nan", "addr:housename": "nan", "wikipedia": "nan", "building:levels": "nan", "gnis:edited": "nan", "name:etymology:wikidata": "nan", "capacity": "nan", "contact:email": "nan", "contact:phone": "nan", "contact:website": "nan", "fee": "nan", "operator:type": "nan", "preschool": "nan", "ways": "nan", "type": "nan" }, "geometry": { "type": "Point", "coordinates": [ -84.4533634, 38.083145 ] } },
{ "type": "Feature", "properties": { "element_type": "node", "osmid": "358609151", "amenity": "school", "ele": "291", "gnis:county_id": "067", "gnis:created": "09/20/1979", "gnis:feature_id": "505838", "gnis:state_id": "21", "name": "University of Kentucky Agricultural Experimental Station", "wikidata": "nan", "operator": "nan", "designation": "nan", "addr:city": "nan", "addr:housenumber": "nan", "addr:postcode": "nan", "addr:street": "nan", "sport": "nan", "website": "nan", "addr:state": "nan", "email": "nan", "fax": "nan", "phone": "nan", "denomination": "nan", "grades": "nan", "religion": "nan", "nodes": "nan", "building": "nan", "addr:housename": "nan", "wikipedia": "nan", "building:levels": "nan", "gnis:edited": "nan", "name:etymology:wikidata": "nan", "capacity": "nan", "contact:email": "nan", "contact:phone": "nan", "contact:website": "nan", "fee": "nan", "operator:type": "nan", "preschool": "nan", "ways": "nan", "type": "nan" }, "geometry": { "type": "Point", "coordinates": [ -84.4916057, 38.0934099 ] } },
{ "type": "Feature", "properties": { "element_type": "node", "osmid": "358609152", "amenity": "school", "ele": "286", "gnis:county_id": "067", "gnis:created": "09/20/1979", "gnis:feature_id": "505839", "gnis:state_id": "21", "name": "University of Kentucky Agricultural Experimental Station", "wikidata": "nan", "operator": "nan", "designation": "nan", "addr:city": "nan", "addr:housenumber": "nan", "addr:postcode": "nan", "addr:street": "nan", "sport": "nan", "website": "nan", "addr:state": "nan", "email": "nan", "fax": "nan", "phone": "nan", "denomination": "nan", "grades": "nan", "religion": "nan", "nodes": "nan", "building": "nan", "addr:housename": "nan", "wikipedia": "nan", "building:levels": "nan", "gnis:edited": "nan", "name:etymology:wikidata": "nan", "capacity": "nan", "contact:email": "nan", "contact:phone": "nan", "contact:website": "nan", "fee": "nan", "operator:type": "nan", "preschool": "nan", "ways": "nan", "type": "nan" }, "geometry": { "type": "Point", "coordinates": [ -84.4846543, 38.1080675 ] } },
{ "type": "Feature", "properties": { "element_type": "node", "osmid": "358609154", "amenity": "school", "ele": "280", "gnis:county_id": "067", "gnis:created": "09/20/1979", "gnis:feature_id": "505840", "gnis:state_id": "21", "name": "University of Kentucky Agricultural Experimental Station", "wikidata": "nan", "operator": "nan", "designation": "nan", "addr:city": "nan", "addr:housenumber": "nan", "addr:postcode": "nan", "addr:street": "nan", "sport": "nan", "website": "nan", "addr:state": "nan", "email": "nan", "fax": "nan", "phone": "nan", "denomination": "nan", "grades": "nan", "religion": "nan", "nodes": "nan", "building": "nan", "addr:housename": "nan", "wikipedia": "nan", "building:levels": "nan", "gnis:edited": "nan", "name:etymology:wikidata": "nan", "capacity": "nan", "contact:email": "nan", "contact:phone": "nan", "contact:website": "nan", "fee": "nan", "operator:type": "nan", "preschool": "nan", "ways": "nan", "type": "nan" }, "geometry": { "type": "Point", "coordinates": [ -84.5049397, 38.1222984 ] } },
{ "type": "Feature", "properties": { "element_type": "node", "osmid": "358609605", "amenity": "school", "ele": "257", "gnis:county_id": "017", "gnis:created": "09/20/1979", "gnis:feature_id": "506491", "gnis:state_id": "21", "name": "Western High School", "wikidata": "nan", "operator": "nan", "designation": "nan", "addr:city": "nan", "addr:housenumber": "nan", "addr:postcode": "nan", "addr:street": "nan", "sport": "nan", "website": "nan", "addr:state": "nan", "email": "nan", "fax": "nan", "phone": "nan", "denomination": "nan", "grades": "nan", "religion": "nan", "nodes": "nan", "building": "nan", "addr:housename": "nan", "wikipedia": "nan", "building:levels": "nan", "gnis:edited": "nan", "name:etymology:wikidata": "nan", "capacity": "nan", "contact:email": "nan", "contact:phone": "nan", "contact:website": "nan", "fee": "nan", "operator:type": "nan", "preschool": "nan", "ways": "nan", "type": "nan" }, "geometry": { "type": "Point", "coordinates": [ -84.2590982, 38.2134097 ] } },
{ "type": "Feature", "properties": { "element_type": "node", "osmid": "358615001", "amenity": "school", "ele": "307", "gnis:county_id": "067", "gnis:created": "01/01/2000", "gnis:feature_id": "2054516", "gnis:state_id": "21", "name": "Trinity Christian Academy", "wikidata": "nan", "operator": "nan", "designation": "nan", "addr:city": "nan", "addr:housenumber": "nan", "addr:postcode": "nan", "addr:street": "nan", "sport": "nan", "website": "nan", "addr:state": "nan", "email": "nan", "fax": "nan", "phone": "nan", "denomination": "nan", "grades": "nan", "religion": "nan", "nodes": "nan", "building": "nan", "addr:housename": "nan", "wikipedia": "nan", "building:levels": "nan", "gnis:edited": "nan", "name:etymology:wikidata": "nan", "capacity": "nan", "contact:email": "nan", "contact:phone": "nan", "contact:website": "nan", "fee": "nan", "operator:type": "nan", "preschool": "nan", "ways": "nan", "type": "nan" }, "geometry": { "type": "Point", "coordinates": [ -84.4816043, 37.9642449 ] } },
{ "type": "Feature", "properties": { "element_type": "node", "osmid": "358615008", "amenity": "school", "ele": "309", "gnis:county_id": "067", "gnis:created": "01/01/2000", "gnis:feature_id": "2054521", "gnis:state_id": "21", "name": "Squires Elementary School", "wikidata": "nan", "operator": "nan", "designation": "nan", "addr:city": "nan", "addr:housenumber": "nan", "addr:postcode": "nan", "addr:street": "nan", "sport": "nan", "website": "nan", "addr:state": "nan", "email": "nan", "fax": "nan", "phone": "nan", "denomination": "nan", "grades": "nan", "religion": "nan", "nodes": "nan", "building": "nan", "addr:housename": "nan", "wikipedia": "nan", "building:levels": "nan", "gnis:edited": "nan", "name:etymology:wikidata": "nan", "capacity": "nan", "contact:email": "nan", "contact:phone": "nan", "contact:website": "nan", "fee": "nan", "operator:type": "nan", "preschool": "nan", "ways": "nan", "type": "nan" }, "geometry": { "type": "Point", "coordinates": [ -84.4591036, 37.970356 ] } },
{ "type": "Feature", "properties": { "element_type": "node", "osmid": "358615016", "amenity": "school", "ele": "301", "gnis:county_id": "067", "gnis:created": "02/16/2005", "gnis:feature_id": "2061155", "gnis:state_id": "21", "name": "The Academy at Lexington", "wikidata": "nan", "operator": "nan", "designation": "nan", "addr:city": "nan", "addr:housenumber": "nan", "addr:postcode": "nan", "addr:street": "nan", "sport": "nan", "website": "nan", "addr:state": "nan", "email": "nan", "fax": "nan", "phone": "nan", "denomination": "nan", "grades": "nan", "religion": "nan", "nodes": "nan", "building": "nan", "addr:housename": "nan", "wikipedia": "nan", "building:levels": "nan", "gnis:edited": "nan", "name:etymology:wikidata": "nan", "capacity": "nan", "contact:email": "nan", "contact:phone": "nan", "contact:website": "nan", "fee": "nan", "operator:type": "nan", "preschool": "nan", "ways": "nan", "type": "nan" }, "geometry": { "type": "Point", "coordinates": [ -84.5037231, 38.070343 ] } },
{ "type": "Feature", "properties": { "element_type": "node", "osmid": "358615020", "amenity": "school", "ele": "310", "gnis:county_id": "067", "gnis:created": "02/16/2005", "gnis:feature_id": "2061158", "gnis:state_id": "21", "name": "Edythe J Hayes Middle School", "wikidata": "nan", "operator": "nan", "designation": "nan", "addr:city": "nan", "addr:housenumber": "nan", "addr:postcode": "nan", "addr:street": "nan", "sport": "nan", "website": "nan", "addr:state": "nan", "email": "nan", "fax": "nan", "phone": "nan", "denomination": "nan", "grades": "nan", "religion": "nan", "nodes": "nan", "building": "nan", "addr:housename": "nan", "wikipedia": "nan", "building:levels": "nan", "gnis:edited": "nan", "name:etymology:wikidata": "nan", "capacity": "nan", "contact:email": "nan", "contact:phone": "nan", "contact:website": "nan", "fee": "nan", "operator:type": "nan", "preschool": "nan", "ways": "nan", "type": "nan" }, "geometry": { "type": "Point", "coordinates": [ -84.4109768, 37.9799162 ] } },
{ "type": "Feature", "properties": { "element_type": "node", "osmid": "666598974", "amenity": "school", "ele": "nan", "gnis:county_id": "nan", "gnis:created": "nan", "gnis:feature_id": "nan", "gnis:state_id": "nan", "name": "Edythe J. Hayes Middle School", "wikidata": "nan", "operator": "nan", "designation": "nan", "addr:city": "nan", "addr:housenumber": "nan", "addr:postcode": "nan", "addr:street": "nan", "sport": "nan", "website": "nan", "addr:state": "nan", "email": "nan", "fax": "nan", "phone": "nan", "denomination": "nan", "grades": "nan", "religion": "nan", "nodes": "nan", "building": "nan", "addr:housename": "nan", "wikipedia": "nan", "building:levels": "nan", "gnis:edited": "nan", "name:etymology:wikidata": "nan", "capacity": "nan", "contact:email": "nan", "contact:phone": "nan", "contact:website": "nan", "fee": "nan", "operator:type": "nan", "preschool": "nan", "ways": "nan", "type": "nan" }, "geometry": { "type": "Point", "coordinates": [ -84.4010955, 37.9923339 ] } },
{ "type": "Feature", "properties": { "element_type": "node", "osmid": "1582023888", "amenity": "school", "ele": "nan", "gnis:county_id": "nan", "gnis:created": "nan", "gnis:feature_id": "nan", "gnis:state_id": "nan", "name": "Sayre School", "wikidata": "nan", "operator": "nan", "designation": "Private", "addr:city": "nan", "addr:housenumber": "nan", "addr:postcode": "nan", "addr:street": "nan", "sport": "nan", "website": "nan", "addr:state": "nan", "email": "nan", "fax": "nan", "phone": "nan", "denomination": "nan", "grades": "nan", "religion": "nan", "nodes": "nan", "building": "nan", "addr:housename": "nan", "wikipedia": "nan", "building:levels": "nan", "gnis:edited": "nan", "name:etymology:wikidata": "nan", "capacity": "nan", "contact:email": "nan", "contact:phone": "nan", "contact:website": "nan", "fee": "nan", "operator:type": "nan", "preschool": "nan", "ways": "nan", "type": "nan" }, "geometry": { "type": "Point", "coordinates": [ -84.4939304, 38.0478038 ] } },
{ "type": "Feature", "properties": { "element_type": "node", "osmid": "1583409383", "amenity": "school", "ele": "nan", "gnis:county_id": "nan", "gnis:created": "nan", "gnis:feature_id": "nan", "gnis:state_id": "nan", "name": "Sandersville Elementary School", "wikidata": "nan", "operator": "nan", "designation": "nan", "addr:city": "nan", "addr:housenumber": "nan", "addr:postcode": "nan", "addr:street": "nan", "sport": "nan", "website": "nan", "addr:state": "nan", "email": "nan", "fax": "nan", "phone": "nan", "denomination": "nan", "grades": "nan", "religion": "nan", "nodes": "nan", "building": "nan", "addr:housename": "nan", "wikipedia": "nan", "building:levels": "nan", "gnis:edited": "nan", "name:etymology:wikidata": "nan", "capacity": "nan", "contact:email": "nan", "contact:phone": "nan", "contact:website": "nan", "fee": "nan", "operator:type": "nan", "preschool": "nan", "ways": "nan", "type": "nan" }, "geometry": { "type": "Point", "coordinates": [ -84.5372304, 38.1031006 ] } },
{ "type": "Feature", "properties": { "element_type": "node", "osmid": "1630860621", "amenity": "school", "ele": "nan", "gnis:county_id": "nan", "gnis:created": "nan", "gnis:feature_id": "nan", "gnis:state_id": "nan", "name": "Lexington Montessori School", "wikidata": "nan", "operator": "nan", "designation": "nan", "addr:city": "nan", "addr:housenumber": "nan", "addr:postcode": "nan", "addr:street": "nan", "sport": "nan", "website": "nan", "addr:state": "nan", "email": "nan", "fax": "nan", "phone": "nan", "denomination": "nan", "grades": "nan", "religion": "nan", "nodes": "nan", "building": "nan", "addr:housename": "nan", "wikipedia": "nan", "building:levels": "nan", "gnis:edited": "nan", "name:etymology:wikidata": "nan", "capacity": "nan", "contact:email": "nan", "contact:phone": "nan", "contact:website": "nan", "fee": "nan", "operator:type": "nan", "preschool": "nan", "ways": "nan", "type": "nan" }, "geometry": { "type": "Point", "coordinates": [ -84.5123065, 38.0378354 ] } },
{ "type": "Feature", "properties": { "element_type": "node", "osmid": "1715657075", "amenity": "school", "ele": "nan", "gnis:county_id": "nan", "gnis:created": "nan", "gnis:feature_id": "nan", "gnis:state_id": "nan", "name": "West Jessamine", "wikidata": "Q7985587", "operator": "nan", "designation": "nan", "addr:city": "nan", "addr:housenumber": "nan", "addr:postcode": "nan", "addr:street": "nan", "sport": "nan", "website": "nan", "addr:state": "nan", "email": "nan", "fax": "nan", "phone": "nan", "denomination": "nan", "grades": "nan", "religion": "nan", "nodes": "nan", "building": "nan", "addr:housename": "nan", "wikipedia": "nan", "building:levels": "nan", "gnis:edited": "nan", "name:etymology:wikidata": "nan", "capacity": "nan", "contact:email": "nan", "contact:phone": "nan", "contact:website": "nan", "fee": "nan", "operator:type": "nan", "preschool": "nan", "ways": "nan", "type": "nan" }, "geometry": { "type": "Point", "coordinates": [ -84.6156389, 37.8871428 ] } },
{ "type": "Feature", "properties": { "element_type": "node", "osmid": "1715657077", "amenity": "school", "ele": "nan", "gnis:county_id": "nan", "gnis:created": "nan", "gnis:feature_id": "nan", "gnis:state_id": "nan", "name": "East Jessamine", "wikidata": "nan", "operator": "nan", "designation": "nan", "addr:city": "nan", "addr:housenumber": "nan", "addr:postcode": "nan", "addr:street": "nan", "sport": "nan", "website": "nan", "addr:state": "nan", "email": "nan", "fax": "nan", "phone": "nan", "denomination": "nan", "grades": "nan", "religion": "nan", "nodes": "nan", "building": "nan", "addr:housename": "nan", "wikipedia": "nan", "building:levels": "nan", "gnis:edited": "nan", "name:etymology:wikidata": "nan", "capacity": "nan", "contact:email": "nan", "contact:phone": "nan", "contact:website": "nan", "fee": "nan", "operator:type": "nan", "preschool": "nan", "ways": "nan", "type": "nan" }, "geometry": { "type": "Point", "coordinates": [ -84.5924337, 37.8836803 ] } },
{ "type": "Feature", "properties": { "element_type": "node", "osmid": "1715657079", "amenity": "school", "ele": "nan", "gnis:county_id": "nan", "gnis:created": "nan", "gnis:feature_id": "nan", "gnis:state_id": "nan", "name": "nan", "wikidata": "nan", "operator": "nan", "designation": "nan", "addr:city": "nan", "addr:housenumber": "nan", "addr:postcode": "nan", "addr:street": "nan", "sport": "nan", "website": "nan", "addr:state": "nan", "email": "nan", "fax": "nan", "phone": "nan", "denomination": "nan", "grades": "nan", "religion": "nan", "nodes": "nan", "building": "nan", "addr:housename": "nan", "wikipedia": "nan", "building:levels": "nan", "gnis:edited": "nan", "name:etymology:wikidata": "nan", "capacity": "nan", "contact:email": "nan", "contact:phone": "nan", "contact:website": "nan", "fee": "nan", "operator:type": "nan", "preschool": "nan", "ways": "nan", "type": "nan" }, "geometry": { "type": "Point", "coordinates": [ -84.6083004, 37.8845517 ] } },
{ "type": "Feature", "properties": { "element_type": "node", "osmid": "2496184183", "amenity": "school", "ele": "nan", "gnis:county_id": "nan", "gnis:created": "nan", "gnis:feature_id": "nan", "gnis:state_id": "nan", "name": "Larry Ward High Performance Golf Academy", "wikidata": "nan", "operator": "nan", "designation": "nan", "addr:city": "Nicholasville", "addr:housenumber": "5600", "addr:postcode": "40356", "addr:street": "Harrodsburg Road", "sport": "golf", "website": "https://hpgolfacademy.com/", "addr:state": "nan", "email": "nan", "fax": "nan", "phone": "nan", "denomination": "nan", "grades": "nan", "religion": "nan", "nodes": "nan", "building": "nan", "addr:housename": "nan", "wikipedia": "nan", "building:levels": "nan", "gnis:edited": "nan", "name:etymology:wikidata": "nan", "capacity": "nan", "contact:email": "nan", "contact:phone": "nan", "contact:website": "nan", "fee": "nan", "operator:type": "nan", "preschool": "nan", "ways": "nan", "type": "nan" }, "geometry": { "type": "Point", "coordinates": [ -84.6070804, 37.9599537 ] } },
{ "type": "Feature", "properties": { "element_type": "node", "osmid": "3197254823", "amenity": "school", "ele": "nan", "gnis:county_id": "nan", "gnis:created": "nan", "gnis:feature_id": "nan", "gnis:state_id": "nan", "name": "Bartending School", "wikidata": "nan", "operator": "nan", "designation": "nan", "addr:city": "nan", "addr:housenumber": "nan", "addr:postcode": "nan", "addr:street": "nan", "sport": "nan", "website": "nan", "addr:state": "nan", "email": "nan", "fax": "nan", "phone": "nan", "denomination": "nan", "grades": "nan", "religion": "nan", "nodes": "nan", "building": "nan", "addr:housename": "nan", "wikipedia": "nan", "building:levels": "nan", "gnis:edited": "nan", "name:etymology:wikidata": "nan", "capacity": "nan", "contact:email": "nan", "contact:phone": "nan", "contact:website": "nan", "fee": "nan", "operator:type": "nan", "preschool": "nan", "ways": "nan", "type": "nan" }, "geometry": { "type": "Point", "coordinates": [ -84.5139773, 38.0380463 ] } },
{ "type": "Feature", "properties": { "element_type": "node", "osmid": "4062650455", "amenity": "school", "ele": "nan", "gnis:county_id": "nan", "gnis:created": "nan", "gnis:feature_id": "nan", "gnis:state_id": "nan", "name": "Smart Beez Learning Center", "wikidata": "nan", "operator": "nan", "designation": "nan", "addr:city": "Lexington", "addr:housenumber": "435", "addr:postcode": "40503", "addr:street": "Southland Drive", "sport": "nan", "website": "nan", "addr:state": "KY", "email": "smart_beez@yahoo.com", "fax": "+1 859 276 0339", "phone": "+1 859 276 2339", "denomination": "nan", "grades": "nan", "religion": "nan", "nodes": "nan", "building": "nan", "addr:housename": "nan", "wikipedia": "nan", "building:levels": "nan", "gnis:edited": "nan", "name:etymology:wikidata": "nan", "capacity": "nan", "contact:email": "nan", "contact:phone": "nan", "contact:website": "nan", "fee": "nan", "operator:type": "nan", "preschool": "nan", "ways": "nan", "type": "nan" }, "geometry": { "type": "Point", "coordinates": [ -84.5266659, 38.0192621 ] } },
{ "type": "Feature", "properties": { "element_type": "node", "osmid": "8607279376", "amenity": "school", "ele": "nan", "gnis:county_id": "nan", "gnis:created": "nan", "gnis:feature_id": "nan", "gnis:state_id": "nan", "name": "Summit Christian Academy", "wikidata": "nan", "operator": "nan", "designation": "nan", "addr:city": "Lexington", "addr:housenumber": "2780", "addr:postcode": "40503", "addr:street": "Clays Mill Road", "sport": "nan", "website": "https://www.lexingtonsummit.org/", "addr:state": "KY", "email": "nan", "fax": "nan", "phone": "nan", "denomination": "nondenominational", "grades": "Pre-12", "religion": "christian", "nodes": "nan", "building": "nan", "addr:housename": "nan", "wikipedia": "nan", "building:levels": "nan", "gnis:edited": "nan", "name:etymology:wikidata": "nan", "capacity": "nan", "contact:email": "nan", "contact:phone": "nan", "contact:website": "nan", "fee": "nan", "operator:type": "nan", "preschool": "nan", "ways": "nan", "type": "nan" }, "geometry": { "type": "Point", "coordinates": [ -84.5383307, 38.0116842 ] } },
{ "type": "Feature", "properties": { "element_type": "node", "osmid": "9222481538", "amenity": "school", "ele": "nan", "gnis:county_id": "nan", "gnis:created": "nan", "gnis:feature_id": "nan", "gnis:state_id": "nan", "name": "Don and Cathy Jacobs Science Building", "wikidata": "nan", "operator": "nan", "designation": "nan", "addr:city": "nan", "addr:housenumber": "nan", "addr:postcode": "nan", "addr:street": "nan", "sport": "nan", "website": "nan", "addr:state": "nan", "email": "nan", "fax": "nan", "phone": "nan", "denomination": "nan", "grades": "nan", "religion": "nan", "nodes": "nan", "building": "nan", "addr:housename": "nan", "wikipedia": "nan", "building:levels": "nan", "gnis:edited": "nan", "name:etymology:wikidata": "nan", "capacity": "nan", "contact:email": "nan", "contact:phone": "nan", "contact:website": "nan", "fee": "nan", "operator:type": "nan", "preschool": "nan", "ways": "nan", "type": "nan" }, "geometry": { "type": "Point", "coordinates": [ -84.5050566, 38.0334761 ] } },
{ "type": "Feature", "properties": { "element_type": "node", "osmid": "10265753889", "amenity": "school", "ele": "nan", "gnis:county_id": "nan", "gnis:created": "nan", "gnis:feature_id": "nan", "gnis:state_id": "nan", "name": "Versailles Montessori School", "wikidata": "nan", "operator": "nan", "designation": "nan", "addr:city": "nan", "addr:housenumber": "nan", "addr:postcode": "nan", "addr:street": "nan", "sport": "nan", "website": "nan", "addr:state": "nan", "email": "nan", "fax": "nan", "phone": "nan", "denomination": "nan", "grades": "nan", "religion": "nan", "nodes": "nan", "building": "nan", "addr:housename": "nan", "wikipedia": "nan", "building:levels": "nan", "gnis:edited": "nan", "name:etymology:wikidata": "nan", "capacity": "nan", "contact:email": "nan", "contact:phone": "nan", "contact:website": "nan", "fee": "nan", "operator:type": "nan", "preschool": "nan", "ways": "nan", "type": "nan" }, "geometry": { "type": "Point", "coordinates": [ -84.7129426, 38.0062354 ] } },
{ "type": "Feature", "properties": { "element_type": "way", "osmid": "24024425", "amenity": "school", "ele": "nan", "gnis:county_id": "nan", "gnis:created": "nan", "gnis:feature_id": "nan", "gnis:state_id": "nan", "name": "Lexington Christian Academy", "wikidata": "nan", "operator": "nan", "designation": "nan", "addr:city": "Lexington", "addr:housenumber": "450", "addr:postcode": "nan", "addr:street": "West Reynolds Road", "sport": "nan", "website": "nan", "addr:state": "KY", "email": "nan", "fax": "nan", "phone": "nan", "denomination": "nan", "grades": "nan", "religion": "nan", "nodes": [ 260542851, 3712489152, 3712489149, 3712489150, 260542852, 260542853, 3712489171, 3712489173, 260542854, 3712489156, 3712489154, 260542851 ], "building": "school", "addr:housename": "nan", "wikipedia": "nan", "building:levels": "nan", "gnis:edited": "nan", "name:etymology:wikidata": "nan", "capacity": "nan", "contact:email": "nan", "contact:phone": "nan", "contact:website": "nan", "fee": "nan", "operator:type": "nan", "preschool": "nan", "ways": "nan", "type": "nan" }, "geometry": { "type": "Polygon", "coordinates": [ [ [ -84.5369839, 37.9934086 ], [ -84.5373249, 37.9927984 ], [ -84.5375769, 37.9923476 ], [ -84.537701, 37.9921255 ], [ -84.537912, 37.991748 ], [ -84.5371352, 37.9914783 ], [ -84.5367245, 37.9922133 ], [ -84.5365393, 37.9925445 ], [ -84.5362071, 37.993139 ], [ -84.5365498, 37.9932579 ], [ -84.5366643, 37.9932977 ], [ -84.5369839, 37.9934086 ] ] ] } },
{ "type": "Feature", "properties": { "element_type": "way", "osmid": "143937864", "amenity": "school", "ele": "nan", "gnis:county_id": "nan", "gnis:created": "nan", "gnis:feature_id": "nan", "gnis:state_id": "nan", "name": "Edythe J Hayes Middle School", "wikidata": "nan", "operator": "nan", "designation": "nan", "addr:city": "nan", "addr:housenumber": "nan", "addr:postcode": "nan", "addr:street": "nan", "sport": "nan", "website": "nan", "addr:state": "nan", "email": "nan", "fax": "nan", "phone": "nan", "denomination": "nan", "grades": "nan", "religion": "nan", "nodes": [ 1575078983, 1575078979, 8392364204, 1575078984, 1575078988, 1575078987, 1575078976, 1575078978, 1575078983 ], "building": "nan", "addr:housename": "nan", "wikipedia": "nan", "building:levels": "nan", "gnis:edited": "nan", "name:etymology:wikidata": "nan", "capacity": "nan", "contact:email": "nan", "contact:phone": "nan", "contact:website": "nan", "fee": "nan", "operator:type": "nan", "preschool": "nan", "ways": "nan", "type": "nan" }, "geometry": { "type": "Polygon", "coordinates": [ [ [ -84.4110879, 37.9812584 ], [ -84.410849, 37.981201 ], [ -84.4098838, 37.9811496 ], [ -84.4097469, 37.9811148 ], [ -84.408815, 37.9809072 ], [ -84.4074764, 37.9803676 ], [ -84.4101517, 37.978317 ], [ -84.4124064, 37.9797109 ], [ -84.4110879, 37.9812584 ] ] ] } },
{ "type": "Feature", "properties": { "element_type": "way", "osmid": "161592646", "amenity": "school", "ele": "nan", "gnis:county_id": "nan", "gnis:created": "nan", "gnis:feature_id": "nan", "gnis:state_id": "nan", "name": "Sayre School", "wikidata": "nan", "operator": "nan", "designation": "nan", "addr:city": "Lexington", "addr:housenumber": "194", "addr:postcode": "40507", "addr:street": "North Limestone", "sport": "nan", "website": "http://www.sayreschool.org/", "addr:state": "nan", "email": "nan", "fax": "nan", "phone": "1-859-254-1361", "denomination": "nan", "grades": "nan", "religion": "nan", "nodes": [ 9721384080, 9721384081, 2699324465, 2699324466, 9721384080 ], "building": "yes", "addr:housename": "Sayre School", "wikipedia": "en:Sayre School", "building:levels": "nan", "gnis:edited": "nan", "name:etymology:wikidata": "nan", "capacity": "nan", "contact:email": "nan", "contact:phone": "nan", "contact:website": "nan", "fee": "nan", "operator:type": "nan", "preschool": "nan", "ways": "nan", "type": "nan" }, "geometry": { "type": "Polygon", "coordinates": [ [ [ -84.4930604, 38.0470827 ], [ -84.4927658, 38.0472826 ], [ -84.4930782, 38.0475683 ], [ -84.4933728, 38.0473684 ], [ -84.4930604, 38.0470827 ] ] ] } },
{ "type": "Feature", "properties": { "element_type": "way", "osmid": "230590384", "amenity": "school", "ele": "301", "gnis:county_id": "067", "gnis:created": "01/01/2000", "gnis:feature_id": "496346", "gnis:state_id": "21", "name": "Lexington Traditional Magnet School", "wikidata": "nan", "operator": "nan", "designation": "nan", "addr:city": "Lexington", "addr:housenumber": "350", "addr:postcode": "nan", "addr:street": "North Limestone", "sport": "nan", "website": "nan", "addr:state": "KY", "email": "nan", "fax": "nan", "phone": "nan", "denomination": "nan", "grades": "nan", "religion": "nan", "nodes": [ 2390794674, 2390794675, 2390794676, 4084340748, 2390794673, 2390794684, 2390794677, 2390794678, 4084340742, 2390794696, 2390794697, 2390794698, 2390794699, 2390794695, 2390794694, 2390794700, 2390794701, 2390794702, 2390794653, 2390794654, 2390794655, 2390794656, 2390794657, 2390794660, 2390794659, 2390794658, 2390794663, 2390794662, 2390794661, 2390794666, 2390794667, 2390794668, 2390794693, 2390794679, 2390794680, 2390794669, 2390794670, 2390794691, 2390794671, 2390794672, 2390794682, 2390794681, 2390794683, 2390794692, 2390794690, 2390794689, 2390794688, 2390794674 ], "building": "school", "addr:housename": "nan", "wikipedia": "nan", "building:levels": "nan", "gnis:edited": "nan", "name:etymology:wikidata": "nan", "capacity": "nan", "contact:email": "nan", "contact:phone": "nan", "contact:website": "nan", "fee": "nan", "operator:type": "nan", "preschool": "nan", "ways": "nan", "type": "nan" }, "geometry": { "type": "Polygon", "coordinates": [ [ [ -84.4902307, 38.0500597 ], [ -84.4903743, 38.049959 ], [ -84.4904305, 38.0500091 ], [ -84.490442, 38.0500011 ], [ -84.4904545, 38.0499923 ], [ -84.4904116, 38.0499541 ], [ -84.4906525, 38.0497851 ], [ -84.4906633, 38.0497947 ], [ -84.4906806, 38.0497826 ], [ -84.4906916, 38.0497749 ], [ -84.4908429, 38.0499098 ], [ -84.490892, 38.0498754 ], [ -84.490868, 38.049854 ], [ -84.4909061, 38.0498272 ], [ -84.4908624, 38.0497883 ], [ -84.4912707, 38.0495019 ], [ -84.4914438, 38.0496562 ], [ -84.4913955, 38.04969 ], [ -84.4916623, 38.0499279 ], [ -84.4916008, 38.0499699 ], [ -84.4915383, 38.0499881 ], [ -84.4915285, 38.0499886 ], [ -84.4914424, 38.050049 ], [ -84.4913742, 38.0499882 ], [ -84.4914077, 38.0499648 ], [ -84.491387, 38.0499464 ], [ -84.4913576, 38.049967 ], [ -84.491237, 38.0498595 ], [ -84.4912129, 38.0498768 ], [ -84.4912058, 38.0498873 ], [ -84.4911565, 38.049936 ], [ -84.4911599, 38.0499412 ], [ -84.4911463, 38.0499507 ], [ -84.4911409, 38.0499487 ], [ -84.4910407, 38.0500094 ], [ -84.4910072, 38.0500207 ], [ -84.4909799, 38.0500252 ], [ -84.4909622, 38.0500094 ], [ -84.4907233, 38.050177 ], [ -84.4907298, 38.0501828 ], [ -84.4906709, 38.050224 ], [ -84.4906656, 38.0502193 ], [ -84.4905233, 38.0503191 ], [ -84.4905041, 38.0503019 ], [ -84.4904632, 38.0503306 ], [ -84.4903441, 38.0502244 ], [ -84.4903841, 38.0501964 ], [ -84.4902307, 38.0500597 ] ] ] } },
{ "type": "Feature", "properties": { "element_type": "way", "osmid": "230602400", "amenity": "school", "ele": "nan", "gnis:county_id": "nan", "gnis:created": "nan", "gnis:feature_id": "nan", "gnis:state_id": "nan", "name": "Maxwell Spanish Immersion Elementary School", "wikidata": "nan", "operator": "Fayette County Public Schools", "designation": "nan", "addr:city": "Lexington", "addr:housenumber": "205", "addr:postcode": "40508", "addr:street": "Woodland Avenue", "sport": "nan", "website": "nan", "addr:state": "nan", "email": "nan", "fax": "nan", "phone": "nan", "denomination": "nan", "grades": "nan", "religion": "nan", "nodes": [ 2390904339, 2390904340, 2390904341, 2390904342, 2390904339 ], "building": "yes", "addr:housename": "nan", "wikipedia": "nan", "building:levels": "nan", "gnis:edited": "nan", "name:etymology:wikidata": "nan", "capacity": "nan", "contact:email": "nan", "contact:phone": "nan", "contact:website": "nan", "fee": "nan", "operator:type": "nan", "preschool": "nan", "ways": "nan", "type": "nan" }, "geometry": { "type": "Polygon", "coordinates": [ [ [ -84.4946388, 38.0361887 ], [ -84.4943551, 38.0359386 ], [ -84.4937674, 38.0363558 ], [ -84.4940472, 38.0366051 ], [ -84.4946388, 38.0361887 ] ] ] } },
{ "type": "Feature", "properties": { "element_type": "way", "osmid": "234480204", "amenity": "school", "ele": "nan", "gnis:county_id": "nan", "gnis:created": "nan", "gnis:feature_id": "nan", "gnis:state_id": "nan", "name": "STEAM Academy", "wikidata": "nan", "operator": "nan", "designation": "nan", "addr:city": "Lexington", "addr:housenumber": "123", "addr:postcode": "nan", "addr:street": "East Sixth Street", "sport": "nan", "website": "http://www.steam.fcps.net/", "addr:state": "KY", "email": "nan", "fax": "nan", "phone": "nan", "denomination": "nan", "grades": "nan", "religion": "nan", "nodes": [ 2427262497, 2427262498, 2427262499, 2427262500, 2427262501, 2427262502, 2427262504, 2427262519, 2427262521, 2427262523, 2427262524, 2427262525, 2427262526, 2427262528, 2427262531, 2427262533, 2427262497 ], "building": "yes", "addr:housename": "nan", "wikipedia": "nan", "building:levels": "nan", "gnis:edited": "nan", "name:etymology:wikidata": "nan", "capacity": "nan", "contact:email": "nan", "contact:phone": "nan", "contact:website": "nan", "fee": "nan", "operator:type": "nan", "preschool": "nan", "ways": "nan", "type": "nan" }, "geometry": { "type": "Polygon", "coordinates": [ [ [ -84.4856881, 38.0534735 ], [ -84.4855491, 38.0535719 ], [ -84.4854263, 38.0534643 ], [ -84.4849871, 38.0537751 ], [ -84.4849708, 38.0537608 ], [ -84.4848557, 38.0538422 ], [ -84.4844698, 38.053504 ], [ -84.4846218, 38.0533965 ], [ -84.4848159, 38.0535665 ], [ -84.4847614, 38.0536051 ], [ -84.4848259, 38.0536616 ], [ -84.4850851, 38.0534782 ], [ -84.4849505, 38.0533602 ], [ -84.4850943, 38.0532584 ], [ -84.4851827, 38.0533359 ], [ -84.4853754, 38.0531995 ], [ -84.4856881, 38.0534735 ] ] ] } },
{ "type": "Feature", "properties": { "element_type": "way", "osmid": "242087650", "amenity": "school", "ele": "nan", "gnis:county_id": "nan", "gnis:created": "nan", "gnis:feature_id": "nan", "gnis:state_id": "nan", "name": "Woodford County High School", "wikidata": "nan", "operator": "nan", "designation": "nan", "addr:city": "nan", "addr:housenumber": "nan", "addr:postcode": "nan", "addr:street": "nan", "sport": "nan", "website": "nan", "addr:state": "nan", "email": "nan", "fax": "nan", "phone": "nan", "denomination": "nan", "grades": "nan", "religion": "nan", "nodes": [ 2496349738, 9795841107, 9795841108, 2496349739, 9795841111, 9795841110, 2496349740, 9795841109, 2496349742, 2496349738 ], "building": "nan", "addr:housename": "nan", "wikipedia": "nan", "building:levels": "2", "gnis:edited": "nan", "name:etymology:wikidata": "nan", "capacity": "nan", "contact:email": "nan", "contact:phone": "nan", "contact:website": "nan", "fee": "nan", "operator:type": "nan", "preschool": "nan", "ways": "nan", "type": "nan" }, "geometry": { "type": "Polygon", "coordinates": [ [ [ -84.7337202, 38.0621101 ], [ -84.7332768, 38.0623263 ], [ -84.7323935, 38.0632489 ], [ -84.7321825, 38.0636373 ], [ -84.7283951, 38.0626928 ], [ -84.729057, 38.0620285 ], [ -84.7295318, 38.0608405 ], [ -84.7315016, 38.0614551 ], [ -84.732933, 38.0608788 ], [ -84.7337202, 38.0621101 ] ] ] } },
{ "type": "Feature", "properties": { "element_type": "way", "osmid": "242087869", "amenity": "school", "ele": "nan", "gnis:county_id": "nan", "gnis:created": "nan", "gnis:feature_id": "nan", "gnis:state_id": "nan", "name": "Georgetown Middle School", "wikidata": "nan", "operator": "nan", "designation": "nan", "addr:city": "nan", "addr:housenumber": "nan", "addr:postcode": "nan", "addr:street": "nan", "sport": "nan", "website": "nan", "addr:state": "nan", "email": "nan", "fax": "nan", "phone": "nan", "denomination": "nan", "grades": "nan", "religion": "nan", "nodes": [ 3892223217, 3892223218, 3892223219, 3892223220, 3892223221, 3892223222, 3892223223, 3892223224, 2496351403, 2496351404, 3892223216, 3906820255, 3892223215, 2496351406, 3892223567, 2496351407, 3892223566, 3892223214, 3892223213, 3892223212, 3892223480, 3892223217 ], "building": "nan", "addr:housename": "nan", "wikipedia": "nan", "building:levels": "nan", "gnis:edited": "nan", "name:etymology:wikidata": "nan", "capacity": "nan", "contact:email": "nan", "contact:phone": "nan", "contact:website": "nan", "fee": "nan", "operator:type": "nan", "preschool": "nan", "ways": "nan", "type": "nan" }, "geometry": { "type": "Polygon", "coordinates": [ [ [ -84.5580133, 38.2019689 ], [ -84.5576539, 38.2019521 ], [ -84.5575895, 38.2017497 ], [ -84.5574822, 38.2015558 ], [ -84.5573857, 38.2014251 ], [ -84.5571926, 38.2012017 ], [ -84.5570155, 38.2009698 ], [ -84.5568546, 38.200582 ], [ -84.5567312, 38.2002827 ], [ -84.5562216, 38.1994353 ], [ -84.5553204, 38.1981622 ], [ -84.555919, 38.1980785 ], [ -84.5570692, 38.1979177 ], [ -84.5572891, 38.1987693 ], [ -84.5574467, 38.1987722 ], [ -84.558185, 38.1987861 ], [ -84.5581594, 38.1993189 ], [ -84.5581536, 38.1994119 ], [ -84.5588067, 38.1994424 ], [ -84.5587719, 38.1998577 ], [ -84.5581456, 38.1998398 ], [ -84.5580133, 38.2019689 ] ] ] } },
{ "type": "Feature", "properties": { "element_type": "way", "osmid": "243422883", "amenity": "school", "ele": "nan", "gnis:county_id": "nan", "gnis:created": "nan", "gnis:feature_id": "nan", "gnis:state_id": "nan", "name": "Ashland Elementary School", "wikidata": "nan", "operator": "nan", "designation": "nan", "addr:city": "Lexington", "addr:housenumber": "195", "addr:postcode": "nan", "addr:street": "North Ashland Avenue", "sport": "nan", "website": "nan", "addr:state": "KY", "email": "nan", "fax": "nan", "phone": "nan", "denomination": "nan", "grades": "nan", "religion": "nan", "nodes": [ 2508347739, 2508347740, 2508347742, 2508347743, 2508347739 ], "building": "yes", "addr:housename": "nan", "wikipedia": "nan", "building:levels": "nan", "gnis:edited": "nan", "name:etymology:wikidata": "nan", "capacity": "nan", "contact:email": "nan", "contact:phone": "nan", "contact:website": "nan", "fee": "nan", "operator:type": "nan", "preschool": "nan", "ways": "nan", "type": "nan" }, "geometry": { "type": "Polygon", "coordinates": [ [ [ -84.4814102, 38.0379542 ], [ -84.4811314, 38.0376972 ], [ -84.4805327, 38.0380989 ], [ -84.4808083, 38.0383558 ], [ -84.4814102, 38.0379542 ] ] ] } },
{ "type": "Feature", "properties": { "element_type": "way", "osmid": "258225953", "amenity": "school", "ele": "nan", "gnis:county_id": "nan", "gnis:created": "nan", "gnis:feature_id": "nan", "gnis:state_id": "nan", "name": "nan", "wikidata": "nan", "operator": "nan", "designation": "nan", "addr:city": "Lexington", "addr:housenumber": "2151", "addr:postcode": "40504", "addr:street": "Garden Springs Drive", "sport": "nan", "website": "nan", "addr:state": "KY", "email": "nan", "fax": "nan", "phone": "nan", "denomination": "nan", "grades": "nan", "religion": "nan", "nodes": [ 2636166560, 2636166561, 2636166562, 2636166563, 2636166564, 2636166565, 2636166566, 2636166567, 2636166568, 2636166569, 2636166570, 2636166571, 2636166572, 2636166573, 2636166574, 2636166575, 2636166576, 2636166577, 2636166578, 2636166579, 2636166580, 2636166581, 2636166582, 2636166583, 2636166560 ], "building": "yes", "addr:housename": "nan", "wikipedia": "nan", "building:levels": "nan", "gnis:edited": "nan", "name:etymology:wikidata": "nan", "capacity": "nan", "contact:email": "nan", "contact:phone": "nan", "contact:website": "nan", "fee": "nan", "operator:type": "nan", "preschool": "nan", "ways": "nan", "type": "nan" }, "geometry": { "type": "Polygon", "coordinates": [ [ [ -84.5479498, 38.0259481 ], [ -84.5481051, 38.0259731 ], [ -84.548127, 38.025889 ], [ -84.5484258, 38.0259372 ], [ -84.5484073, 38.0260083 ], [ -84.5485777, 38.0260358 ], [ -84.5484419, 38.0265585 ], [ -84.5485222, 38.0265714 ], [ -84.5485472, 38.0264753 ], [ -84.5487252, 38.026504 ], [ -84.548666, 38.0267319 ], [ -84.5485017, 38.0267054 ], [ -84.5485266, 38.0266098 ], [ -84.5484845, 38.026603 ], [ -84.5484381, 38.0267816 ], [ -84.5486771, 38.0268202 ], [ -84.5485991, 38.0271198 ], [ -84.5483762, 38.0270838 ], [ -84.5484418, 38.0268317 ], [ -84.5483834, 38.0268223 ], [ -84.548408, 38.0267277 ], [ -84.547977, 38.0266582 ], [ -84.5479859, 38.026624 ], [ -84.5477827, 38.0265912 ], [ -84.5479498, 38.0259481 ] ] ] } },
{ "type": "Feature", "properties": { "element_type": "way", "osmid": "262963002", "amenity": "school", "ele": "nan", "gnis:county_id": "nan", "gnis:created": "nan", "gnis:feature_id": "nan", "gnis:state_id": "nan", "name": "Saints Peter & Paul Regional School", "wikidata": "nan", "operator": "Diocese of Lexington", "designation": "nan", "addr:city": "nan", "addr:housenumber": "nan", "addr:postcode": "nan", "addr:street": "nan", "sport": "nan", "website": "nan", "addr:state": "nan", "email": "nan", "fax": "nan", "phone": "nan", "denomination": "nan", "grades": "nan", "religion": "nan", "nodes": [ 2686028053, 10091193976, 10091193974, 10091193971, 10091193972, 10091193973, 10091193975, 10091193980, 10091193978, 10091193977, 10091193979, 2686028054, 2686028055, 10091193983, 10091193982, 10091193981, 10091193984, 10091193990, 10091193989, 10091193988, 10091193987, 10091193986, 10091193985, 2686028056, 2686028057, 10091193991, 10091193992, 2686028058, 2686028059, 2686028060, 2686028061, 10091193970, 10091193969, 10091193967, 10091193968, 2686028062, 2686028053 ], "building": "school", "addr:housename": "nan", "wikipedia": "nan", "building:levels": "nan", "gnis:edited": "nan", "name:etymology:wikidata": "nan", "capacity": "nan", "contact:email": "nan", "contact:phone": "nan", "contact:website": "nan", "fee": "nan", "operator:type": "nan", "preschool": "nan", "ways": "nan", "type": "nan" }, "geometry": { "type": "Polygon", "coordinates": [ [ [ -84.4995895, 38.0501395 ], [ -84.49926, 38.0503763 ], [ -84.4992704, 38.0503853 ], [ -84.4992404, 38.0504069 ], [ -84.4992353, 38.0504024 ], [ -84.4991835, 38.0504397 ], [ -84.4991782, 38.0504351 ], [ -84.4991046, 38.050488 ], [ -84.4991109, 38.0504935 ], [ -84.4990818, 38.0505144 ], [ -84.4990754, 38.0505089 ], [ -84.4988096, 38.0506999 ], [ -84.4990149, 38.0508771 ], [ -84.4991127, 38.0508068 ], [ -84.4990942, 38.0507908 ], [ -84.4992152, 38.0507039 ], [ -84.4992371, 38.0507228 ], [ -84.4992585, 38.0507074 ], [ -84.499318, 38.0507588 ], [ -84.4993683, 38.0507227 ], [ -84.4993824, 38.0507348 ], [ -84.4994126, 38.050713 ], [ -84.4994282, 38.0507264 ], [ -84.4994816, 38.050688 ], [ -84.4993727, 38.050594 ], [ -84.499392, 38.0505801 ], [ -84.4993724, 38.0505632 ], [ -84.49939, 38.0505506 ], [ -84.4993364, 38.0505044 ], [ -84.4993853, 38.0504693 ], [ -84.4994282, 38.0505063 ], [ -84.499493, 38.0504597 ], [ -84.4994806, 38.050449 ], [ -84.4996723, 38.0503113 ], [ -84.4996799, 38.0503179 ], [ -84.4997434, 38.0502723 ], [ -84.4995895, 38.0501395 ] ] ] } },
{ "type": "Feature", "properties": { "element_type": "way", "osmid": "271787839", "amenity": "school", "ele": "296", "gnis:county_id": "067", "gnis:created": "02/16/2005", "gnis:feature_id": "2061159;2061165", "gnis:state_id": "21", "name": "School for the Creative and Performing Arts at Lafayette", "wikidata": "nan", "operator": "nan", "designation": "nan", "addr:city": "Lexington", "addr:housenumber": "400", "addr:postcode": "40503", "addr:street": "Lafayette Parkway", "sport": "nan", "website": "https://www.fcps.net/scapa", "addr:state": "nan", "email": "nan", "fax": "nan", "phone": "(859) 381-3332", "denomination": "nan", "grades": "nan", "religion": "nan", "nodes": [ 2767240623, 3461691314, 3044872852, 2767240624, 2767240625, 2767240626, 3044872851, 358615022, 4068525985, 2767240629, 2767240631, 3461691315, 3461691316, 3461691319, 3461691317, 3461691318, 2767240639, 2767240638, 2767240637, 2767240636, 2767240634, 2767240632, 2767240623 ], "building": "school", "addr:housename": "nan", "wikipedia": "nan", "building:levels": "nan", "gnis:edited": "01/26/2006", "name:etymology:wikidata": "nan", "capacity": "nan", "contact:email": "nan", "contact:phone": "nan", "contact:website": "nan", "fee": "nan", "operator:type": "nan", "preschool": "nan", "ways": "nan", "type": "nan" }, "geometry": { "type": "Polygon", "coordinates": [ [ [ -84.5262305, 38.0265773 ], [ -84.5261184, 38.0265294 ], [ -84.5259087, 38.0264362 ], [ -84.5257609, 38.0263561 ], [ -84.5257106, 38.0264213 ], [ -84.5256711, 38.0264026 ], [ -84.5256209, 38.0264644 ], [ -84.5256, 38.0264913 ], [ -84.5255815, 38.026485 ], [ -84.5255063, 38.026497 ], [ -84.5252327, 38.0268689 ], [ -84.5252848, 38.0268926 ], [ -84.5252615, 38.0269248 ], [ -84.5252988, 38.0269405 ], [ -84.5253327, 38.0269552 ], [ -84.5253572, 38.0269248 ], [ -84.5254044, 38.0269492 ], [ -84.5254913, 38.0268463 ], [ -84.5256833, 38.0269323 ], [ -84.5257209, 38.0268731 ], [ -84.5259301, 38.0268309 ], [ -84.5260105, 38.0268689 ], [ -84.5262305, 38.0265773 ] ] ] } },
{ "type": "Feature", "properties": { "element_type": "way", "osmid": "332288488", "amenity": "school", "ele": "nan", "gnis:county_id": "nan", "gnis:created": "nan", "gnis:feature_id": "nan", "gnis:state_id": "nan", "name": "nan", "wikidata": "nan", "operator": "nan", "designation": "nan", "addr:city": "nan", "addr:housenumber": "nan", "addr:postcode": "nan", "addr:street": "nan", "sport": "nan", "website": "nan", "addr:state": "nan", "email": "nan", "fax": "nan", "phone": "nan", "denomination": "nan", "grades": "nan", "religion": "nan", "nodes": [ 3394038910, 3394038911, 3394038912, 3394038913, 3394038910 ], "building": "nan", "addr:housename": "nan", "wikipedia": "nan", "building:levels": "nan", "gnis:edited": "nan", "name:etymology:wikidata": "nan", "capacity": "nan", "contact:email": "nan", "contact:phone": "nan", "contact:website": "nan", "fee": "nan", "operator:type": "nan", "preschool": "nan", "ways": "nan", "type": "nan" }, "geometry": { "type": "Polygon", "coordinates": [ [ [ -84.5316841, 38.0283855 ], [ -84.5303056, 38.0275781 ], [ -84.5294839, 38.0290919 ], [ -84.5301598, 38.0294538 ], [ -84.5316841, 38.0283855 ] ] ] } },
{ "type": "Feature", "properties": { "element_type": "way", "osmid": "332288491", "amenity": "school", "ele": "nan", "gnis:county_id": "nan", "gnis:created": "nan", "gnis:feature_id": "nan", "gnis:state_id": "nan", "name": "Picadome Elementary School", "wikidata": "nan", "operator": "nan", "designation": "nan", "addr:city": "nan", "addr:housenumber": "nan", "addr:postcode": "nan", "addr:street": "nan", "sport": "nan", "website": "nan", "addr:state": "nan", "email": "nan", "fax": "nan", "phone": "nan", "denomination": "nan", "grades": "nan", "religion": "nan", "nodes": [ 3394485666, 3394485667, 3394038924, 3394485668, 3394038925, 3394038926, 3394485666 ], "building": "nan", "addr:housename": "nan", "wikipedia": "nan", "building:levels": "nan", "gnis:edited": "nan", "name:etymology:wikidata": "nan", "capacity": "nan", "contact:email": "nan", "contact:phone": "nan", "contact:website": "nan", "fee": "nan", "operator:type": "nan", "preschool": "nan", "ways": "nan", "type": "nan" }, "geometry": { "type": "Polygon", "coordinates": [ [ [ -84.5285075, 38.0303099 ], [ -84.5267358, 38.0294504 ], [ -84.5260068, 38.0302717 ], [ -84.5264779, 38.0305986 ], [ -84.5273809, 38.0312252 ], [ -84.5282159, 38.0307415 ], [ -84.5285075, 38.0303099 ] ] ] } },
{ "type": "Feature", "properties": { "element_type": "way", "osmid": "332288492", "amenity": "school", "ele": "297", "gnis:county_id": "067", "gnis:created": "09/20/1979", "gnis:feature_id": "495905", "gnis:state_id": "21", "name": "Lafayette High School", "wikidata": "Q6471425", "operator": "nan", "designation": "nan", "addr:city": "nan", "addr:housenumber": "nan", "addr:postcode": "nan", "addr:street": "nan", "sport": "nan", "website": "nan", "addr:state": "nan", "email": "nan", "fax": "nan", "phone": "nan", "denomination": "nan", "grades": "nan", "religion": "nan", "nodes": [ 3394038927, 3044872905, 3468778207, 3394038928, 3394038929, 3394737341, 3394737340, 3044872835, 3044872833, 3394038931, 358595148, 3394485594, 3394038933, 3394038934, 3394038927 ], "building": "nan", "addr:housename": "nan", "wikipedia": "nan", "building:levels": "nan", "gnis:edited": "nan", "name:etymology:wikidata": "nan", "capacity": "nan", "contact:email": "nan", "contact:phone": "nan", "contact:website": "nan", "fee": "nan", "operator:type": "nan", "preschool": "nan", "ways": "nan", "type": "nan" }, "geometry": { "type": "Polygon", "coordinates": [ [ [ -84.5252734, 38.0280896 ], [ -84.5269411, 38.0258816 ], [ -84.5216967, 38.0233866 ], [ -84.5212132, 38.0231581 ], [ -84.5200151, 38.0248168 ], [ -84.5203561, 38.0251802 ], [ -84.5205476, 38.0248751 ], [ -84.5206154, 38.0247671 ], [ -84.5217944, 38.0256127 ], [ -84.5227816, 38.0262103 ], [ -84.5238685, 38.0268855 ], [ -84.5240717, 38.0270832 ], [ -84.5244517, 38.0274528 ], [ -84.5249642, 38.0278634 ], [ -84.5252734, 38.0280896 ] ] ] } },
{ "type": "Feature", "properties": { "element_type": "way", "osmid": "333862599", "amenity": "school", "ele": "299", "gnis:county_id": "067", "gnis:created": "01/01/2000", "gnis:feature_id": "489598", "gnis:state_id": "21", "name": "Clays Mill Elementary School", "wikidata": "nan", "operator": "nan", "designation": "nan", "addr:city": "nan", "addr:housenumber": "nan", "addr:postcode": "nan", "addr:street": "nan", "sport": "nan", "website": "nan", "addr:state": "nan", "email": "nan", "fax": "nan", "phone": "nan", "denomination": "nan", "grades": "nan", "religion": "nan", "nodes": [ 1580350160, 1580350142, 1580350132, 4017425851, 4017425707, 1580350160 ], "building": "nan", "addr:housename": "nan", "wikipedia": "nan", "building:levels": "nan", "gnis:edited": "nan", "name:etymology:wikidata": "nan", "capacity": "nan", "contact:email": "nan", "contact:phone": "nan", "contact:website": "nan", "fee": "nan", "operator:type": "nan", "preschool": "nan", "ways": "nan", "type": "nan" }, "geometry": { "type": "Polygon", "coordinates": [ [ [ -84.5385065, 38.0170854 ], [ -84.539323, 38.0173981 ], [ -84.5384207, 38.0189449 ], [ -84.5356651, 38.0179257 ], [ -84.536443, 38.0164048 ], [ -84.5385065, 38.0170854 ] ] ] } },
{ "type": "Feature", "properties": { "element_type": "way", "osmid": "337282554", "amenity": "school", "ele": "293", "gnis:county_id": "067", "gnis:created": "01/01/2000", "gnis:feature_id": "495964", "gnis:state_id": "21", "name": "James Lane Allen Elementary School", "wikidata": "nan", "operator": "nan", "designation": "nan", "addr:city": "nan", "addr:housenumber": "nan", "addr:postcode": "nan", "addr:street": "nan", "sport": "nan", "website": "nan", "addr:state": "nan", "email": "nan", "fax": "nan", "phone": "nan", "denomination": "nan", "grades": "nan", "religion": "nan", "nodes": [ 3443948498, 3443948545, 3443948539, 3443948511, 163476402, 163476403, 163432838, 2636157677, 163476406, 163476408, 163476410, 163476412, 163476413, 163476415, 8375637664, 163476417, 8089725569, 163476419, 8089725568, 2636157673, 2636157678, 163502639, 3443948540, 3443948499, 9556569994, 9556569995, 9556569996, 3443948498 ], "building": "nan", "addr:housename": "nan", "wikipedia": "nan", "building:levels": "nan", "gnis:edited": "nan", "name:etymology:wikidata": "nan", "capacity": "nan", "contact:email": "nan", "contact:phone": "nan", "contact:website": "nan", "fee": "nan", "operator:type": "nan", "preschool": "nan", "ways": "nan", "type": "nan" }, "geometry": { "type": "Polygon", "coordinates": [ [ [ -84.5473002, 38.0389595 ], [ -84.5462651, 38.0376657 ], [ -84.546125, 38.037437 ], [ -84.5464381, 38.0373142 ], [ -84.547153, 38.037024 ], [ -84.547637, 38.036772 ], [ -84.547866, 38.036648 ], [ -84.5479896, 38.0365707 ], [ -84.548117, 38.036491 ], [ -84.548326, 38.036346 ], [ -84.548506, 38.036198 ], [ -84.548643, 38.036068 ], [ -84.548922, 38.035828 ], [ -84.549054, 38.035729 ], [ -84.5491763, 38.0356488 ], [ -84.549214, 38.035624 ], [ -84.5493592, 38.0355405 ], [ -84.549414, 38.035509 ], [ -84.5494631, 38.0355813 ], [ -84.5497747, 38.0360404 ], [ -84.5501274, 38.0365654 ], [ -84.550331, 38.03686 ], [ -84.5501776, 38.0369422 ], [ -84.5498052, 38.0375214 ], [ -84.5497393, 38.0376201 ], [ -84.5492606, 38.0378761 ], [ -84.5480954, 38.0384971 ], [ -84.5473002, 38.0389595 ] ] ] } },
{ "type": "Feature", "properties": { "element_type": "way", "osmid": "337282560", "amenity": "school", "ele": "297", "gnis:county_id": "067", "gnis:created": "01/01/2000", "gnis:feature_id": "486600", "gnis:state_id": "21", "name": "Beaumont Middle School", "wikidata": "nan", "operator": "nan", "designation": "nan", "addr:city": "nan", "addr:housenumber": "nan", "addr:postcode": "nan", "addr:street": "nan", "sport": "nan", "website": "nan", "addr:state": "nan", "email": "nan", "fax": "nan", "phone": "nan", "denomination": "nan", "grades": "nan", "religion": "nan", "nodes": [ 3443948550, 3443948551, 10740232952, 3443948552, 10740232951, 3443948553, 4708810742, 358580946, 3443948555, 7028206960, 7028206957, 10740247290, 3443948550 ], "building": "nan", "addr:housename": "nan", "wikipedia": "nan", "building:levels": "nan", "gnis:edited": "nan", "name:etymology:wikidata": "nan", "capacity": "nan", "contact:email": "nan", "contact:phone": "nan", "contact:website": "nan", "fee": "nan", "operator:type": "nan", "preschool": "nan", "ways": "nan", "type": "nan" }, "geometry": { "type": "Polygon", "coordinates": [ [ [ -84.5583276, 38.0296949 ], [ -84.5556772, 38.0287588 ], [ -84.5560676, 38.0280454 ], [ -84.5563607, 38.0275155 ], [ -84.5566486, 38.026993 ], [ -84.5571876, 38.026485 ], [ -84.5586615, 38.0275821 ], [ -84.5587424, 38.0276409 ], [ -84.5593387, 38.0278337 ], [ -84.5588899, 38.0286627 ], [ -84.5584946, 38.0293927 ], [ -84.5584618, 38.0294515 ], [ -84.5583276, 38.0296949 ] ] ] } },
{ "type": "Feature", "properties": { "element_type": "way", "osmid": "337282562", "amenity": "school", "ele": "293", "gnis:county_id": "067", "gnis:created": "09/20/1979", "gnis:feature_id": "496349", "gnis:state_id": "21", "name": "The Lexington School", "wikidata": "nan", "operator": "nan", "designation": "nan", "addr:city": "Lexington", "addr:housenumber": "1050", "addr:postcode": "40504", "addr:street": "Lane Allen Road", "sport": "nan", "website": "nan", "addr:state": "nan", "email": "nan", "fax": "nan", "phone": "859-278-0501", "denomination": "nan", "grades": "nan", "religion": "nan", "nodes": [ 8374178425, 8374178426, 8374178427, 8374178428, 8374178429, 8374178430, 8374178431, 358595808, 3443948557, 3443948558, 3443948559, 3443948560, 7025993468, 7025993479, 8027220356, 8027220355, 8027220354, 8027220353, 8374178425 ], "building": "nan", "addr:housename": "nan", "wikipedia": "nan", "building:levels": "nan", "gnis:edited": "nan", "name:etymology:wikidata": "nan", "capacity": "nan", "contact:email": "nan", "contact:phone": "nan", "contact:website": "nan", "fee": "nan", "operator:type": "nan", "preschool": "nan", "ways": "nan", "type": "nan" }, "geometry": { "type": "Polygon", "coordinates": [ [ [ -84.5557824, 38.034055 ], [ -84.5553125, 38.0339011 ], [ -84.5550019, 38.0338021 ], [ -84.5545605, 38.0336731 ], [ -84.5543455, 38.0336181 ], [ -84.5541975, 38.0335751 ], [ -84.5539168, 38.0334832 ], [ -84.5541023, 38.0328278 ], [ -84.5544429, 38.0315097 ], [ -84.5520932, 38.0308604 ], [ -84.5527399, 38.0297095 ], [ -84.5574326, 38.0312882 ], [ -84.5571157, 38.0318608 ], [ -84.5570427, 38.0319927 ], [ -84.55656, 38.032865 ], [ -84.5561001, 38.0337332 ], [ -84.555896, 38.0340052 ], [ -84.555865, 38.0340388 ], [ -84.5557824, 38.034055 ] ] ] } },
{ "type": "Feature", "properties": { "element_type": "way", "osmid": "341577388", "amenity": "school", "ele": "nan", "gnis:county_id": "nan", "gnis:created": "nan", "gnis:feature_id": "2061156", "gnis:state_id": "nan", "name": "Dixie Magnet Elementary School", "wikidata": "nan", "operator": "nan", "designation": "nan", "addr:city": "Lexington", "addr:housenumber": "1940", "addr:postcode": "40505", "addr:street": "Eastland Parkway", "sport": "nan", "website": "http://www.dixie.fcps.net/", "addr:state": "nan", "email": "nan", "fax": "nan", "phone": "859-381-3116", "denomination": "nan", "grades": "nan", "religion": "nan", "nodes": [ 358615017, 5842506424, 5842506423, 3487285792, 5842506430, 3487285789, 3487285784, 3487285775, 3487285761, 3487285788, 3487285793, 3487285795, 3487285796, 3487285798, 358615017 ], "building": "nan", "addr:housename": "nan", "wikipedia": "nan", "building:levels": "nan", "gnis:edited": "nan", "name:etymology:wikidata": "nan", "capacity": "nan", "contact:email": "nan", "contact:phone": "nan", "contact:website": "nan", "fee": "nan", "operator:type": "nan", "preschool": "nan", "ways": "nan", "type": "nan" }, "geometry": { "type": "Polygon", "coordinates": [ [ [ -84.4372481, 38.0543525 ], [ -84.4362879, 38.0535821 ], [ -84.4361953, 38.0535078 ], [ -84.4360872, 38.0534211 ], [ -84.436237, 38.0533138 ], [ -84.4362728, 38.0532882 ], [ -84.4360636, 38.0531367 ], [ -84.436877, 38.052544 ], [ -84.4377462, 38.0519397 ], [ -84.4389258, 38.0533254 ], [ -84.4385545, 38.0534503 ], [ -84.438271, 38.0535725 ], [ -84.4379233, 38.0537825 ], [ -84.4375554, 38.0540988 ], [ -84.4372481, 38.0543525 ] ] ] } },
{ "type": "Feature", "properties": { "element_type": "way", "osmid": "374459414", "amenity": "school", "ele": "nan", "gnis:county_id": "nan", "gnis:created": "nan", "gnis:feature_id": "nan", "gnis:state_id": "nan", "name": "Frederick Douglass High School", "wikidata": "Q28230528", "operator": "nan", "designation": "nan", "addr:city": "nan", "addr:housenumber": "nan", "addr:postcode": "nan", "addr:street": "nan", "sport": "nan", "website": "nan", "addr:state": "nan", "email": "nan", "fax": "nan", "phone": "nan", "denomination": "nan", "grades": "nan", "religion": "nan", "nodes": [ 163455503, 6564952954, 6543797207, 6543797206, 6543797205, 3778486386, 8338838855, 11092651741, 5653967441, 5653967442, 5653967475, 5653967445, 5653967468, 5653967467, 6543797210, 5653967444, 8747441637, 6543797209, 6543797208, 4087553535, 8747441636, 163455491, 163455503 ], "building": "nan", "addr:housename": "nan", "wikipedia": "nan", "building:levels": "nan", "gnis:edited": "nan", "name:etymology:wikidata": "nan", "capacity": "nan", "contact:email": "nan", "contact:phone": "nan", "contact:website": "nan", "fee": "nan", "operator:type": "nan", "preschool": "nan", "ways": "nan", "type": "nan" }, "geometry": { "type": "Polygon", "coordinates": [ [ [ -84.4345105, 38.0415648 ], [ -84.4342238, 38.0415972 ], [ -84.4337487, 38.0416508 ], [ -84.4341768, 38.0398457 ], [ -84.4336458, 38.0392136 ], [ -84.4312456, 38.0363501 ], [ -84.4356408, 38.0362846 ], [ -84.436272, 38.0362563 ], [ -84.4364627, 38.0362634 ], [ -84.4366949, 38.0362946 ], [ -84.4369058, 38.036343 ], [ -84.4370984, 38.0364066 ], [ -84.4372991, 38.0364977 ], [ -84.4375385, 38.0366687 ], [ -84.4376826, 38.0367938 ], [ -84.4384365, 38.0375173 ], [ -84.4393416, 38.0384621 ], [ -84.4398141, 38.0389564 ], [ -84.4376989, 38.0389674 ], [ -84.4377355, 38.04088 ], [ -84.4377779, 38.041035 ], [ -84.4378205, 38.0411908 ], [ -84.4345105, 38.0415648 ] ] ] } },
{ "type": "Feature", "properties": { "element_type": "way", "osmid": "385915646", "amenity": "school", "ele": "318", "gnis:county_id": "067", "gnis:created": "02/16/2005", "gnis:feature_id": "2061161", "gnis:state_id": "21", "name": "Eastside Technical Center", "wikidata": "Q5330954", "operator": "nan", "designation": "nan", "addr:city": "Lexington", "addr:housenumber": "2208", "addr:postcode": "nan", "addr:street": "Liberty Road", "sport": "nan", "website": "nan", "addr:state": "KY", "email": "nan", "fax": "nan", "phone": "nan", "denomination": "nan", "grades": "nan", "religion": "nan", "nodes": [ 3892534855, 4087514897, 4087514901, 4087514903, 4087514828, 4087514826, 4087514894, 3892534854, 3892534853, 3892534852, 3892534851, 3892534850, 3892534849, 3892534848, 4087514790, 4087514791, 4087514794, 4087514757, 4087514773, 4087514805, 3892534847, 3892534846, 358615025, 3892534844, 3892534843, 4087514861, 4087514869, 3892534841, 3892534842, 4087514902, 4087514900, 3892534840, 3892534839, 3892534838, 3892534855 ], "building": "school", "addr:housename": "nan", "wikipedia": "nan", "building:levels": "nan", "gnis:edited": "nan", "name:etymology:wikidata": "nan", "capacity": "nan", "contact:email": "nan", "contact:phone": "nan", "contact:website": "nan", "fee": "nan", "operator:type": "nan", "preschool": "nan", "ways": "nan", "type": "nan" }, "geometry": { "type": "Polygon", "coordinates": [ [ [ -84.4471738, 38.0257722 ], [ -84.4471638, 38.0257806 ], [ -84.4472185, 38.0258214 ], [ -84.447195, 38.0258411 ], [ -84.4466942, 38.0254677 ], [ -84.4467192, 38.0254467 ], [ -84.4471412, 38.0257613 ], [ -84.4472116, 38.0257022 ], [ -84.4471349, 38.0256445 ], [ -84.4472507, 38.0255481 ], [ -84.4470742, 38.0254154 ], [ -84.4472236, 38.0252909 ], [ -84.4471574, 38.0252411 ], [ -84.4472288, 38.0251817 ], [ -84.4472673, 38.0252106 ], [ -84.4472635, 38.0252137 ], [ -84.4472801, 38.0252262 ], [ -84.447436, 38.0250963 ], [ -84.4474925, 38.0251388 ], [ -84.4473338, 38.0252709 ], [ -84.4474001, 38.0253208 ], [ -84.4473295, 38.0253795 ], [ -84.4474503, 38.0254703 ], [ -84.4475745, 38.0253668 ], [ -84.4479421, 38.0256431 ], [ -84.4479865, 38.0256061 ], [ -84.4480056, 38.0256205 ], [ -84.4478297, 38.0257669 ], [ -84.4478477, 38.0257803 ], [ -84.4477767, 38.0258394 ], [ -84.4477363, 38.025809 ], [ -84.4476171, 38.0259083 ], [ -84.4476434, 38.0259281 ], [ -84.447519, 38.0260317 ], [ -84.4471738, 38.0257722 ] ] ] } },
{ "type": "Feature", "properties": { "element_type": "way", "osmid": "399003357", "amenity": "school", "ele": "299", "gnis:county_id": "067", "gnis:created": "01/01/2000", "gnis:feature_id": "489598", "gnis:state_id": "21", "name": "Lexington Catholic High School", "wikidata": "Q6537793", "operator": "nan", "designation": "nan", "addr:city": "nan", "addr:housenumber": "nan", "addr:postcode": "nan", "addr:street": "nan", "sport": "nan", "website": "nan", "addr:state": "nan", "email": "nan", "fax": "nan", "phone": "nan", "denomination": "nan", "grades": "nan", "religion": "nan", "nodes": [ 4017425887, 3394485651, 3394485650, 4017425730, 4017425887 ], "building": "nan", "addr:housename": "nan", "wikipedia": "nan", "building:levels": "nan", "gnis:edited": "nan", "name:etymology:wikidata": "nan", "capacity": "nan", "contact:email": "nan", "contact:phone": "nan", "contact:website": "nan", "fee": "nan", "operator:type": "nan", "preschool": "nan", "ways": "nan", "type": "nan" }, "geometry": { "type": "Polygon", "coordinates": [ [ [ -84.5351104, 38.0185621 ], [ -84.5323264, 38.0173522 ], [ -84.533441, 38.015836 ], [ -84.5360987, 38.0167417 ], [ -84.5351104, 38.0185621 ] ] ] } },
{ "type": "Feature", "properties": { "element_type": "way", "osmid": "401284050", "amenity": "school", "ele": "nan", "gnis:county_id": "nan", "gnis:created": "nan", "gnis:feature_id": "nan", "gnis:state_id": "nan", "name": "nan", "wikidata": "nan", "operator": "nan", "designation": "nan", "addr:city": "nan", "addr:housenumber": "nan", "addr:postcode": "nan", "addr:street": "nan", "sport": "nan", "website": "nan", "addr:state": "nan", "email": "nan", "fax": "nan", "phone": "nan", "denomination": "nan", "grades": "nan", "religion": "nan", "nodes": [ 4037167680, 4037167681, 4037167682, 3371981260, 4037167683, 4037167684, 4037167685, 4037167686, 4037167676, 4037167687, 4037167688, 4037167672, 4037170189, 4037170197, 4037170190, 2819389515, 2819389514, 4037170191, 4037170194, 4037170193, 4037170192, 4037167680 ], "building": "nan", "addr:housename": "nan", "wikipedia": "nan", "building:levels": "nan", "gnis:edited": "nan", "name:etymology:wikidata": "nan", "capacity": "nan", "contact:email": "nan", "contact:phone": "nan", "contact:website": "nan", "fee": "nan", "operator:type": "nan", "preschool": "nan", "ways": "nan", "type": "nan" }, "geometry": { "type": "Polygon", "coordinates": [ [ [ -84.5012398, 38.0524146 ], [ -84.5008717, 38.0520671 ], [ -84.5008321, 38.0520313 ], [ -84.5007398, 38.0520976 ], [ -84.5005364, 38.0522453 ], [ -84.5004958, 38.0522025 ], [ -84.5002554, 38.0520144 ], [ -84.4998276, 38.0522773 ], [ -84.5000663, 38.0525002 ], [ -84.5001157, 38.0525426 ], [ -84.5000659, 38.0525752 ], [ -84.5000985, 38.0526047 ], [ -84.5005102, 38.052949 ], [ -84.5005845, 38.0528948 ], [ -84.5008341, 38.0527128 ], [ -84.5009538, 38.0528146 ], [ -84.5011352, 38.0529598 ], [ -84.5012073, 38.0530394 ], [ -84.5012696, 38.0530932 ], [ -84.5015816, 38.0528708 ], [ -84.5011279, 38.0524978 ], [ -84.5012398, 38.0524146 ] ] ] } },
{ "type": "Feature", "properties": { "element_type": "way", "osmid": "401703789", "amenity": "school", "ele": "nan", "gnis:county_id": "nan", "gnis:created": "nan", "gnis:feature_id": "nan", "gnis:state_id": "nan", "name": "William Wells Brown Elementary School", "wikidata": "nan", "operator": "FCPS", "designation": "nan", "addr:city": "nan", "addr:housenumber": "nan", "addr:postcode": "nan", "addr:street": "nan", "sport": "nan", "website": "nan", "addr:state": "nan", "email": "nan", "fax": "nan", "phone": "nan", "denomination": "nan", "grades": "nan", "religion": "nan", "nodes": [ 4041162041, 4041162042, 1573315238, 1573315161, 4057423387, 1573315149, 1573339752, 1573339795, 1573339761, 163554592, 4041162041 ], "building": "nan", "addr:housename": "nan", "wikipedia": "nan", "building:levels": "nan", "gnis:edited": "nan", "name:etymology:wikidata": "nan", "capacity": "nan", "contact:email": "nan", "contact:phone": "nan", "contact:website": "nan", "fee": "nan", "operator:type": "nan", "preschool": "nan", "ways": "nan", "type": "nan" }, "geometry": { "type": "Polygon", "coordinates": [ [ [ -84.48006, 38.0482075 ], [ -84.4822604, 38.0468248 ], [ -84.4802388, 38.045041 ], [ -84.480035, 38.0447707 ], [ -84.4785999, 38.0457912 ], [ -84.4774922, 38.0465788 ], [ -84.47849, 38.0471111 ], [ -84.4786188, 38.0471533 ], [ -84.4789621, 38.04728 ], [ -84.4792813, 38.0474904 ], [ -84.48006, 38.0482075 ] ] ] } },
{ "type": "Feature", "properties": { "element_type": "way", "osmid": "401974673", "amenity": "school", "ele": "300", "gnis:county_id": "067", "gnis:created": "01/01/2000", "gnis:feature_id": "507201", "gnis:state_id": "21", "name": "Yates Elementary School", "wikidata": "nan", "operator": "nan", "designation": "nan", "addr:city": "nan", "addr:housenumber": "nan", "addr:postcode": "nan", "addr:street": "nan", "sport": "nan", "website": "nan", "addr:state": "nan", "email": "nan", "fax": "nan", "phone": "nan", "denomination": "nan", "grades": "nan", "religion": "nan", "nodes": [ 4043843133, 4043843717, 4043843223, 4043842733, 4043842766, 358610036, 4043842980, 4043843133 ], "building": "nan", "addr:housename": "nan", "wikipedia": "nan", "building:levels": "nan", "gnis:edited": "nan", "name:etymology:wikidata": "nan", "capacity": "nan", "contact:email": "nan", "contact:phone": "nan", "contact:website": "nan", "fee": "nan", "operator:type": "nan", "preschool": "nan", "ways": "nan", "type": "nan" }, "geometry": { "type": "Polygon", "coordinates": [ [ [ -84.4544938, 38.0492485 ], [ -84.4513314, 38.0508794 ], [ -84.4502638, 38.0495957 ], [ -84.4538644, 38.0477387 ], [ -84.453973, 38.0481669 ], [ -84.4541124, 38.0485386 ], [ -84.4543485, 38.0489949 ], [ -84.4544938, 38.0492485 ] ] ] } },
{ "type": "Feature", "properties": { "element_type": "way", "osmid": "401984075", "amenity": "school", "ele": "303", "gnis:county_id": "067", "gnis:created": "01/01/2000", "gnis:feature_id": "490765", "gnis:state_id": "21", "name": "Deep Springs Elementary School", "wikidata": "nan", "operator": "nan", "designation": "nan", "addr:city": "nan", "addr:housenumber": "nan", "addr:postcode": "nan", "addr:street": "nan", "sport": "nan", "website": "nan", "addr:state": "nan", "email": "nan", "fax": "nan", "phone": "nan", "denomination": "nan", "grades": "nan", "religion": "nan", "nodes": [ 358586826, 5780095928, 4043990075, 4043990137, 4043990178, 4043990238, 4043989531, 4043988546, 5780085080, 4043988529, 4043988490, 4043988340, 4043988251, 4043988105, 4043987336, 4043988721, 4043988888, 4043989019, 4043989170, 4043989180, 4043989212, 4043988916, 358586826 ], "building": "nan", "addr:housename": "nan", "wikipedia": "nan", "building:levels": "nan", "gnis:edited": "nan", "name:etymology:wikidata": "nan", "capacity": "nan", "contact:email": "nan", "contact:phone": "nan", "contact:website": "nan", "fee": "nan", "operator:type": "nan", "preschool": "nan", "ways": "nan", "type": "nan" }, "geometry": { "type": "Polygon", "coordinates": [ [ [ -84.4468695, 38.0617152 ], [ -84.4466898, 38.0618592 ], [ -84.4456598, 38.0626845 ], [ -84.4454828, 38.0627584 ], [ -84.445067, 38.0627986 ], [ -84.4449034, 38.0628408 ], [ -84.4447908, 38.062241 ], [ -84.4442909, 38.0613343 ], [ -84.4443349, 38.0613301 ], [ -84.4445547, 38.0612971 ], [ -84.4448122, 38.0612443 ], [ -84.4450161, 38.0611851 ], [ -84.4452494, 38.0610985 ], [ -84.445523, 38.0609697 ], [ -84.4465101, 38.0603256 ], [ -84.4477063, 38.0615251 ], [ -84.4475132, 38.0616899 ], [ -84.4474167, 38.061844 ], [ -84.4473603, 38.0619876 ], [ -84.4472289, 38.0620003 ], [ -84.4471833, 38.0620214 ], [ -84.4468936, 38.0617258 ], [ -84.4468695, 38.0617152 ] ] ] } },
{ "type": "Feature", "properties": { "element_type": "way", "osmid": "402047149", "amenity": "school", "ele": "315", "gnis:county_id": "067", "gnis:created": "01/01/2000", "gnis:feature_id": "492897", "gnis:state_id": "21", "name": "Glendover Global Studies Elementary School", "wikidata": "nan", "operator": "nan", "designation": "nan", "addr:city": "nan", "addr:housenumber": "nan", "addr:postcode": "nan", "addr:street": "nan", "sport": "nan", "website": "nan", "addr:state": "nan", "email": "nan", "fax": "nan", "phone": "nan", "denomination": "nan", "grades": "nan", "religion": "nan", "nodes": [ 4044792300, 4044792299, 4044792298, 4044792297, 9387080708, 4044792301, 358589964, 4044792302, 4044792303, 4044792304, 4044792300 ], "building": "nan", "addr:housename": "nan", "wikipedia": "nan", "building:levels": "nan", "gnis:edited": "nan", "name:etymology:wikidata": "nan", "capacity": "nan", "contact:email": "nan", "contact:phone": "nan", "contact:website": "nan", "fee": "nan", "operator:type": "nan", "preschool": "nan", "ways": "nan", "type": "nan" }, "geometry": { "type": "Polygon", "coordinates": [ [ [ -84.5042188, 38.006628 ], [ -84.5037637, 38.006434 ], [ -84.5040164, 38.0061297 ], [ -84.5022752, 38.0053945 ], [ -84.5015914, 38.0074032 ], [ -84.5012441, 38.0084236 ], [ -84.5023336, 38.0085199 ], [ -84.5024888, 38.0085493 ], [ -84.5026687, 38.0086292 ], [ -84.5028077, 38.0087149 ], [ -84.5042188, 38.006628 ] ] ] } },
{ "type": "Feature", "properties": { "element_type": "way", "osmid": "402061933", "amenity": "school", "ele": "314", "gnis:county_id": "067", "gnis:created": "09/20/1979", "gnis:feature_id": "488157", "gnis:state_id": "21", "name": "Bryan Station High School", "wikidata": "Q4980382", "operator": "nan", "designation": "nan", "addr:city": "nan", "addr:housenumber": "nan", "addr:postcode": "nan", "addr:street": "nan", "sport": "nan", "website": "nan", "addr:state": "nan", "email": "nan", "fax": "nan", "phone": "nan", "denomination": "nan", "grades": "nan", "religion": "nan", "nodes": [ 4044941503, 4044940488, 4044941965, 4044940454, 4044940851, 4044940956, 4044941851, 4044943298, 4044944041, 4044943368, 4044943551, 4044943065, 358583158, 4044941503 ], "building": "nan", "addr:housename": "nan", "wikipedia": "nan", "building:levels": "nan", "gnis:edited": "nan", "name:etymology:wikidata": "nan", "capacity": "nan", "contact:email": "nan", "contact:phone": "nan", "contact:website": "nan", "fee": "nan", "operator:type": "nan", "preschool": "nan", "ways": "nan", "type": "nan" }, "geometry": { "type": "Polygon", "coordinates": [ [ [ -84.4583643, 38.0666356 ], [ -84.4571734, 38.065605 ], [ -84.4551189, 38.0671128 ], [ -84.4531662, 38.065529 ], [ -84.452544, 38.06585 ], [ -84.4523133, 38.066002 ], [ -84.453531, 38.0670326 ], [ -84.4509722, 38.0689288 ], [ -84.452721, 38.0703964 ], [ -84.4545717, 38.0691379 ], [ -84.4550867, 38.0695517 ], [ -84.4567523, 38.0684495 ], [ -84.456291, 38.0680736 ], [ -84.4583643, 38.0666356 ] ] ] } },
{ "type": "Feature", "properties": { "element_type": "way", "osmid": "402065249", "amenity": "school", "ele": "nan", "gnis:county_id": "nan", "gnis:created": "nan", "gnis:feature_id": "nan", "gnis:state_id": "nan", "name": "Fayette County Public Schools", "wikidata": "nan", "operator": "nan", "designation": "nan", "addr:city": "nan", "addr:housenumber": "nan", "addr:postcode": "nan", "addr:street": "nan", "sport": "nan", "website": "nan", "addr:state": "nan", "email": "nan", "fax": "nan", "phone": "nan", "denomination": "nan", "grades": "nan", "religion": "nan", "nodes": [ 4044977034, 4044976918, 4044976926, 4044976925, 4167745025, 4044976954, 4044976956, 4044976966, 4044976959, 4044976990, 4044976980, 4167745014, 4044977010, 4044977012, 4044977057, 4044977072, 4044977094, 4044977084, 4044977097, 4044977093, 4167745027, 4044977141, 4044977146, 4044977156, 4044977285, 4044977197, 4044977226, 4044977235, 4044977274, 4044977266, 4044977276, 4044977267, 4044977287, 4044977128, 4044977081, 4044977213, 4044977186, 4044977035, 4044977070, 4044977079, 4044977110, 4044977034 ], "building": "yes", "addr:housename": "nan", "wikipedia": "nan", "building:levels": "nan", "gnis:edited": "nan", "name:etymology:wikidata": "nan", "capacity": "nan", "contact:email": "nan", "contact:phone": "nan", "contact:website": "nan", "fee": "nan", "operator:type": "nan", "preschool": "nan", "ways": "nan", "type": "nan" }, "geometry": { "type": "Polygon", "coordinates": [ [ [ -84.4841699, 38.0362777 ], [ -84.4847787, 38.0358553 ], [ -84.4848039, 38.035878 ], [ -84.4848067, 38.035876 ], [ -84.4848673, 38.0359307 ], [ -84.4849547, 38.0360095 ], [ -84.4849392, 38.0360203 ], [ -84.4850081, 38.0360824 ], [ -84.4850734, 38.0360371 ], [ -84.4852022, 38.0361532 ], [ -84.4852247, 38.0361376 ], [ -84.48526, 38.0361694 ], [ -84.4853073, 38.036212 ], [ -84.4852853, 38.0362272 ], [ -84.4854191, 38.0363478 ], [ -84.4853515, 38.0363947 ], [ -84.4854089, 38.0364464 ], [ -84.4854356, 38.0364278 ], [ -84.4854672, 38.0364562 ], [ -84.4854834, 38.0364449 ], [ -84.485537, 38.0364932 ], [ -84.4856015, 38.0365514 ], [ -84.4855781, 38.0365676 ], [ -84.4856128, 38.0365989 ], [ -84.4852522, 38.0368491 ], [ -84.4850758, 38.03669 ], [ -84.4850074, 38.0367375 ], [ -84.4850375, 38.0367647 ], [ -84.484938, 38.0368336 ], [ -84.4849271, 38.0368238 ], [ -84.484905, 38.0368392 ], [ -84.48489, 38.0368257 ], [ -84.4848483, 38.0368546 ], [ -84.4844911, 38.0365326 ], [ -84.4846529, 38.0364203 ], [ -84.4849773, 38.0367128 ], [ -84.4850515, 38.0366613 ], [ -84.4846268, 38.0362785 ], [ -84.4844677, 38.0363889 ], [ -84.4844956, 38.036414 ], [ -84.484397, 38.0364824 ], [ -84.4841699, 38.0362777 ] ] ] } },
{ "type": "Feature", "properties": { "element_type": "way", "osmid": "402066904", "amenity": "school", "ele": "305", "gnis:county_id": "067", "gnis:created": "01/01/2000", "gnis:feature_id": "499601", "gnis:state_id": "21", "name": "Northern Elementary School", "wikidata": "nan", "operator": "nan", "designation": "nan", "addr:city": "nan", "addr:housenumber": "nan", "addr:postcode": "nan", "addr:street": "nan", "sport": "nan", "website": "nan", "addr:state": "nan", "email": "nan", "fax": "nan", "phone": "nan", "denomination": "nan", "grades": "nan", "religion": "nan", "nodes": [ 1718802609, 358600968, 4044994002, 1718802604, 1718802609 ], "building": "nan", "addr:housename": "nan", "wikipedia": "nan", "building:levels": "nan", "gnis:edited": "nan", "name:etymology:wikidata": "nan", "capacity": "nan", "contact:email": "nan", "contact:phone": "nan", "contact:website": "nan", "fee": "nan", "operator:type": "nan", "preschool": "nan", "ways": "nan", "type": "nan" }, "geometry": { "type": "Polygon", "coordinates": [ [ [ -84.464494, 38.0638763 ], [ -84.4630616, 38.0624691 ], [ -84.4611921, 38.0636475 ], [ -84.462475, 38.0649581 ], [ -84.464494, 38.0638763 ] ] ] } },
{ "type": "Feature", "properties": { "element_type": "way", "osmid": "402069934", "amenity": "school", "ele": "nan", "gnis:county_id": "nan", "gnis:created": "nan", "gnis:feature_id": "nan", "gnis:state_id": "nan", "name": "Arlington Elementary School", "wikidata": "nan", "operator": "nan", "designation": "nan", "addr:city": "nan", "addr:housenumber": "nan", "addr:postcode": "nan", "addr:street": "nan", "sport": "nan", "website": "nan", "addr:state": "nan", "email": "nan", "fax": "nan", "phone": "nan", "denomination": "nan", "grades": "nan", "religion": "nan", "nodes": [ 4045035148, 4045034806, 4045034949, 4045034015, 4045034472, 4045035484, 4045035148 ], "building": "nan", "addr:housename": "nan", "wikipedia": "nan", "building:levels": "nan", "gnis:edited": "nan", "name:etymology:wikidata": "nan", "capacity": "nan", "contact:email": "nan", "contact:phone": "nan", "contact:website": "nan", "fee": "nan", "operator:type": "nan", "preschool": "nan", "ways": "nan", "type": "nan" }, "geometry": { "type": "Polygon", "coordinates": [ [ [ -84.4788179, 38.059111 ], [ -84.4782986, 38.0586534 ], [ -84.4780258, 38.0588453 ], [ -84.4771231, 38.0580498 ], [ -84.4764929, 38.0584931 ], [ -84.4779151, 38.0597462 ], [ -84.4788179, 38.059111 ] ] ] } },
{ "type": "Feature", "properties": { "element_type": "way", "osmid": "402318156", "amenity": "school", "ele": "306", "gnis:county_id": "067", "gnis:created": "01/01/2000", "gnis:feature_id": "2054336", "gnis:state_id": "21", "name": "Julius Marks Elementary School", "wikidata": "nan", "operator": "nan", "designation": "nan", "addr:city": "nan", "addr:housenumber": "nan", "addr:postcode": "nan", "addr:street": "nan", "sport": "nan", "website": "nan", "addr:state": "nan", "email": "nan", "fax": "nan", "phone": "nan", "denomination": "nan", "grades": "nan", "religion": "nan", "nodes": [ 408616599, 408616600, 4047323359, 4047323357, 4047323358, 4047323360, 4047323361, 4726579659, 358614976, 4047323362, 4047323363, 408616590, 408616599 ], "building": "nan", "addr:housename": "nan", "wikipedia": "nan", "building:levels": "nan", "gnis:edited": "nan", "name:etymology:wikidata": "nan", "capacity": "nan", "contact:email": "nan", "contact:phone": "nan", "contact:website": "nan", "fee": "nan", "operator:type": "nan", "preschool": "nan", "ways": "nan", "type": "nan" }, "geometry": { "type": "Polygon", "coordinates": [ [ [ -84.4919324, 37.9992615 ], [ -84.4920922, 37.9988556 ], [ -84.4921008, 37.9978081 ], [ -84.4907892, 37.9974614 ], [ -84.4898236, 37.997789 ], [ -84.4902983, 37.9985394 ], [ -84.4903385, 37.9986218 ], [ -84.4903809, 37.9987554 ], [ -84.4903868, 37.998774 ], [ -84.4903976, 37.9988628 ], [ -84.4903976, 37.9989706 ], [ -84.4903691, 37.9991072 ], [ -84.4919324, 37.9992615 ] ] ] } },
{ "type": "Feature", "properties": { "element_type": "way", "osmid": "402330362", "amenity": "school", "ele": "nan", "gnis:county_id": "nan", "gnis:created": "nan", "gnis:feature_id": "nan", "gnis:state_id": "nan", "name": "nan", "wikidata": "nan", "operator": "nan", "designation": "nan", "addr:city": "nan", "addr:housenumber": "nan", "addr:postcode": "nan", "addr:street": "nan", "sport": "nan", "website": "nan", "addr:state": "nan", "email": "nan", "fax": "nan", "phone": "nan", "denomination": "nan", "grades": "nan", "religion": "nan", "nodes": [ 4047438361, 4047438363, 4047438364, 4047438362, 4047438360, 4047438359, 4047438357, 4047438358, 594151277, 4047438361 ], "building": "nan", "addr:housename": "nan", "wikipedia": "nan", "building:levels": "nan", "gnis:edited": "nan", "name:etymology:wikidata": "nan", "capacity": "nan", "contact:email": "nan", "contact:phone": "nan", "contact:website": "nan", "fee": "nan", "operator:type": "nan", "preschool": "nan", "ways": "nan", "type": "nan" }, "geometry": { "type": "Polygon", "coordinates": [ [ [ -84.4350198, 38.0196392 ], [ -84.4340227, 38.0202056 ], [ -84.432411, 38.0208442 ], [ -84.4310604, 38.0199734 ], [ -84.4308244, 38.0193287 ], [ -84.4322678, 38.0181653 ], [ -84.432338, 38.0181414 ], [ -84.4324223, 38.0181479 ], [ -84.432841, 38.0184347 ], [ -84.4350198, 38.0196392 ] ] ] } },
{ "type": "Feature", "properties": { "element_type": "way", "osmid": "403014237", "amenity": "school", "ele": "288", "gnis:county_id": "067", "gnis:created": "01/01/2000", "gnis:feature_id": "488929", "gnis:state_id": "21", "name": "Cardinal Valley Elementary School", "wikidata": "nan", "operator": "nan", "designation": "nan", "addr:city": "nan", "addr:housenumber": "nan", "addr:postcode": "nan", "addr:street": "nan", "sport": "nan", "website": "nan", "addr:state": "nan", "email": "nan", "fax": "nan", "phone": "nan", "denomination": "nan", "grades": "nan", "religion": "nan", "nodes": [ 4054058914, 4054058567, 4054058562, 4054058563, 358583901, 4054058902, 4054058917, 4054058918, 4054058916, 4054058915, 4054058914 ], "building": "nan", "addr:housename": "nan", "wikipedia": "nan", "building:levels": "nan", "gnis:edited": "nan", "name:etymology:wikidata": "nan", "capacity": "nan", "contact:email": "nan", "contact:phone": "nan", "contact:website": "nan", "fee": "nan", "operator:type": "nan", "preschool": "nan", "ways": "nan", "type": "nan" }, "geometry": { "type": "Polygon", "coordinates": [ [ [ -84.5450847, 38.0545774 ], [ -84.5449426, 38.053967 ], [ -84.5440172, 38.0532954 ], [ -84.5428532, 38.0534369 ], [ -84.5425688, 38.053608 ], [ -84.5418822, 38.0542965 ], [ -84.5435773, 38.0548372 ], [ -84.5436109, 38.0548477 ], [ -84.5437799, 38.0547759 ], [ -84.5439703, 38.0547189 ], [ -84.5450847, 38.0545774 ] ] ] } },
{ "type": "Feature", "properties": { "element_type": "way", "osmid": "403577929", "amenity": "school", "ele": "302", "gnis:county_id": "067", "gnis:created": "01/01/2000", "gnis:feature_id": "495987", "gnis:state_id": "21", "name": "Lansdowne Elementary School", "wikidata": "nan", "operator": "nan", "designation": "nan", "addr:city": "nan", "addr:housenumber": "nan", "addr:postcode": "nan", "addr:street": "nan", "sport": "nan", "website": "nan", "addr:state": "nan", "email": "nan", "fax": "nan", "phone": "nan", "denomination": "nan", "grades": "nan", "religion": "nan", "nodes": [ 4059324211, 4059324264, 4059324285, 4059324647, 4059324818, 4059324837, 358595312, 4059325093, 4059324848, 4059324841, 4059324799, 8067157924, 4059323645, 4059324211 ], "building": "nan", "addr:housename": "nan", "wikipedia": "nan", "building:levels": "nan", "gnis:edited": "nan", "name:etymology:wikidata": "nan", "capacity": "nan", "contact:email": "nan", "contact:phone": "nan", "contact:website": "nan", "fee": "nan", "operator:type": "nan", "preschool": "nan", "ways": "nan", "type": "nan" }, "geometry": { "type": "Polygon", "coordinates": [ [ [ -84.5125486, 37.988428 ], [ -84.5124147, 37.9885865 ], [ -84.5119225, 37.9886584 ], [ -84.5115685, 37.9890896 ], [ -84.5117951, 37.989635 ], [ -84.5116328, 37.9899035 ], [ -84.5113579, 37.9900726 ], [ -84.5111433, 37.9903654 ], [ -84.5105425, 37.990061 ], [ -84.5103306, 37.9899363 ], [ -84.5097888, 37.9895093 ], [ -84.510875, 37.988226 ], [ -84.5112537, 37.9878001 ], [ -84.5125486, 37.988428 ] ] ] } },
{ "type": "Feature", "properties": { "element_type": "way", "osmid": "403755154", "amenity": "school", "ele": "288", "gnis:county_id": "067", "gnis:created": "01/01/2000", "gnis:feature_id": "2054512", "gnis:state_id": "21", "name": "Millcreek Elementary School", "wikidata": "nan", "operator": "nan", "designation": "nan", "addr:city": "nan", "addr:housenumber": "nan", "addr:postcode": "nan", "addr:street": "nan", "sport": "nan", "website": "nan", "addr:state": "nan", "email": "nan", "fax": "nan", "phone": "nan", "denomination": "nan", "grades": "nan", "religion": "nan", "nodes": [ 4060757308, 4060756787, 4060756725, 4060756688, 4060756640, 4060756602, 4060756544, 4060756520, 4060756554, 358614996, 4060757028, 4060757308 ], "building": "nan", "addr:housename": "nan", "wikipedia": "nan", "building:levels": "nan", "gnis:edited": "nan", "name:etymology:wikidata": "nan", "capacity": "nan", "contact:email": "nan", "contact:phone": "nan", "contact:website": "nan", "fee": "nan", "operator:type": "nan", "preschool": "nan", "ways": "nan", "type": "nan" }, "geometry": { "type": "Polygon", "coordinates": [ [ [ -84.4879103, 37.9763206 ], [ -84.4888464, 37.9750013 ], [ -84.4886425, 37.974811 ], [ -84.4886157, 37.9746693 ], [ -84.4884896, 37.9745044 ], [ -84.4881329, 37.9744262 ], [ -84.4878835, 37.9742972 ], [ -84.4875482, 37.9742317 ], [ -84.4873738, 37.9743141 ], [ -84.4870949, 37.974312 ], [ -84.4864082, 37.9756229 ], [ -84.4879103, 37.9763206 ] ] ] } },
{ "type": "Feature", "properties": { "element_type": "way", "osmid": "403765379", "amenity": "school", "ele": "298", "gnis:county_id": "067", "gnis:created": "01/01/2000", "gnis:feature_id": "504004", "gnis:state_id": "21", "name": "Southern Elementary School", "wikidata": "nan", "operator": "nan", "designation": "nan", "addr:city": "Lexington", "addr:housenumber": "340", "addr:postcode": "nan", "addr:street": "Wilson Downing Road", "sport": "nan", "website": "nan", "addr:state": "KY", "email": "nan", "fax": "nan", "phone": "nan", "denomination": "nan", "grades": "nan", "religion": "nan", "nodes": [ 2767105649, 358608210, 4060851111, 4060851099, 4060850945, 4060850921, 4060850941, 4060850904, 4060850723, 4060850581, 4060850570, 4060850547, 4060850534, 4060850531, 4060850371, 4060850324, 4060850301, 4060850336, 4060850489, 4060850497, 4060850504, 4060850510, 4060850380, 4060850501, 4060850515, 4060850533, 4060850538, 4060850521, 4060850551, 4060850715, 4060850784, 4060850742, 4060850900, 4060851155, 4060851134, 4060851170, 4060851137, 4060851122, 4060851110, 4060851123, 4060851092, 4060850953, 4060850930, 4060850971, 4060850973, 4060851098, 4060851094, 4060851158, 4060851173, 4060851142, 2767105649 ], "building": "school", "addr:housename": "nan", "wikipedia": "nan", "building:levels": "nan", "gnis:edited": "nan", "name:etymology:wikidata": "nan", "capacity": "nan", "contact:email": "nan", "contact:phone": "nan", "contact:website": "nan", "fee": "nan", "operator:type": "nan", "preschool": "nan", "ways": "nan", "type": "nan" }, "geometry": { "type": "Polygon", "coordinates": [ [ [ -84.5138564, 37.9802948 ], [ -84.5137739, 37.9802546 ], [ -84.5136967, 37.9803594 ], [ -84.5136546, 37.9803406 ], [ -84.5137301, 37.9802358 ], [ -84.5136477, 37.9802004 ], [ -84.5135075, 37.9802293 ], [ -84.5133859, 37.9801725 ], [ -84.5133446, 37.9800429 ], [ -84.5134139, 37.979946 ], [ -84.5135523, 37.9799199 ], [ -84.5135333, 37.9798868 ], [ -84.5135619, 37.9798523 ], [ -84.5136045, 37.9798444 ], [ -84.5135706, 37.9797369 ], [ -84.5136399, 37.9796406 ], [ -84.5138056, 37.9796071 ], [ -84.5139296, 37.9796633 ], [ -84.5139643, 37.9797722 ], [ -84.5140005, 37.9797923 ], [ -84.5139841, 37.9798105 ], [ -84.5139956, 37.979817 ], [ -84.514038, 37.9797552 ], [ -84.5141447, 37.9798029 ], [ -84.5141489, 37.979827 ], [ -84.5141359, 37.979851 ], [ -84.5141688, 37.9798646 ], [ -84.5143065, 37.9798376 ], [ -84.5144155, 37.9798899 ], [ -84.5144595, 37.9800237 ], [ -84.5147099, 37.9801451 ], [ -84.5147556, 37.9800833 ], [ -84.5149305, 37.9801679 ], [ -84.5147478, 37.9804182 ], [ -84.5146911, 37.980393 ], [ -84.5146519, 37.9804522 ], [ -84.5145286, 37.980396 ], [ -84.514545, 37.9803725 ], [ -84.5145121, 37.9803577 ], [ -84.5144998, 37.9803752 ], [ -84.5143913, 37.9803254 ], [ -84.5144444, 37.9802565 ], [ -84.514354, 37.9802131 ], [ -84.5143055, 37.9802828 ], [ -84.5143129, 37.980286 ], [ -84.5142754, 37.9803394 ], [ -84.5142491, 37.9803304 ], [ -84.5141804, 37.9804251 ], [ -84.5140172, 37.9804576 ], [ -84.5138869, 37.9804038 ], [ -84.5138564, 37.9802948 ] ] ] } },
{ "type": "Feature", "properties": { "element_type": "way", "osmid": "403765380", "amenity": "school", "ele": "303", "gnis:county_id": "113", "gnis:created": "09/20/1979", "gnis:feature_id": "504003", "gnis:state_id": "21", "name": "Southern Middle School", "wikidata": "nan", "operator": "nan", "designation": "nan", "addr:city": "Lexington", "addr:housenumber": "400", "addr:postcode": "nan", "addr:street": "Wilson Downing Road", "sport": "nan", "website": "nan", "addr:state": "KY", "email": "nan", "fax": "nan", "phone": "nan", "denomination": "nan", "grades": "nan", "religion": "nan", "nodes": [ 4060850120, 4060850117, 4060850134, 4060850127, 4060850109, 4060850105, 4060850107, 4060850100, 358608207, 4060849930, 4060849780, 4060849771, 4060849748, 4060849744, 4060849705, 4060849711, 4060849583, 4060849698, 4060849476, 4060849502, 4060849578, 4060849715, 4060849695, 4060849732, 2767104882, 4060849903, 4060849733, 4060849933, 4060850300, 4060850125, 4060850120 ], "building": "school", "addr:housename": "nan", "wikipedia": "nan", "building:levels": "nan", "gnis:edited": "nan", "name:etymology:wikidata": "nan", "capacity": "nan", "contact:email": "nan", "contact:phone": "nan", "contact:website": "nan", "fee": "nan", "operator:type": "nan", "preschool": "nan", "ways": "nan", "type": "nan" }, "geometry": { "type": "Polygon", "coordinates": [ [ [ -84.5117229, 37.979336 ], [ -84.5116985, 37.9793251 ], [ -84.5116541, 37.979391 ], [ -84.51161, 37.9793693 ], [ -84.5116533, 37.9793039 ], [ -84.5115881, 37.9792738 ], [ -84.5115746, 37.9792921 ], [ -84.5114622, 37.9792402 ], [ -84.5115239, 37.9791565 ], [ -84.5111638, 37.9789903 ], [ -84.5112496, 37.9788738 ], [ -84.5111635, 37.978834 ], [ -84.5112066, 37.9787754 ], [ -84.5111882, 37.9787669 ], [ -84.5112341, 37.9787047 ], [ -84.5112502, 37.9787121 ], [ -84.5113005, 37.9786439 ], [ -84.5113869, 37.9786837 ], [ -84.5115793, 37.9784225 ], [ -84.5117245, 37.9784894 ], [ -84.5116189, 37.9786327 ], [ -84.5118094, 37.9787206 ], [ -84.5118456, 37.9786714 ], [ -84.5120186, 37.9787512 ], [ -84.511921, 37.9788837 ], [ -84.5120144, 37.9789268 ], [ -84.5121431, 37.978752 ], [ -84.5126665, 37.9789934 ], [ -84.5122298, 37.9796039 ], [ -84.5117045, 37.979361 ], [ -84.5117229, 37.979336 ] ] ] } },
{ "type": "Feature", "properties": { "element_type": "way", "osmid": "404169758", "amenity": "school", "ele": "305", "gnis:county_id": "067", "gnis:created": "01/01/2000", "gnis:feature_id": "489543", "gnis:state_id": "21", "name": "Jessie M Clark Middle School", "wikidata": "nan", "operator": "nan", "designation": "nan", "addr:city": "nan", "addr:housenumber": "nan", "addr:postcode": "nan", "addr:street": "nan", "sport": "nan", "website": "nan", "addr:state": "nan", "email": "nan", "fax": "nan", "phone": "nan", "denomination": "nan", "grades": "nan", "religion": "nan", "nodes": [ 4064467159, 4064467324, 4064467154, 358585052, 4064468096, 4064467249, 4064467159 ], "building": "nan", "addr:housename": "nan", "wikipedia": "nan", "building:levels": "nan", "gnis:edited": "nan", "name:etymology:wikidata": "nan", "capacity": "nan", "contact:email": "nan", "contact:phone": "nan", "contact:website": "nan", "fee": "nan", "operator:type": "nan", "preschool": "nan", "ways": "nan", "type": "nan" }, "geometry": { "type": "Polygon", "coordinates": [ [ [ -84.5503879, 37.99663 ], [ -84.5500906, 37.9971353 ], [ -84.5486062, 37.9965929 ], [ -84.5471228, 37.9991141 ], [ -84.5493882, 37.9999418 ], [ -84.5511688, 37.9969153 ], [ -84.5503879, 37.99663 ] ] ] } },
{ "type": "Feature", "properties": { "element_type": "way", "osmid": "404174677", "amenity": "school", "ele": "300", "gnis:county_id": "067", "gnis:created": "01/01/2000", "gnis:feature_id": "504490", "gnis:state_id": "21", "name": "Stonewall Elementary School", "wikidata": "nan", "operator": "nan", "designation": "nan", "addr:city": "nan", "addr:housenumber": "nan", "addr:postcode": "nan", "addr:street": "nan", "sport": "nan", "website": "nan", "addr:state": "nan", "email": "nan", "fax": "nan", "phone": "nan", "denomination": "nan", "grades": "nan", "religion": "nan", "nodes": [ 3396798002, 4064524832, 358608428, 4064524833, 4064524834, 4064524836, 4064524839, 3396796692, 4048204677, 3396797994, 3396797995, 3396797996, 3396797997, 3396797998, 3396797999, 3170532965, 3170532966, 3396798000, 3396798001, 3396798002 ], "building": "nan", "addr:housename": "nan", "wikipedia": "nan", "building:levels": "nan", "gnis:edited": "nan", "name:etymology:wikidata": "nan", "capacity": "nan", "contact:email": "nan", "contact:phone": "nan", "contact:website": "nan", "fee": "nan", "operator:type": "nan", "preschool": "nan", "ways": "nan", "type": "nan" }, "geometry": { "type": "Polygon", "coordinates": [ [ [ -84.5561889, 38.0002193 ], [ -84.5544086, 37.9995427 ], [ -84.554017, 38.0001641 ], [ -84.5538668, 38.0003289 ], [ -84.5537059, 38.0004727 ], [ -84.5531104, 38.0008066 ], [ -84.5529441, 38.0009081 ], [ -84.5529907, 38.0009687 ], [ -84.5534369, 38.0011906 ], [ -84.5539894, 38.0013036 ], [ -84.5543613, 38.0015841 ], [ -84.5543932, 38.0017515 ], [ -84.5545207, 38.0017055 ], [ -84.554781, 38.0018687 ], [ -84.5555142, 38.0017515 ], [ -84.5556789, 38.0017473 ], [ -84.5558967, 38.0015799 ], [ -84.5557214, 38.0013455 ], [ -84.5557692, 38.0008054 ], [ -84.5561889, 38.0002193 ] ] ] } },
{ "type": "Feature", "properties": { "element_type": "way", "osmid": "404667901", "amenity": "school", "ele": "283", "gnis:county_id": "067", "gnis:created": "01/01/2000", "gnis:feature_id": "2054525", "gnis:state_id": "21", "name": "Veterans Park Elementary School", "wikidata": "nan", "operator": "nan", "designation": "nan", "addr:city": "nan", "addr:housenumber": "nan", "addr:postcode": "nan", "addr:street": "nan", "sport": "nan", "website": "nan", "addr:state": "nan", "email": "nan", "fax": "nan", "phone": "nan", "denomination": "nan", "grades": "nan", "religion": "nan", "nodes": [ 4069417605, 6516907287, 358615014, 4069417507, 4069417831, 4069418262, 4069418116, 4069418003, 4069417910, 4069417848, 4069417628, 4069417605 ], "building": "nan", "addr:housename": "nan", "wikipedia": "nan", "building:levels": "nan", "gnis:edited": "nan", "name:etymology:wikidata": "nan", "capacity": "nan", "contact:email": "nan", "contact:phone": "nan", "contact:website": "nan", "fee": "nan", "operator:type": "nan", "preschool": "nan", "ways": "nan", "type": "nan" }, "geometry": { "type": "Polygon", "coordinates": [ [ [ -84.5024063, 37.9599098 ], [ -84.5016926, 37.9592823 ], [ -84.500534, 37.9582636 ], [ -84.4988361, 37.9594645 ], [ -84.4985997, 37.9604313 ], [ -84.4994806, 37.9610106 ], [ -84.4997172, 37.9608436 ], [ -84.499987, 37.9606855 ], [ -84.5002352, 37.9605645 ], [ -84.5005119, 37.9604626 ], [ -84.5020802, 37.9599971 ], [ -84.5024063, 37.9599098 ] ] ] } },
{ "type": "Feature", "properties": { "element_type": "way", "osmid": "405241382", "amenity": "school", "ele": "nan", "gnis:county_id": "nan", "gnis:created": "nan", "gnis:feature_id": "nan", "gnis:state_id": "nan", "name": "nan", "wikidata": "nan", "operator": "nan", "designation": "nan", "addr:city": "nan", "addr:housenumber": "nan", "addr:postcode": "nan", "addr:street": "nan", "sport": "nan", "website": "nan", "addr:state": "nan", "email": "nan", "fax": "nan", "phone": "nan", "denomination": "nan", "grades": "nan", "religion": "nan", "nodes": [ 4074554828, 4074554829, 4074554830, 4029272736, 4029272738, 4074554828 ], "building": "nan", "addr:housename": "nan", "wikipedia": "nan", "building:levels": "nan", "gnis:edited": "nan", "name:etymology:wikidata": "nan", "capacity": "nan", "contact:email": "nan", "contact:phone": "nan", "contact:website": "nan", "fee": "nan", "operator:type": "nan", "preschool": "nan", "ways": "nan", "type": "nan" }, "geometry": { "type": "Polygon", "coordinates": [ [ [ -84.494424, 38.0357493 ], [ -84.4948948, 38.0361749 ], [ -84.4939335, 38.036812 ], [ -84.4935105, 38.0364444 ], [ -84.4944121, 38.0357577 ], [ -84.494424, 38.0357493 ] ] ] } },
{ "type": "Feature", "properties": { "element_type": "way", "osmid": "405574313", "amenity": "school", "ele": "317", "gnis:county_id": "067", "gnis:created": "09/20/1979", "gnis:feature_id": "494058", "gnis:state_id": "21", "name": "Henry Clay High School", "wikidata": "Q5719501", "operator": "nan", "designation": "nan", "addr:city": "nan", "addr:housenumber": "nan", "addr:postcode": "nan", "addr:street": "nan", "sport": "nan", "website": "nan", "addr:state": "nan", "email": "nan", "fax": "nan", "phone": "nan", "denomination": "nan", "grades": "nan", "religion": "nan", "nodes": [ 1576920020, 4077486188, 4077486303, 4077486301, 4077486299, 4077486296, 4077486295, 358592018, 4077486298, 4077486300, 4077486308, 4077486309, 4077486307, 4077486306, 4077486292, 4077486287, 4077486273, 4077486262, 4077486168, 4077486164, 1576920018, 1576920020 ], "building": "nan", "addr:housename": "nan", "wikipedia": "nan", "building:levels": "nan", "gnis:edited": "nan", "name:etymology:wikidata": "nan", "capacity": "nan", "contact:email": "nan", "contact:phone": "nan", "contact:website": "nan", "fee": "nan", "operator:type": "nan", "preschool": "nan", "ways": "nan", "type": "nan" }, "geometry": { "type": "Polygon", "coordinates": [ [ [ -84.4699343, 38.0128381 ], [ -84.4659819, 38.0156486 ], [ -84.4678058, 38.0173391 ], [ -84.4679674, 38.0172784 ], [ -84.4681176, 38.0172382 ], [ -84.4683214, 38.0172086 ], [ -84.4684609, 38.0172044 ], [ -84.4686191, 38.0172086 ], [ -84.4687747, 38.0172255 ], [ -84.468949, 38.0172657 ], [ -84.4699066, 38.0175277 ], [ -84.4699549, 38.0175277 ], [ -84.4700058, 38.0175108 ], [ -84.47003, 38.0174728 ], [ -84.4701936, 38.0170924 ], [ -84.4703197, 38.0169128 ], [ -84.4703705, 38.0168571 ], [ -84.4704645, 38.0167543 ], [ -84.4720631, 38.0153195 ], [ -84.4721731, 38.0152096 ], [ -84.4721176, 38.0151627 ], [ -84.4699343, 38.0128381 ] ] ] } },
{ "type": "Feature", "properties": { "element_type": "way", "osmid": "405576555", "amenity": "school", "ele": "311", "gnis:county_id": "067", "gnis:created": "01/01/2000", "gnis:feature_id": "487853", "gnis:state_id": "21", "name": "Breckinridge Elementary School", "wikidata": "nan", "operator": "nan", "designation": "nan", "addr:city": "nan", "addr:housenumber": "nan", "addr:postcode": "nan", "addr:street": "nan", "sport": "nan", "website": "nan", "addr:state": "nan", "email": "nan", "fax": "nan", "phone": "nan", "denomination": "nan", "grades": "nan", "religion": "nan", "nodes": [ 4077507428, 4077507431, 4077507430, 4077507429, 4077507426, 4077507424, 358582775, 4077507425, 4077507427, 4077507428 ], "building": "nan", "addr:housename": "nan", "wikipedia": "nan", "building:levels": "nan", "gnis:edited": "nan", "name:etymology:wikidata": "nan", "capacity": "nan", "contact:email": "nan", "contact:phone": "nan", "contact:website": "nan", "fee": "nan", "operator:type": "nan", "preschool": "nan", "ways": "nan", "type": "nan" }, "geometry": { "type": "Polygon", "coordinates": [ [ [ -84.462379, 38.0237643 ], [ -84.460433, 38.0251567 ], [ -84.4601112, 38.0248609 ], [ -84.4600119, 38.0246623 ], [ -84.4596016, 38.0234917 ], [ -84.4596177, 38.0226465 ], [ -84.4610151, 38.0230924 ], [ -84.4614094, 38.0228811 ], [ -84.4621148, 38.0235297 ], [ -84.462379, 38.0237643 ] ] ] } },
{ "type": "Feature", "properties": { "element_type": "way", "osmid": "405583091", "amenity": "school", "ele": "297", "gnis:county_id": "067", "gnis:created": "01/01/2000", "gnis:feature_id": "498002", "gnis:state_id": "21", "name": "Meadowthorpe Elementary School", "wikidata": "nan", "operator": "nan", "designation": "nan", "addr:city": "nan", "addr:housenumber": "nan", "addr:postcode": "nan", "addr:street": "nan", "sport": "nan", "website": "nan", "addr:state": "nan", "email": "nan", "fax": "nan", "phone": "nan", "denomination": "nan", "grades": "nan", "religion": "nan", "nodes": [ 4077541186, 4077557874, 4042948229, 4077557872, 4077557865, 4077557863, 4077557845, 358598204, 4077557833, 4077557808, 4077557804, 4077541188, 4077541186 ], "building": "nan", "addr:housename": "nan", "wikipedia": "nan", "building:levels": "nan", "gnis:edited": "nan", "name:etymology:wikidata": "nan", "capacity": "nan", "contact:email": "nan", "contact:phone": "nan", "contact:website": "nan", "fee": "nan", "operator:type": "nan", "preschool": "nan", "ways": "nan", "type": "nan" }, "geometry": { "type": "Polygon", "coordinates": [ [ [ -84.5274862, 38.0715322 ], [ -84.525978, 38.0743607 ], [ -84.5260619, 38.074328 ], [ -84.5267577, 38.0739685 ], [ -84.5270259, 38.0738059 ], [ -84.5270018, 38.0737763 ], [ -84.5274578, 38.0734934 ], [ -84.5276375, 38.0733562 ], [ -84.5280157, 38.0730183 ], [ -84.5288713, 38.0722138 ], [ -84.5290081, 38.0720491 ], [ -84.528897, 38.0720136 ], [ -84.5274862, 38.0715322 ] ] ] } },
{ "type": "Feature", "properties": { "element_type": "way", "osmid": "405585022", "amenity": "school", "ele": "283", "gnis:county_id": "067", "gnis:created": "02/16/2005", "gnis:feature_id": "2061160", "gnis:state_id": "21", "name": "Paul Laurence Dunbar High School", "wikidata": "Q7151958", "operator": "nan", "designation": "nan", "addr:city": "Lexington", "addr:housenumber": "1600", "addr:postcode": "40513", "addr:street": "Man O War Boulevard", "sport": "nan", "website": "nan", "addr:state": "KY", "email": "nan", "fax": "nan", "phone": "nan", "denomination": "nan", "grades": "nan", "religion": "nan", "nodes": [ 4077575878, 4077575879, 4062598085, 4077575996, 4077576026, 4077576031, 4077576034, 4077576033, 358615023, 4077576023, 4077576027, 4077575913, 4077575911, 4077575878 ], "building": "nan", "addr:housename": "nan", "wikipedia": "nan", "building:levels": "nan", "gnis:edited": "nan", "name:etymology:wikidata": "nan", "capacity": "nan", "contact:email": "nan", "contact:phone": "nan", "contact:website": "nan", "fee": "nan", "operator:type": "nan", "preschool": "nan", "ways": "nan", "type": "nan" }, "geometry": { "type": "Polygon", "coordinates": [ [ [ -84.57582, 38.0139464 ], [ -84.5758146, 38.0141789 ], [ -84.5758897, 38.0142465 ], [ -84.5753104, 38.0178959 ], [ -84.576276, 38.0187496 ], [ -84.5764342, 38.0188489 ], [ -84.5766005, 38.0188996 ], [ -84.5767534, 38.0188764 ], [ -84.5775661, 38.018644 ], [ -84.5776761, 38.0186355 ], [ -84.5780704, 38.0187686 ], [ -84.5798728, 38.0153581 ], [ -84.5798165, 38.0152883 ], [ -84.57582, 38.0139464 ] ] ] } },
{ "type": "Feature", "properties": { "element_type": "way", "osmid": "406710225", "amenity": "school", "ele": "308", "gnis:county_id": "067", "gnis:created": "02/16/2005", "gnis:feature_id": "2061163", "gnis:state_id": "21", "name": "Martin Luther King Junior Academy for Excellence", "wikidata": "nan", "operator": "nan", "designation": "nan", "addr:city": "Lexington", "addr:housenumber": "2200", "addr:postcode": "nan", "addr:street": "Liberty Road", "sport": "nan", "website": "nan", "addr:state": "KY", "email": "nan", "fax": "nan", "phone": "nan", "denomination": "nan", "grades": "nan", "religion": "nan", "nodes": [ 4087514921, 4087514920, 4087514911, 4087514913, 4087514881, 4087514880, 4087514877, 4087514878, 4087514862, 4087514860, 4087514771, 4087514768, 4087514893, 4087514892, 4087514898, 4087514896, 4087514908, 4087514912, 4087514919, 358615028, 4087514945, 4087514946, 4087514950, 4087514955, 4087514921 ], "building": "yes", "addr:housename": "nan", "wikipedia": "nan", "building:levels": "nan", "gnis:edited": "nan", "name:etymology:wikidata": "Q8027", "capacity": "nan", "contact:email": "nan", "contact:phone": "nan", "contact:website": "nan", "fee": "nan", "operator:type": "nan", "preschool": "nan", "ways": "nan", "type": "nan" }, "geometry": { "type": "Polygon", "coordinates": [ [ [ -84.4486473, 38.0260445 ], [ -84.4486524, 38.0260444 ], [ -84.4486492, 38.0259519 ], [ -84.4485875, 38.0259533 ], [ -84.4485775, 38.0256681 ], [ -84.4486364, 38.0256667 ], [ -84.4486361, 38.0256584 ], [ -84.4485467, 38.0256604 ], [ -84.4485449, 38.025608 ], [ -84.4486352, 38.025606 ], [ -84.4486186, 38.0251333 ], [ -84.4488333, 38.0251285 ], [ -84.4488549, 38.0257447 ], [ -84.4490131, 38.0257413 ], [ -84.4490146, 38.0257844 ], [ -84.4494822, 38.0257741 ], [ -84.449488, 38.0259388 ], [ -84.4488573, 38.0259527 ], [ -84.4488603, 38.0260382 ], [ -84.4489736, 38.0260357 ], [ -84.4489816, 38.0262626 ], [ -84.4488895, 38.0262646 ], [ -84.4488905, 38.0262934 ], [ -84.4486562, 38.0262986 ], [ -84.4486473, 38.0260445 ] ] ] } },
{ "type": "Feature", "properties": { "element_type": "way", "osmid": "416576649", "amenity": "school", "ele": "302", "gnis:county_id": "067", "gnis:created": "02/16/2005", "gnis:feature_id": "2061157", "gnis:state_id": "21", "name": "Rosa Parks Elementary School", "wikidata": "nan", "operator": "nan", "designation": "nan", "addr:city": "nan", "addr:housenumber": "nan", "addr:postcode": "nan", "addr:street": "nan", "sport": "nan", "website": "nan", "addr:state": "nan", "email": "nan", "fax": "nan", "phone": "nan", "denomination": "nan", "grades": "nan", "religion": "nan", "nodes": [ 1577574920, 4173251027, 4173250883, 4173250437, 4173250523, 4173250513, 358615019, 4173250475, 4173250516, 4173250698, 4173250932, 4173251905, 4173254867, 4173255520, 4173255917, 4173256002, 4173258106, 4173258426, 4173258743, 4173259212, 1577574884, 1577574920 ], "building": "nan", "addr:housename": "nan", "wikipedia": "nan", "building:levels": "nan", "gnis:edited": "nan", "name:etymology:wikidata": "Q41921", "capacity": "nan", "contact:email": "nan", "contact:phone": "nan", "contact:website": "nan", "fee": "nan", "operator:type": "nan", "preschool": "nan", "ways": "nan", "type": "nan" }, "geometry": { "type": "Polygon", "coordinates": [ [ [ -84.5650427, 38.0260003 ], [ -84.5664883, 38.0233648 ], [ -84.5671667, 38.0232226 ], [ -84.5669563, 38.022756 ], [ -84.5664485, 38.0228357 ], [ -84.5661359, 38.0228246 ], [ -84.5657344, 38.0228421 ], [ -84.5649554, 38.0227991 ], [ -84.564904, 38.0228283 ], [ -84.5648418, 38.0230319 ], [ -84.5647357, 38.0232643 ], [ -84.5644381, 38.0237577 ], [ -84.5639278, 38.0247419 ], [ -84.564204, 38.0248221 ], [ -84.5641251, 38.0249767 ], [ -84.564293, 38.0250275 ], [ -84.5640594, 38.0254876 ], [ -84.5641868, 38.0255461 ], [ -84.5642621, 38.02562 ], [ -84.5643152, 38.025716 ], [ -84.5643319, 38.0257911 ], [ -84.5650427, 38.0260003 ] ] ] } },
{ "type": "Feature", "properties": { "element_type": "way", "osmid": "416844074", "amenity": "school", "ele": "nan", "gnis:county_id": "nan", "gnis:created": "nan", "gnis:feature_id": "nan", "gnis:state_id": "nan", "name": "Winburn Middle School", "wikidata": "nan", "operator": "nan", "designation": "nan", "addr:city": "nan", "addr:housenumber": "nan", "addr:postcode": "nan", "addr:street": "nan", "sport": "nan", "website": "nan", "addr:state": "nan", "email": "nan", "fax": "nan", "phone": "nan", "denomination": "nan", "grades": "nan", "religion": "nan", "nodes": [ 4175288689, 4175288544, 1578893115, 1578893194, 1578893220, 4175290472, 4175291053, 4175291027, 4175291001, 4175290668, 4175289782, 4175289570, 4175289066, 4175288999, 4175288689 ], "building": "nan", "addr:housename": "nan", "wikipedia": "nan", "building:levels": "nan", "gnis:edited": "nan", "name:etymology:wikidata": "nan", "capacity": "nan", "contact:email": "nan", "contact:phone": "nan", "contact:website": "nan", "fee": "nan", "operator:type": "nan", "preschool": "nan", "ways": "nan", "type": "nan" }, "geometry": { "type": "Polygon", "coordinates": [ [ [ -84.479574, 38.0862237 ], [ -84.4774557, 38.0861034 ], [ -84.4770149, 38.0869361 ], [ -84.4764233, 38.086789 ], [ -84.4761003, 38.0875377 ], [ -84.475776, 38.0883347 ], [ -84.4772941, 38.0891285 ], [ -84.477565, 38.0889659 ], [ -84.4777287, 38.0888477 ], [ -84.477911, 38.0886936 ], [ -84.4789571, 38.0874819 ], [ -84.4791771, 38.0871821 ], [ -84.4794506, 38.086705 ], [ -84.4795204, 38.0865403 ], [ -84.479574, 38.0862237 ] ] ] } },
{ "type": "Feature", "properties": { "element_type": "way", "osmid": "417136261", "amenity": "school", "ele": "292", "gnis:county_id": "067", "gnis:created": "01/01/2000", "gnis:feature_id": "496588", "gnis:state_id": "21", "name": "Rise STEM Academy for Girls", "wikidata": "nan", "operator": "nan", "designation": "nan", "addr:city": "nan", "addr:housenumber": "nan", "addr:postcode": "nan", "addr:street": "nan", "sport": "nan", "website": "nan", "addr:state": "nan", "email": "nan", "fax": "nan", "phone": "nan", "denomination": "nan", "grades": "nan", "religion": "nan", "nodes": [ 4177511010, 4177511014, 4177511017, 4177511021, 4177511022, 4177511020, 358596059, 4177511012, 4177511011, 4177511013, 4177511002, 4177511003, 4177511004, 4177511010 ], "building": "nan", "addr:housename": "nan", "wikipedia": "nan", "building:levels": "nan", "gnis:edited": "nan", "name:etymology:wikidata": "nan", "capacity": "nan", "contact:email": "nan", "contact:phone": "nan", "contact:website": "nan", "fee": "nan", "operator:type": "nan", "preschool": "nan", "ways": "nan", "type": "nan" }, "geometry": { "type": "Polygon", "coordinates": [ [ [ -84.5185854, 38.1037702 ], [ -84.5182447, 38.1043971 ], [ -84.5181026, 38.1045279 ], [ -84.5179792, 38.1045828 ], [ -84.5177807, 38.1045913 ], [ -84.5176305, 38.1045744 ], [ -84.516673, 38.1042958 ], [ -84.5162706, 38.1042409 ], [ -84.5158844, 38.1042409 ], [ -84.5155035, 38.1043042 ], [ -84.5148812, 38.10224 ], [ -84.5175634, 38.1030927 ], [ -84.5174186, 38.1034051 ], [ -84.5185854, 38.1037702 ] ] ] } },
{ "type": "Feature", "properties": { "element_type": "way", "osmid": "441543996", "amenity": "school", "ele": "nan", "gnis:county_id": "nan", "gnis:created": "nan", "gnis:feature_id": "nan", "gnis:state_id": "nan", "name": "nan", "wikidata": "nan", "operator": "nan", "designation": "nan", "addr:city": "nan", "addr:housenumber": "nan", "addr:postcode": "nan", "addr:street": "nan", "sport": "nan", "website": "nan", "addr:state": "nan", "email": "nan", "fax": "nan", "phone": "nan", "denomination": "nan", "grades": "nan", "religion": "nan", "nodes": [ 9127090999, 4392915313, 4392915262, 4392915261, 4392915260, 9127161679, 9127090999 ], "building": "nan", "addr:housename": "nan", "wikipedia": "nan", "building:levels": "nan", "gnis:edited": "nan", "name:etymology:wikidata": "nan", "capacity": "nan", "contact:email": "nan", "contact:phone": "nan", "contact:website": "nan", "fee": "nan", "operator:type": "nan", "preschool": "nan", "ways": "nan", "type": "nan" }, "geometry": { "type": "Polygon", "coordinates": [ [ [ -84.6518312, 37.8545351 ], [ -84.649191, 37.8544026 ], [ -84.6491802, 37.8544515 ], [ -84.6489685, 37.8568392 ], [ -84.6520379, 37.8569824 ], [ -84.6520286, 37.8568718 ], [ -84.6518312, 37.8545351 ] ] ] } },
{ "type": "Feature", "properties": { "element_type": "way", "osmid": "467104934", "amenity": "school", "ele": "nan", "gnis:county_id": "nan", "gnis:created": "nan", "gnis:feature_id": "nan", "gnis:state_id": "nan", "name": "nan", "wikidata": "nan", "operator": "nan", "designation": "nan", "addr:city": "nan", "addr:housenumber": "nan", "addr:postcode": "nan", "addr:street": "nan", "sport": "nan", "website": "nan", "addr:state": "nan", "email": "nan", "fax": "nan", "phone": "nan", "denomination": "nan", "grades": "nan", "religion": "nan", "nodes": [ 4617755706, 4617755707, 4617755708, 4617755709, 4617755710, 4617755711, 4617755712, 4617755713, 4617755714, 4617755723, 4617755722, 4617755720, 4617755719, 4617755717, 4617755706 ], "building": "nan", "addr:housename": "nan", "wikipedia": "nan", "building:levels": "nan", "gnis:edited": "nan", "name:etymology:wikidata": "nan", "capacity": "nan", "contact:email": "nan", "contact:phone": "nan", "contact:website": "nan", "fee": "nan", "operator:type": "nan", "preschool": "nan", "ways": "nan", "type": "nan" }, "geometry": { "type": "Polygon", "coordinates": [ [ [ -84.6669018, 37.8606072 ], [ -84.6676411, 37.8597317 ], [ -84.6662802, 37.8590011 ], [ -84.6660542, 37.8588821 ], [ -84.6652042, 37.8580419 ], [ -84.6651171, 37.8579564 ], [ -84.6650827, 37.8580425 ], [ -84.6642014, 37.8591039 ], [ -84.6654236, 37.859735 ], [ -84.6653586, 37.8598242 ], [ -84.6657243, 37.8600098 ], [ -84.6658251, 37.8600609 ], [ -84.6665856, 37.8604468 ], [ -84.666684, 37.8604967 ], [ -84.6669018, 37.8606072 ] ] ] } },
{ "type": "Feature", "properties": { "element_type": "way", "osmid": "476132249", "amenity": "school", "ele": "nan", "gnis:county_id": "nan", "gnis:created": "nan", "gnis:feature_id": "nan", "gnis:state_id": "nan", "name": "nan", "wikidata": "nan", "operator": "nan", "designation": "nan", "addr:city": "nan", "addr:housenumber": "nan", "addr:postcode": "nan", "addr:street": "nan", "sport": "nan", "website": "nan", "addr:state": "nan", "email": "nan", "fax": "nan", "phone": "nan", "denomination": "nan", "grades": "nan", "religion": "nan", "nodes": [ 163539285, 4697775584, 4076210884, 4076210883, 4076210882, 163510972, 4697775570, 9710411442, 163539286, 9710411441, 6648982955, 6648982948, 4058983190, 163498517, 163483396, 4697775543, 4697775489, 163498511, 4697775187, 163543457, 4697775536, 163414772, 4697775562, 163451814, 163543460, 163543462, 4697775553, 163543464, 163543467, 163539285 ], "building": "nan", "addr:housename": "nan", "wikipedia": "nan", "building:levels": "nan", "gnis:edited": "nan", "name:etymology:wikidata": "nan", "capacity": "nan", "contact:email": "nan", "contact:phone": "nan", "contact:website": "nan", "fee": "nan", "operator:type": "nan", "preschool": "nan", "ways": "nan", "type": "nan" }, "geometry": { "type": "Polygon", "coordinates": [ [ [ -84.491802, 38.023138 ], [ -84.4917033, 38.0231227 ], [ -84.4911792, 38.0230479 ], [ -84.490877, 38.0230042 ], [ -84.4906089, 38.0229654 ], [ -84.490509, 38.022951 ], [ -84.4904834, 38.0229466 ], [ -84.4895138, 38.0228328 ], [ -84.4894032, 38.0228199 ], [ -84.4893924, 38.0228624 ], [ -84.4888757, 38.0249031 ], [ -84.488835, 38.0250721 ], [ -84.4888148, 38.025178 ], [ -84.4888092, 38.0252476 ], [ -84.4896183, 38.0253903 ], [ -84.4905818, 38.0255366 ], [ -84.4908756, 38.0255804 ], [ -84.4909693, 38.0255806 ], [ -84.4909838, 38.025519 ], [ -84.491001, 38.02545 ], [ -84.4911587, 38.0248145 ], [ -84.4911863, 38.0247032 ], [ -84.4912322, 38.0244589 ], [ -84.4912686, 38.0243126 ], [ -84.491366, 38.0239579 ], [ -84.491408, 38.02385 ], [ -84.4914257, 38.0238071 ], [ -84.491492, 38.023647 ], [ -84.491626, 38.023404 ], [ -84.491802, 38.023138 ] ] ] } },
{ "type": "Feature", "properties": { "element_type": "way", "osmid": "486171338", "amenity": "school", "ele": "nan", "gnis:county_id": "nan", "gnis:created": "nan", "gnis:feature_id": "nan", "gnis:state_id": "nan", "name": "Tates Creek Schools", "wikidata": "nan", "operator": "nan", "designation": "nan", "addr:city": "nan", "addr:housenumber": "nan", "addr:postcode": "nan", "addr:street": "nan", "sport": "nan", "website": "nan", "addr:state": "nan", "email": "nan", "fax": "nan", "phone": "nan", "denomination": "nan", "grades": "0-12", "religion": "nan", "nodes": [ 4788632588, 4788632589, 4788632590, 4788632591, 1591386520, 10647472192, 10647472191, 1591386539, 10647472190, 1591386525, 1591386558, 1591386515, 1591386582, 8253045727, 8253045728, 8253045729, 8253045730, 8253045733, 8253045732, 8253045731, 4788632592, 4788632593, 4788632588 ], "building": "nan", "addr:housename": "nan", "wikipedia": "nan", "building:levels": "nan", "gnis:edited": "nan", "name:etymology:wikidata": "nan", "capacity": "nan", "contact:email": "nan", "contact:phone": "nan", "contact:website": "nan", "fee": "nan", "operator:type": "nan", "preschool": "nan", "ways": "nan", "type": "nan" }, "geometry": { "type": "Polygon", "coordinates": [ [ [ -84.4806402, 37.9884192 ], [ -84.478545, 37.9876717 ], [ -84.4790688, 37.9865559 ], [ -84.4760676, 37.9848599 ], [ -84.4782115, 37.9813989 ], [ -84.4792354, 37.9815036 ], [ -84.4793783, 37.9815858 ], [ -84.4788283, 37.982647 ], [ -84.4790765, 37.9827316 ], [ -84.4797667, 37.9829667 ], [ -84.4802715, 37.9833312 ], [ -84.4799764, 37.9838724 ], [ -84.4807811, 37.9841557 ], [ -84.4808982, 37.984199 ], [ -84.4810073, 37.9840721 ], [ -84.4810965, 37.9840031 ], [ -84.4814975, 37.9838664 ], [ -84.481894, 37.9836965 ], [ -84.4823058, 37.9834715 ], [ -84.4825742, 37.9833642 ], [ -84.4841794, 37.9848711 ], [ -84.4822966, 37.9865224 ], [ -84.4806402, 37.9884192 ] ] ] } },
{ "type": "Feature", "properties": { "element_type": "way", "osmid": "527168107", "amenity": "school", "ele": "nan", "gnis:county_id": "nan", "gnis:created": "nan", "gnis:feature_id": "nan", "gnis:state_id": "nan", "name": "Lexington Christian Academy", "wikidata": "Q17031598", "operator": "Lexington Christian Academy, Inc.", "designation": "nan", "addr:city": "Lexington", "addr:housenumber": "450", "addr:postcode": "40503", "addr:street": "West Reynolds Road", "sport": "nan", "website": "nan", "addr:state": "KY", "email": "nan", "fax": "nan", "phone": "nan", "denomination": "nondenominational", "grades": "preschool-12", "religion": "christian", "nodes": [ 5125580206, 5125580204, 5125580201, 5125580200, 5125580175, 5125580172, 5125580171, 5125580173, 5125580211, 5125580212, 5125580214, 5125580216, 5125580215, 5125580213, 5125580217, 5125580210, 5125580209, 5125580208, 5125580206 ], "building": "nan", "addr:housename": "nan", "wikipedia": "en:Lexington Christian Academy (Kentucky)", "building:levels": "nan", "gnis:edited": "nan", "name:etymology:wikidata": "nan", "capacity": "1600", "contact:email": "admissions@lexingtonchristian.org", "contact:phone": "+1-859-422-5700", "contact:website": "http://www.lexingtonchristian.org/", "fee": "yes", "operator:type": "private", "preschool": "yes", "ways": "nan", "type": "nan" }, "geometry": { "type": "Polygon", "coordinates": [ [ [ -84.5411873, 37.9932509 ], [ -84.5417114, 37.9931581 ], [ -84.5422451, 37.9931245 ], [ -84.542611, 37.9931237 ], [ -84.5436281, 37.9912932 ], [ -84.5401393, 37.9901304 ], [ -84.5387333, 37.9896038 ], [ -84.5360255, 37.9905682 ], [ -84.5339294, 37.9944228 ], [ -84.5343206, 37.994561 ], [ -84.5347257, 37.9946082 ], [ -84.5353473, 37.9946632 ], [ -84.5362988, 37.9946232 ], [ -84.5364827, 37.9945432 ], [ -84.5381124, 37.9948214 ], [ -84.5390556, 37.9941097 ], [ -84.5396813, 37.9937049 ], [ -84.5405043, 37.9934063 ], [ -84.5411873, 37.9932509 ] ] ] } },
{ "type": "Feature", "properties": { "element_type": "way", "osmid": "610343565", "amenity": "school", "ele": "nan", "gnis:county_id": "nan", "gnis:created": "nan", "gnis:feature_id": "nan", "gnis:state_id": "nan", "name": "Southern Elementary", "wikidata": "nan", "operator": "nan", "designation": "nan", "addr:city": "nan", "addr:housenumber": "nan", "addr:postcode": "nan", "addr:street": "nan", "sport": "nan", "website": "nan", "addr:state": "nan", "email": "nan", "fax": "nan", "phone": "nan", "denomination": "nan", "grades": "nan", "religion": "nan", "nodes": [ 5780566155, 5780566051, 5780566153, 5780566157, 3906820208, 5782252984, 3906820207, 9230596113, 5780566156, 5780566158, 5780566052, 5780566154, 5780566155 ], "building": "nan", "addr:housename": "nan", "wikipedia": "nan", "building:levels": "nan", "gnis:edited": "nan", "name:etymology:wikidata": "nan", "capacity": "nan", "contact:email": "nan", "contact:phone": "nan", "contact:website": "nan", "fee": "nan", "operator:type": "nan", "preschool": "nan", "ways": "nan", "type": "nan" }, "geometry": { "type": "Polygon", "coordinates": [ [ [ -84.5569297, 38.192656 ], [ -84.5544358, 38.1924929 ], [ -84.5543445, 38.1933032 ], [ -84.5546384, 38.1933262 ], [ -84.5551582, 38.1946485 ], [ -84.555397, 38.1946639 ], [ -84.5565315, 38.194737 ], [ -84.5566161, 38.1938948 ], [ -84.5566738, 38.1933203 ], [ -84.556745, 38.193109 ], [ -84.5567982, 38.1930137 ], [ -84.5568697, 38.1928849 ], [ -84.5569297, 38.192656 ] ] ] } },
{ "type": "Feature", "properties": { "element_type": "way", "osmid": "610344579", "amenity": "school", "ele": "nan", "gnis:county_id": "nan", "gnis:created": "nan", "gnis:feature_id": "nan", "gnis:state_id": "nan", "name": "Garth Elementery", "wikidata": "nan", "operator": "nan", "designation": "nan", "addr:city": "nan", "addr:housenumber": "nan", "addr:postcode": "nan", "addr:street": "nan", "sport": "nan", "website": "nan", "addr:state": "nan", "email": "nan", "fax": "nan", "phone": "nan", "denomination": "nan", "grades": "nan", "religion": "nan", "nodes": [ 5780571672, 5780571668, 5780571670, 5780571669, 5780571667, 5780571673, 5780571671, 5780571672 ], "building": "nan", "addr:housename": "nan", "wikipedia": "nan", "building:levels": "nan", "gnis:edited": "nan", "name:etymology:wikidata": "nan", "capacity": "nan", "contact:email": "nan", "contact:phone": "nan", "contact:website": "nan", "fee": "nan", "operator:type": "nan", "preschool": "nan", "ways": "nan", "type": "nan" }, "geometry": { "type": "Polygon", "coordinates": [ [ [ -84.5601542, 38.2050704 ], [ -84.5585964, 38.2049817 ], [ -84.5584559, 38.2066126 ], [ -84.5598717, 38.2066905 ], [ -84.5599207, 38.2066713 ], [ -84.5599657, 38.2066394 ], [ -84.5600136, 38.2066032 ], [ -84.5601542, 38.2050704 ] ] ] } },
{ "type": "Feature", "properties": { "element_type": "way", "osmid": "610609865", "amenity": "school", "ele": "nan", "gnis:county_id": "nan", "gnis:created": "nan", "gnis:feature_id": "nan", "gnis:state_id": "nan", "name": "Lemons Mill Elementary School", "wikidata": "nan", "operator": "nan", "designation": "nan", "addr:city": "nan", "addr:housenumber": "nan", "addr:postcode": "nan", "addr:street": "nan", "sport": "nan", "website": "nan", "addr:state": "nan", "email": "nan", "fax": "nan", "phone": "nan", "denomination": "nan", "grades": "nan", "religion": "nan", "nodes": [ 5782546586, 5782546564, 5782546582, 5782544145, 5782546560, 5782546579, 5782544141, 5782546586 ], "building": "nan", "addr:housename": "nan", "wikipedia": "nan", "building:levels": "nan", "gnis:edited": "nan", "name:etymology:wikidata": "nan", "capacity": "nan", "contact:email": "nan", "contact:phone": "nan", "contact:website": "nan", "fee": "nan", "operator:type": "nan", "preschool": "nan", "ways": "nan", "type": "nan" }, "geometry": { "type": "Polygon", "coordinates": [ [ [ -84.5400299, 38.1891275 ], [ -84.5382913, 38.1886347 ], [ -84.5389269, 38.1871395 ], [ -84.5376162, 38.1865893 ], [ -84.5379424, 38.1858513 ], [ -84.5384138, 38.1851724 ], [ -84.5416385, 38.1863238 ], [ -84.5400299, 38.1891275 ] ] ] } },
{ "type": "Feature", "properties": { "element_type": "way", "osmid": "613056103", "amenity": "school", "ele": "nan", "gnis:county_id": "nan", "gnis:created": "nan", "gnis:feature_id": "nan", "gnis:state_id": "nan", "name": "nan", "wikidata": "nan", "operator": "nan", "designation": "nan", "addr:city": "nan", "addr:housenumber": "nan", "addr:postcode": "nan", "addr:street": "nan", "sport": "nan", "website": "nan", "addr:state": "nan", "email": "nan", "fax": "nan", "phone": "nan", "denomination": "nan", "grades": "nan", "religion": "nan", "nodes": [ 5801722933, 5801722937, 5801722939, 7557080184, 5801722935, 7651009141, 7557080180, 5801722936, 7556696559, 7556696558, 7556696557, 7717623735, 5801722938, 6907737190, 6907737191, 7555088337, 5801722934, 3929237894, 5801722933 ], "building": "nan", "addr:housename": "nan", "wikipedia": "nan", "building:levels": "nan", "gnis:edited": "nan", "name:etymology:wikidata": "nan", "capacity": "nan", "contact:email": "nan", "contact:phone": "nan", "contact:website": "nan", "fee": "nan", "operator:type": "nan", "preschool": "nan", "ways": "nan", "type": "nan" }, "geometry": { "type": "Polygon", "coordinates": [ [ [ -84.5965764, 38.2126822 ], [ -84.596538, 38.209362 ], [ -84.6050077, 38.211084 ], [ -84.6050301, 38.2117948 ], [ -84.6050477, 38.212353 ], [ -84.604933, 38.2124943 ], [ -84.6048435, 38.2126044 ], [ -84.6035192, 38.2143855 ], [ -84.603791, 38.2150703 ], [ -84.6032045, 38.2156707 ], [ -84.6017417, 38.2167705 ], [ -84.6011676, 38.216969 ], [ -84.600237, 38.2170447 ], [ -84.5974561, 38.2170523 ], [ -84.5959711, 38.2166405 ], [ -84.5979532, 38.213381 ], [ -84.5980798, 38.2131488 ], [ -84.5980028, 38.2131249 ], [ -84.5965764, 38.2126822 ] ] ] } },
{ "type": "Feature", "properties": { "element_type": "way", "osmid": "725869222", "amenity": "school", "ele": "nan", "gnis:county_id": "nan", "gnis:created": "nan", "gnis:feature_id": "nan", "gnis:state_id": "nan", "name": "Creekside Elementary", "wikidata": "nan", "operator": "nan", "designation": "nan", "addr:city": "nan", "addr:housenumber": "nan", "addr:postcode": "nan", "addr:street": "nan", "sport": "nan", "website": "nan", "addr:state": "nan", "email": "nan", "fax": "nan", "phone": "nan", "denomination": "nan", "grades": "nan", "religion": "nan", "nodes": [ 6805725811, 10204463443, 6805725812, 10204463431, 10204463517, 10204463481, 10204463441, 10204319609, 10204463499, 10204463433, 10204463494, 10204463493, 10204319616, 6805725813, 6805725814, 10204463463, 10204463429, 10204463442, 10204463427, 6805725811 ], "building": "nan", "addr:housename": "nan", "wikipedia": "nan", "building:levels": "nan", "gnis:edited": "nan", "name:etymology:wikidata": "nan", "capacity": "nan", "contact:email": "nan", "contact:phone": "nan", "contact:website": "nan", "fee": "nan", "operator:type": "nan", "preschool": "nan", "ways": "nan", "type": "nan" }, "geometry": { "type": "Polygon", "coordinates": [ [ [ -84.5354967, 38.2077441 ], [ -84.5370344, 38.2051149 ], [ -84.5370424, 38.2049167 ], [ -84.537043, 38.2047512 ], [ -84.5369853, 38.2046943 ], [ -84.5367625, 38.2046348 ], [ -84.5360019, 38.2045156 ], [ -84.5358279, 38.204442 ], [ -84.5357028, 38.2044502 ], [ -84.5355684, 38.2043998 ], [ -84.5354719, 38.2043152 ], [ -84.5344627, 38.2039606 ], [ -84.5336713, 38.2036936 ], [ -84.5326506, 38.2035148 ], [ -84.5314797, 38.2062182 ], [ -84.5311657, 38.2068684 ], [ -84.5312256, 38.2070547 ], [ -84.5341797, 38.2068573 ], [ -84.5343099, 38.2071313 ], [ -84.5354967, 38.2077441 ] ] ] } },
{ "type": "Feature", "properties": { "element_type": "way", "osmid": "894294838", "amenity": "school", "ele": "nan", "gnis:county_id": "nan", "gnis:created": "nan", "gnis:feature_id": "nan", "gnis:state_id": "nan", "name": "nan", "wikidata": "nan", "operator": "nan", "designation": "nan", "addr:city": "nan", "addr:housenumber": "nan", "addr:postcode": "nan", "addr:street": "nan", "sport": "nan", "website": "nan", "addr:state": "nan", "email": "nan", "fax": "nan", "phone": "nan", "denomination": "nan", "grades": "nan", "religion": "nan", "nodes": [ 8311965272, 8311965273, 8311965274, 8311965275, 8311965276, 8311965272 ], "building": "nan", "addr:housename": "nan", "wikipedia": "nan", "building:levels": "nan", "gnis:edited": "nan", "name:etymology:wikidata": "nan", "capacity": "nan", "contact:email": "nan", "contact:phone": "nan", "contact:website": "nan", "fee": "nan", "operator:type": "nan", "preschool": "nan", "ways": "nan", "type": "nan" }, "geometry": { "type": "Polygon", "coordinates": [ [ [ -84.5121915, 38.1035628 ], [ -84.5124838, 38.1016793 ], [ -84.5138694, 38.1018274 ], [ -84.513939, 38.102558 ], [ -84.5143874, 38.1038041 ], [ -84.5121915, 38.1035628 ] ] ] } },
{ "type": "Feature", "properties": { "element_type": "way", "osmid": "964654223", "amenity": "school", "ele": "nan", "gnis:county_id": "nan", "gnis:created": "nan", "gnis:feature_id": "nan", "gnis:state_id": "nan", "name": "LEX ARFF Training Facility", "wikidata": "nan", "operator": "nan", "designation": "nan", "addr:city": "nan", "addr:housenumber": "nan", "addr:postcode": "nan", "addr:street": "nan", "sport": "nan", "website": "nan", "addr:state": "nan", "email": "nan", "fax": "nan", "phone": "nan", "denomination": "nan", "grades": "nan", "religion": "nan", "nodes": [ 8922983648, 8922983715, 8922983649, 4087414445, 4087414435, 4087414430, 8922983707, 4087414402, 4087414410, 4087414374, 8922983650, 8922983651, 8922983652, 8922983653, 8077674423, 8922983654, 8922983655, 8922983656, 8922983641, 8922983648 ], "building": "nan", "addr:housename": "nan", "wikipedia": "nan", "building:levels": "nan", "gnis:edited": "nan", "name:etymology:wikidata": "nan", "capacity": "nan", "contact:email": "nan", "contact:phone": "nan", "contact:website": "nan", "fee": "nan", "operator:type": "nan", "preschool": "nan", "ways": "nan", "type": "nan" }, "geometry": { "type": "Polygon", "coordinates": [ [ [ -84.6201982, 38.041068 ], [ -84.6206683, 38.0414422 ], [ -84.6216418, 38.0414439 ], [ -84.621669, 38.0414049 ], [ -84.6217179, 38.0413206 ], [ -84.6216619, 38.0413003 ], [ -84.6216783, 38.0412721 ], [ -84.6216981, 38.0412379 ], [ -84.6217249, 38.0412477 ], [ -84.6217607, 38.0411862 ], [ -84.6216444, 38.041144 ], [ -84.621725, 38.0410128 ], [ -84.621826, 38.0410058 ], [ -84.621911, 38.041036 ], [ -84.6219369, 38.0409962 ], [ -84.6220661, 38.0407817 ], [ -84.6217787, 38.0405914 ], [ -84.6213426, 38.0401441 ], [ -84.6205933, 38.0403153 ], [ -84.6201982, 38.041068 ] ] ] } },
{ "type": "Feature", "properties": { "element_type": "way", "osmid": "993782176", "amenity": "school", "ele": "nan", "gnis:county_id": "nan", "gnis:created": "nan", "gnis:feature_id": "nan", "gnis:state_id": "nan", "name": "nan", "wikidata": "nan", "operator": "nan", "designation": "nan", "addr:city": "nan", "addr:housenumber": "nan", "addr:postcode": "nan", "addr:street": "nan", "sport": "nan", "website": "nan", "addr:state": "nan", "email": "nan", "fax": "nan", "phone": "nan", "denomination": "nan", "grades": "nan", "religion": "nan", "nodes": [ 9181493058, 9181493056, 8374077995, 8374077996, 9181493057, 9181493058 ], "building": "nan", "addr:housename": "nan", "wikipedia": "nan", "building:levels": "nan", "gnis:edited": "nan", "name:etymology:wikidata": "nan", "capacity": "nan", "contact:email": "nan", "contact:phone": "nan", "contact:website": "nan", "fee": "nan", "operator:type": "nan", "preschool": "nan", "ways": "nan", "type": "nan" }, "geometry": { "type": "Polygon", "coordinates": [ [ [ -84.5377846, 38.1043268 ], [ -84.5353394, 38.1036263 ], [ -84.5355197, 38.1032085 ], [ -84.5363069, 38.1013884 ], [ -84.5388049, 38.1022177 ], [ -84.5377846, 38.1043268 ] ] ] } },
{ "type": "Feature", "properties": { "element_type": "way", "osmid": "1060251348", "amenity": "school", "ele": "nan", "gnis:county_id": "nan", "gnis:created": "nan", "gnis:feature_id": "nan", "gnis:state_id": "nan", "name": "Northside Elementary School", "wikidata": "nan", "operator": "Woodford County Public Schools", "designation": "nan", "addr:city": "nan", "addr:housenumber": "nan", "addr:postcode": "nan", "addr:street": "nan", "sport": "nan", "website": "http://www.woodford.kyschools.us/school_home.aspx?schoolid=4", "addr:state": "nan", "email": "nan", "fax": "nan", "phone": "nan", "denomination": "nan", "grades": "nan", "religion": "nan", "nodes": [ 9741228755, 9741228799, 9741228768, 9741228739, 9741228833, 9741113000, 9741228798, 9741228812, 9741228774, 9741228755 ], "building": "nan", "addr:housename": "nan", "wikipedia": "nan", "building:levels": "nan", "gnis:edited": "nan", "name:etymology:wikidata": "nan", "capacity": "nan", "contact:email": "nan", "contact:phone": "nan", "contact:website": "nan", "fee": "nan", "operator:type": "nan", "preschool": "nan", "ways": "nan", "type": "nan" }, "geometry": { "type": "Polygon", "coordinates": [ [ [ -84.6763522, 38.1492793 ], [ -84.675739, 38.1505303 ], [ -84.6763287, 38.1507612 ], [ -84.6764154, 38.1506252 ], [ -84.6784223, 38.1514063 ], [ -84.6785029, 38.1511814 ], [ -84.6788432, 38.1502326 ], [ -84.6791443, 38.1498087 ], [ -84.6773017, 38.1492803 ], [ -84.6763522, 38.1492793 ] ] ] } },
{ "type": "Feature", "properties": { "element_type": "way", "osmid": "1102754778", "amenity": "school", "ele": "302", "gnis:county_id": "067", "gnis:created": "09/20/1979", "gnis:feature_id": "497646", "gnis:state_id": "21", "name": "Mary Queen of the Holy Rosary School", "wikidata": "nan", "operator": "nan", "designation": "nan", "addr:city": "nan", "addr:housenumber": "nan", "addr:postcode": "nan", "addr:street": "nan", "sport": "nan", "website": "nan", "addr:state": "nan", "email": "nan", "fax": "nan", "phone": "nan", "denomination": "nan", "grades": "nan", "religion": "nan", "nodes": [ 10091159107, 10091159063, 163494727, 3409053664, 1580350160, 10091159105, 10091159093, 10091159080, 10091159092, 10091159101, 10091159102, 10091159103, 10091159104, 10091159107 ], "building": "nan", "addr:housename": "nan", "wikipedia": "nan", "building:levels": "nan", "gnis:edited": "nan", "name:etymology:wikidata": "nan", "capacity": "nan", "contact:email": "nan", "contact:phone": "nan", "contact:website": "nan", "fee": "nan", "operator:type": "nan", "preschool": "nan", "ways": "nan", "type": "nan" }, "geometry": { "type": "Polygon", "coordinates": [ [ [ -84.5383877, 38.014948 ], [ -84.5391113, 38.0152172 ], [ -84.539409, 38.015327 ], [ -84.5393444, 38.0154033 ], [ -84.5385065, 38.0170854 ], [ -84.53722, 38.0166185 ], [ -84.5372259, 38.0166003 ], [ -84.5372546, 38.0165456 ], [ -84.5376335, 38.0156924 ], [ -84.5377162, 38.015507 ], [ -84.5378691, 38.01545 ], [ -84.537904, 38.0153929 ], [ -84.5380783, 38.015433 ], [ -84.5383877, 38.014948 ] ] ] } },
{ "type": "Feature", "properties": { "element_type": "relation", "osmid": "12135352", "amenity": "school", "ele": "nan", "gnis:county_id": "nan", "gnis:created": "nan", "gnis:feature_id": "nan", "gnis:state_id": "nan", "name": "Wellington Elementary", "wikidata": "nan", "operator": "nan", "designation": "nan", "addr:city": "Lexington", "addr:housenumber": "3280", "addr:postcode": "40503", "addr:street": "Keithshire Way", "sport": "nan", "website": "nan", "addr:state": "KY", "email": "nan", "fax": "nan", "phone": "nan", "denomination": "nan", "grades": "nan", "religion": "nan", "nodes": [ [ [ 3712489632, 3712489633, 3712489634, 3712489637, 3712489638, 3712489639, 3712489640, 3712489641, 3712489642, 3712489643, 3712489644, 3712489645, 3712489646, 3712489647, 3712489648, 3712489649, 3712489650, 3712489651, 3712489652, 3712489653, 3712489654, 3712489853, 3712489854, 3712489855, 3712489511, 3712489655, 3712489657, 3712489658, 3712489505, 3712489504, 3712489659, 3712489660, 3712489661, 3712489662, 3712489500, 3712489499, 3712489498, 3712489664, 3712489513, 3712489514, 3712489515, 3712489516, 3712489517, 3712489518, 3712489519, 3712489521, 3712489522, 3712489523 ], [ 3712489523, 3712489632 ] ] ], "building": "school", "addr:housename": "nan", "wikipedia": "nan", "building:levels": "1", "gnis:edited": "nan", "name:etymology:wikidata": "nan", "capacity": "nan", "contact:email": "nan", "contact:phone": "nan", "contact:website": "nan", "fee": "nan", "operator:type": "nan", "preschool": "nan", "ways": [ 367308763, 892105305 ], "type": "multipolygon" }, "geometry": { "type": "Polygon", "coordinates": [ [ [ -84.5446673, 37.9928841 ], [ -84.5446215, 37.9928937 ], [ -84.544599, 37.9928985 ], [ -84.5445934, 37.9928752 ], [ -84.5444257, 37.9928578 ], [ -84.544413, 37.9928772 ], [ -84.5443399, 37.9928546 ], [ -84.5444472, 37.9927028 ], [ -84.5444477, 37.9926883 ], [ -84.5437492, 37.9928397 ], [ -84.5436633, 37.9926182 ], [ -84.5444349, 37.9924523 ], [ -84.5444273, 37.9924229 ], [ -84.5444482, 37.9924177 ], [ -84.5444406, 37.9923927 ], [ -84.5440992, 37.9923959 ], [ -84.544089, 37.9922082 ], [ -84.5441636, 37.9922062 ], [ -84.544158, 37.9921156 ], [ -84.5442321, 37.9921172 ], [ -84.5442305, 37.9920943 ], [ -84.5444145, 37.9920898 ], [ -84.5444155, 37.9920762 ], [ -84.5446363, 37.992025 ], [ -84.5447001, 37.9921916 ], [ -84.5447262, 37.9922688 ], [ -84.5447324, 37.9922872 ], [ -84.5445193, 37.9923323 ], [ -84.5445228, 37.9923403 ], [ -84.5445335, 37.9923369 ], [ -84.5445447, 37.9923741 ], [ -84.544554, 37.9924052 ], [ -84.5445504, 37.9924547 ], [ -84.5449475, 37.9924547 ], [ -84.5449475, 37.9924378 ], [ -84.5449793, 37.9924372 ], [ -84.5450088, 37.9924366 ], [ -84.5450266, 37.9924454 ], [ -84.5457166, 37.9925924 ], [ -84.545653, 37.9928095 ], [ -84.5449067, 37.9926625 ], [ -84.5449067, 37.9926485 ], [ -84.5448556, 37.992666 ], [ -84.5448622, 37.992862 ], [ -84.5447867, 37.9928655 ], [ -84.5447856, 37.9928522 ], [ -84.5446737, 37.9928715 ], [ -84.5446758, 37.9928833 ], [ -84.5446673, 37.9928841 ] ] ] } }
]
}
