{
"type": "FeatureCollection",
"crs": { "type": "name", "properties": { "name": "urn:ogc:def:crs:OGC:1.3:CRS84" } },
"features": [
{ "type": "Feature", "properties": { "element_type": "way", "osmid": "144485929", "barrier": "nan", "nodes": [ 1580436219, 1580436208, 1580436181, 1580436177, 1580436218, 1580436203, 1580436235, 1580436160, 1580436204, 1580436251, 1580436161, 1580436186, 1580436243, 1580436256, 1580436223, 1580436173, 1580436206, 1580436188, 4037139133, 4037139131, 1580436219 ], "denomination": "roman_catholic", "designation": "Calvary Cemetery", "landuse": "cemetery", "name": "Calvary Cemetery", "religion": "christian", "gnis:feature_id": "nan", "amenity": "nan", "ele": "nan", "gnis:county_id": "nan", "gnis:created": "nan", "gnis:state_id": "nan", "addr:city": "nan", "addr:housenumber": "nan", "addr:state": "nan", "addr:street": "nan", "website": "nan", "wikidata": "nan", "wikipedia": "nan", "cemetery": "nan", "historic": "nan", "ref:nrhp": "nan", "tomb": "nan", "addr:postcode": "nan", "wall": "nan", "ways": "nan", "landuse_1": "nan", "type": "nan" }, "geometry": { "type": "Polygon", "coordinates": [ [ [ -84.5104409, 38.0571011 ], [ -84.5107896, 38.0567632 ], [ -84.5111061, 38.0567379 ], [ -84.5113636, 38.0562775 ], [ -84.5120395, 38.0562141 ], [ -84.5131071, 38.0561761 ], [ -84.5139922, 38.0562901 ], [ -84.5143935, 38.0564675 ], [ -84.514652, 38.0566323 ], [ -84.5149041, 38.056873 ], [ -84.515123, 38.0571518 ], [ -84.5152142, 38.0574179 ], [ -84.5152743, 38.0577178 ], [ -84.5152528, 38.0579501 ], [ -84.5151563, 38.0581867 ], [ -84.5140351, 38.0586133 ], [ -84.513704, 38.0592284 ], [ -84.5115246, 38.0577938 ], [ -84.5111483, 38.0575532 ], [ -84.5110065, 38.0574626 ], [ -84.5104409, 38.0571011 ] ] ] } },
{ "type": "Feature", "properties": { "element_type": "way", "osmid": "144485931", "barrier": "nan", "nodes": [ 1580436221, 1580436175, 9416590097, 1580436162, 1580436179, 1580436224, 1580436225, 1580436221 ], "denomination": "nan", "designation": "Cove Haven Cemetery", "landuse": "cemetery", "name": "Cove Haven Cemetery", "religion": "nan", "gnis:feature_id": "nan", "amenity": "nan", "ele": "nan", "gnis:county_id": "nan", "gnis:created": "nan", "gnis:state_id": "nan", "addr:city": "nan", "addr:housenumber": "nan", "addr:state": "nan", "addr:street": "nan", "website": "nan", "wikidata": "nan", "wikipedia": "nan", "cemetery": "nan", "historic": "nan", "ref:nrhp": "nan", "tomb": "nan", "addr:postcode": "nan", "wall": "nan", "ways": "nan", "landuse_1": "nan", "type": "nan" }, "geometry": { "type": "Polygon", "coordinates": [ [ [ -84.506761, 38.0633396 ], [ -84.5070204, 38.063146 ], [ -84.5071146, 38.0630842 ], [ -84.5074561, 38.06286 ], [ -84.5111372, 38.0662707 ], [ -84.5100107, 38.0671069 ], [ -84.509529, 38.0674279 ], [ -84.506761, 38.0633396 ] ] ] } },
{ "type": "Feature", "properties": { "element_type": "way", "osmid": "144795296", "barrier": "nan", "nodes": [ 1582992794, 1582992826, 1582992811, 10719499986, 10719499987, 1582992884, 1582992787, 358592455, 2633267184, 4567527933, 5508974707, 5508974704, 1582992794 ], "denomination": "nan", "designation": "nan", "landuse": "cemetery", "name": "Hillcrest Memorial Gardens", "religion": "nan", "gnis:feature_id": "494263", "amenity": "nan", "ele": "nan", "gnis:county_id": "nan", "gnis:created": "nan", "gnis:state_id": "nan", "addr:city": "nan", "addr:housenumber": "nan", "addr:state": "nan", "addr:street": "nan", "website": "nan", "wikidata": "nan", "wikipedia": "nan", "cemetery": "nan", "historic": "nan", "ref:nrhp": "nan", "tomb": "nan", "addr:postcode": "nan", "wall": "nan", "ways": "nan", "landuse_1": "nan", "type": "nan" }, "geometry": { "type": "Polygon", "coordinates": [ [ [ -84.5486507, 38.0519415 ], [ -84.548197, 38.0520061 ], [ -84.5434949, 38.0484142 ], [ -84.5432676, 38.0483337 ], [ -84.542862, 38.0480413 ], [ -84.5428095, 38.04777 ], [ -84.543818, 38.0476433 ], [ -84.5443437, 38.0475841 ], [ -84.5461122, 38.0473848 ], [ -84.547566, 38.0472596 ], [ -84.5475753, 38.0472998 ], [ -84.5479192, 38.0487842 ], [ -84.5486507, 38.0519415 ] ] ] } },
{ "type": "Feature", "properties": { "element_type": "way", "osmid": "144825944", "barrier": "nan", "nodes": [ 1583255799, 1583255696, 3216905664, 1583255599, 1583255799 ], "denomination": "nan", "designation": "nan", "landuse": "cemetery", "name": "Highland Cemetery", "religion": "nan", "gnis:feature_id": "517003", "amenity": "grave_yard", "ele": "286", "gnis:county_id": "067", "gnis:created": "03/28/1993", "gnis:state_id": "21", "addr:city": "nan", "addr:housenumber": "nan", "addr:state": "nan", "addr:street": "nan", "website": "nan", "wikidata": "nan", "wikipedia": "nan", "cemetery": "nan", "historic": "nan", "ref:nrhp": "nan", "tomb": "nan", "addr:postcode": "nan", "wall": "nan", "ways": "nan", "landuse_1": "nan", "type": "nan" }, "geometry": { "type": "Polygon", "coordinates": [ [ [ -84.5255067, 38.0616638 ], [ -84.5282597, 38.0624767 ], [ -84.5287779, 38.061389 ], [ -84.5260251, 38.0605758 ], [ -84.5255067, 38.0616638 ] ] ] } },
{ "type": "Feature", "properties": { "element_type": "way", "osmid": "225026275", "barrier": "nan", "nodes": [ 2338537533, 2338537269, 2338537254, 2338537246, 2338537243, 2338537515, 2338537523, 2338537547, 2338537533 ], "denomination": "nan", "designation": "nan", "landuse": "cemetery", "name": "nan", "religion": "nan", "gnis:feature_id": "nan", "amenity": "nan", "ele": "nan", "gnis:county_id": "nan", "gnis:created": "nan", "gnis:state_id": "nan", "addr:city": "nan", "addr:housenumber": "nan", "addr:state": "nan", "addr:street": "nan", "website": "nan", "wikidata": "nan", "wikipedia": "nan", "cemetery": "nan", "historic": "nan", "ref:nrhp": "nan", "tomb": "nan", "addr:postcode": "nan", "wall": "nan", "ways": "nan", "landuse_1": "nan", "type": "nan" }, "geometry": { "type": "Polygon", "coordinates": [ [ [ -84.6577684, 37.8638613 ], [ -84.658353, 37.8626884 ], [ -84.6582301, 37.8626355 ], [ -84.6576809, 37.862609 ], [ -84.6565973, 37.8626002 ], [ -84.6557074, 37.8637996 ], [ -84.6567706, 37.8638416 ], [ -84.6577554, 37.8638966 ], [ -84.6577684, 37.8638613 ] ] ] } },
{ "type": "Feature", "properties": { "element_type": "way", "osmid": "226760170", "barrier": "fence", "nodes": [ 2355173081, 2355173079, 358604868, 2355173074, 2355173076, 2355173081 ], "denomination": "nan", "designation": "nan", "landuse": "cemetery", "name": "Rhorer Cemetery", "religion": "nan", "gnis:feature_id": "501762", "amenity": "grave_yard", "ele": "260", "gnis:county_id": "113", "gnis:created": "09/20/1979", "gnis:state_id": "21", "addr:city": "nan", "addr:housenumber": "nan", "addr:state": "nan", "addr:street": "nan", "website": "nan", "wikidata": "nan", "wikipedia": "nan", "cemetery": "nan", "historic": "nan", "ref:nrhp": "nan", "tomb": "nan", "addr:postcode": "nan", "wall": "nan", "ways": "nan", "landuse_1": "nan", "type": "nan" }, "geometry": { "type": "Polygon", "coordinates": [ [ [ -84.6403605, 37.8480246 ], [ -84.6405077, 37.8479017 ], [ -84.6402963, 37.8477427 ], [ -84.6400952, 37.8475908 ], [ -84.6399596, 37.8477137 ], [ -84.6403605, 37.8480246 ] ] ] } },
{ "type": "Feature", "properties": { "element_type": "way", "osmid": "234483837", "barrier": "fence", "nodes": [ 2427290170, 9413150510, 9413161023, 2427290172, 2427290174, 2427290176, 2427290170 ], "denomination": "nan", "designation": "nan", "landuse": "cemetery", "name": "African Cemetery No. 2", "religion": "nan", "gnis:feature_id": "nan", "amenity": "nan", "ele": "nan", "gnis:county_id": "nan", "gnis:created": "nan", "gnis:state_id": "nan", "addr:city": "Lexington", "addr:housenumber": "419", "addr:state": "KY", "addr:street": "East Seventh Street", "website": "http://www.africancemeteryno2.org/", "wikidata": "Q180624", "wikipedia": "nan", "cemetery": "nan", "historic": "nan", "ref:nrhp": "nan", "tomb": "nan", "addr:postcode": "nan", "wall": "nan", "ways": "nan", "landuse_1": "nan", "type": "nan" }, "geometry": { "type": "Polygon", "coordinates": [ [ [ -84.4790691, 38.0509213 ], [ -84.478661, 38.050587 ], [ -84.4783329, 38.0503182 ], [ -84.4780016, 38.0500468 ], [ -84.4760972, 38.0513817 ], [ -84.4771272, 38.0522646 ], [ -84.4790691, 38.0509213 ] ] ] } },
{ "type": "Feature", "properties": { "element_type": "way", "osmid": "243876113", "barrier": "nan", "nodes": [ 2512387323, 2512387324, 2512387325, 2512387326, 2512387327, 2512387328, 2512387329, 2512387330, 2512387331, 2512387344, 2512387341, 2512387359, 2512387342, 2512387343, 2512387332, 2512387333, 2512387334, 2512387335, 2512387336, 2512387337, 2512387338, 2512387339, 2512387340, 2512387323 ], "denomination": "nan", "designation": "nan", "landuse": "cemetery", "name": "Hamburg Place Horse Cemetery", "religion": "nan", "gnis:feature_id": "nan", "amenity": "nan", "ele": "nan", "gnis:county_id": "nan", "gnis:created": "nan", "gnis:state_id": "nan", "addr:city": "nan", "addr:housenumber": "nan", "addr:state": "nan", "addr:street": "nan", "website": "nan", "wikidata": "nan", "wikipedia": "nan", "cemetery": "nan", "historic": "nan", "ref:nrhp": "nan", "tomb": "nan", "addr:postcode": "nan", "wall": "nan", "ways": "nan", "landuse_1": "nan", "type": "nan" }, "geometry": { "type": "Polygon", "coordinates": [ [ [ -84.4258302, 38.0374352 ], [ -84.4258146, 38.0374843 ], [ -84.4258518, 38.037525 ], [ -84.4258518, 38.0375534 ], [ -84.4258434, 38.0375855 ], [ -84.425817, 38.0376129 ], [ -84.4257834, 38.0376262 ], [ -84.4257414, 38.0376309 ], [ -84.4257005, 38.0376224 ], [ -84.4256638, 38.037601 ], [ -84.4256158, 38.0376446 ], [ -84.4255861, 38.0376243 ], [ -84.4255531, 38.0376021 ], [ -84.4256026, 38.0375614 ], [ -84.4255733, 38.037543 ], [ -84.4255601, 38.037508 ], [ -84.4255577, 38.0374683 ], [ -84.4255757, 38.0374333 ], [ -84.4256213, 38.0374087 ], [ -84.4256621, 38.037403 ], [ -84.4256933, 38.037403 ], [ -84.425733, 38.0374257 ], [ -84.4257906, 38.0374068 ], [ -84.4258302, 38.0374352 ] ] ] } },
{ "type": "Feature", "properties": { "element_type": "way", "osmid": "245913407", "barrier": "nan", "nodes": [ 2530145029, 2530145030, 2530145031, 2530145033, 2530145029 ], "denomination": "nan", "designation": "nan", "landuse": "cemetery", "name": "Lowry Cemetery", "religion": "nan", "gnis:feature_id": "nan", "amenity": "nan", "ele": "nan", "gnis:county_id": "nan", "gnis:created": "nan", "gnis:state_id": "nan", "addr:city": "nan", "addr:housenumber": "nan", "addr:state": "nan", "addr:street": "nan", "website": "nan", "wikidata": "nan", "wikipedia": "nan", "cemetery": "nan", "historic": "nan", "ref:nrhp": "nan", "tomb": "nan", "addr:postcode": "nan", "wall": "nan", "ways": "nan", "landuse_1": "nan", "type": "nan" }, "geometry": { "type": "Polygon", "coordinates": [ [ [ -84.6618087, 37.8616741 ], [ -84.6615011, 37.861512 ], [ -84.6613676, 37.8616876 ], [ -84.6616601, 37.861846 ], [ -84.6618087, 37.8616741 ] ] ] } },
{ "type": "Feature", "properties": { "element_type": "way", "osmid": "311295379", "barrier": "nan", "nodes": [ 9355459220, 3168986606, 5411139546, 5411139547, 5411139544, 9355459217, 9355427216, 9355427215, 9355427214, 9355427213, 5409037468, 9355427193, 9355427192, 9355427208, 5409037466, 9355427212, 9355427211, 9355427210, 9355427209, 5409037464, 5409037463, 3168986609, 9355459219, 9355459218, 9355459220 ], "denomination": "nan", "designation": "nan", "landuse": "cemetery", "name": "Maple Grove Cemetery", "religion": "christian", "gnis:feature_id": "nan", "amenity": "nan", "ele": "nan", "gnis:county_id": "nan", "gnis:created": "nan", "gnis:state_id": "nan", "addr:city": "nan", "addr:housenumber": "nan", "addr:state": "nan", "addr:street": "nan", "website": "nan", "wikidata": "nan", "wikipedia": "nan", "cemetery": "nan", "historic": "nan", "ref:nrhp": "nan", "tomb": "nan", "addr:postcode": "nan", "wall": "nan", "ways": "nan", "landuse_1": "nan", "type": "nan" }, "geometry": { "type": "Polygon", "coordinates": [ [ [ -84.5708348, 37.8853757 ], [ -84.5688997, 37.8857493 ], [ -84.5682831, 37.8855347 ], [ -84.568048, 37.8854275 ], [ -84.567152, 37.8850491 ], [ -84.566216, 37.8846009 ], [ -84.5663112, 37.8845226 ], [ -84.5663984, 37.8844152 ], [ -84.5664749, 37.8842903 ], [ -84.5665567, 37.8841103 ], [ -84.5666546, 37.8837684 ], [ -84.5676671, 37.8839325 ], [ -84.5677985, 37.8834742 ], [ -84.5668289, 37.8833112 ], [ -84.5669845, 37.8828444 ], [ -84.5677261, 37.8829587 ], [ -84.56782, 37.8824707 ], [ -84.5692228, 37.882548 ], [ -84.5694427, 37.8825745 ], [ -84.5689823, 37.8840755 ], [ -84.5694197, 37.8842193 ], [ -84.5693742, 37.884469 ], [ -84.5710058, 37.8849063 ], [ -84.5710219, 37.8849417 ], [ -84.5708348, 37.8853757 ] ] ] } },
{ "type": "Feature", "properties": { "element_type": "way", "osmid": "387216710", "barrier": "nan", "nodes": [ 3905349297, 3905349298, 9230601417, 3906820201, 3905349299, 3892223215, 2496351406, 3892223567, 2496351407, 168169137, 3905349297 ], "denomination": "nan", "designation": "nan", "landuse": "cemetery", "name": "Georgetown Cemetery", "religion": "nan", "gnis:feature_id": "nan", "amenity": "nan", "ele": "nan", "gnis:county_id": "nan", "gnis:created": "nan", "gnis:state_id": "nan", "addr:city": "nan", "addr:housenumber": "nan", "addr:state": "nan", "addr:street": "nan", "website": "nan", "wikidata": "Q5546973", "wikipedia": "en:Georgetown Cemetery (Georgetown, Kentucky)", "cemetery": "nan", "historic": "nan", "ref:nrhp": "nan", "tomb": "nan", "addr:postcode": "nan", "wall": "nan", "ways": "nan", "landuse_1": "nan", "type": "nan" }, "geometry": { "type": "Polygon", "coordinates": [ [ [ -84.560725, 38.1989474 ], [ -84.5612134, 38.1957432 ], [ -84.559417, 38.1955836 ], [ -84.5576034, 38.1954225 ], [ -84.5567681, 38.1953483 ], [ -84.5570692, 38.1979177 ], [ -84.5572891, 38.1987693 ], [ -84.5574467, 38.1987722 ], [ -84.558185, 38.1987861 ], [ -84.5589178, 38.198831 ], [ -84.560725, 38.1989474 ] ] ] } },
{ "type": "Feature", "properties": { "element_type": "way", "osmid": "460851496", "barrier": "nan", "nodes": [ 4564475926, 4564475925, 4564475924, 4564475923, 4564475922, 4564475921, 4564475920, 4564475919, 4564475918, 4564475917, 4564475916, 4564475915, 4564475914, 4564475913, 4564475912, 4564475926 ], "denomination": "nan", "designation": "nan", "landuse": "cemetery", "name": "Simmons Cemetery", "religion": "nan", "gnis:feature_id": "nan", "amenity": "nan", "ele": "nan", "gnis:county_id": "nan", "gnis:created": "nan", "gnis:state_id": "nan", "addr:city": "nan", "addr:housenumber": "nan", "addr:state": "nan", "addr:street": "nan", "website": "nan", "wikidata": "nan", "wikipedia": "nan", "cemetery": "nan", "historic": "nan", "ref:nrhp": "nan", "tomb": "nan", "addr:postcode": "nan", "wall": "nan", "ways": "nan", "landuse_1": "nan", "type": "nan" }, "geometry": { "type": "Polygon", "coordinates": [ [ [ -84.7305162, 38.0505034 ], [ -84.7305242, 38.0501718 ], [ -84.7304733, 38.0498529 ], [ -84.7302399, 38.0490967 ], [ -84.7267182, 38.0488263 ], [ -84.7266458, 38.0493671 ], [ -84.7273941, 38.0494515 ], [ -84.72737, 38.0496944 ], [ -84.7270293, 38.049667 ], [ -84.7269408, 38.0505414 ], [ -84.7289417, 38.0506196 ], [ -84.7289525, 38.0504189 ], [ -84.7297813, 38.0504759 ], [ -84.7297544, 38.050666 ], [ -84.7305001, 38.0507252 ], [ -84.7305162, 38.0505034 ] ] ] } },
{ "type": "Feature", "properties": { "element_type": "way", "osmid": "471851721", "barrier": "nan", "nodes": [ 4660028706, 6347929142, 6347929141, 9584193914, 6347929140, 4660028705, 4660028704, 6347929174, 4660028703, 4660028702, 4660028706 ], "denomination": "nan", "designation": "nan", "landuse": "cemetery", "name": "Rose Crest Cemetery", "religion": "nan", "gnis:feature_id": "nan", "amenity": "nan", "ele": "nan", "gnis:county_id": "nan", "gnis:created": "nan", "gnis:state_id": "nan", "addr:city": "nan", "addr:housenumber": "nan", "addr:state": "nan", "addr:street": "nan", "website": "nan", "wikidata": "nan", "wikipedia": "nan", "cemetery": "nan", "historic": "nan", "ref:nrhp": "nan", "tomb": "nan", "addr:postcode": "nan", "wall": "nan", "ways": "nan", "landuse_1": "nan", "type": "nan" }, "geometry": { "type": "Polygon", "coordinates": [ [ [ -84.7237328, 38.0354654 ], [ -84.7238366, 38.0352282 ], [ -84.7239179, 38.0350425 ], [ -84.7239432, 38.0349847 ], [ -84.7239798, 38.034901 ], [ -84.7241674, 38.0344725 ], [ -84.7227351, 38.0343584 ], [ -84.7226666, 38.0343425 ], [ -84.7219679, 38.0341809 ], [ -84.7218446, 38.0352879 ], [ -84.7237328, 38.0354654 ] ] ] } },
{ "type": "Feature", "properties": { "element_type": "way", "osmid": "478113761", "barrier": "nan", "nodes": [ 4713732712, 4713732711, 4713732710, 4713732709, 4713732708, 4713732707, 4713732706, 4713732705, 4713732704, 4713732703, 4713732702, 4713732701, 4713732700, 4713732699, 4713732698, 4713732712 ], "denomination": "nan", "designation": "nan", "landuse": "cemetery", "name": "Midway Cemetery", "religion": "nan", "gnis:feature_id": "nan", "amenity": "nan", "ele": "nan", "gnis:county_id": "nan", "gnis:created": "nan", "gnis:state_id": "nan", "addr:city": "nan", "addr:housenumber": "nan", "addr:state": "nan", "addr:street": "nan", "website": "nan", "wikidata": "nan", "wikipedia": "nan", "cemetery": "nan", "historic": "nan", "ref:nrhp": "nan", "tomb": "nan", "addr:postcode": "nan", "wall": "nan", "ways": "nan", "landuse_1": "nan", "type": "nan" }, "geometry": { "type": "Polygon", "coordinates": [ [ [ -84.6960329, 38.1485469 ], [ -84.6955018, 38.1477602 ], [ -84.6951826, 38.147893 ], [ -84.6948849, 38.1475513 ], [ -84.6942358, 38.1468426 ], [ -84.693356, 38.1473931 ], [ -84.6920042, 38.1482242 ], [ -84.6927606, 38.1485976 ], [ -84.6937798, 38.1492388 ], [ -84.6945121, 38.1490068 ], [ -84.6945684, 38.1489119 ], [ -84.6946676, 38.148876 ], [ -84.6948152, 38.1489076 ], [ -84.6955715, 38.1487431 ], [ -84.6959605, 38.148587 ], [ -84.6960329, 38.1485469 ] ] ] } },
{ "type": "Feature", "properties": { "element_type": "way", "osmid": "478309953", "barrier": "nan", "nodes": [ 4715413897, 4715413896, 4715413895, 4715413894, 4715413893, 4715413892, 4715413891, 4715413890, 4715413889, 4715412488, 4715412487, 4715412486, 4715412485, 4715412484, 4715412483, 4715412482, 4715413909, 4715413913, 4715413912, 5625258573, 4715413897 ], "denomination": "nan", "designation": "nan", "landuse": "cemetery", "name": "Paris Cemetery", "religion": "nan", "gnis:feature_id": "500174", "amenity": "nan", "ele": "nan", "gnis:county_id": "nan", "gnis:created": "nan", "gnis:state_id": "nan", "addr:city": "nan", "addr:housenumber": "nan", "addr:state": "nan", "addr:street": "nan", "website": "nan", "wikidata": "Q7137263", "wikipedia": "nan", "cemetery": "nan", "historic": "nan", "ref:nrhp": "nan", "tomb": "nan", "addr:postcode": "nan", "wall": "nan", "ways": "nan", "landuse_1": "nan", "type": "nan" }, "geometry": { "type": "Polygon", "coordinates": [ [ [ -84.2684193, 38.2005205 ], [ -84.2667884, 38.2008789 ], [ -84.2654607, 38.2011676 ], [ -84.265273, 38.2012814 ], [ -84.2651416, 38.2013784 ], [ -84.265037, 38.2015175 ], [ -84.2649458, 38.2016756 ], [ -84.2647205, 38.2017831 ], [ -84.264522, 38.2018885 ], [ -84.2641196, 38.2014374 ], [ -84.2632801, 38.2015786 ], [ -84.2622957, 38.2021688 ], [ -84.2626364, 38.2025398 ], [ -84.262918, 38.2023691 ], [ -84.2634625, 38.2029297 ], [ -84.2648163, 38.2043503 ], [ -84.2680974, 38.2037918 ], [ -84.2679351, 38.203248 ], [ -84.2675274, 38.2015217 ], [ -84.2686558, 38.2012561 ], [ -84.2684193, 38.2005205 ] ] ] } },
{ "type": "Feature", "properties": { "element_type": "way", "osmid": "478309954", "barrier": "nan", "nodes": [ 4715413915, 4715413914, 4715413913, 4715413912, 5625258573, 4715413911, 4715413908, 4715413910, 4715413915 ], "denomination": "nan", "designation": "nan", "landuse": "cemetery", "name": "Fisher Cemetery", "religion": "nan", "gnis:feature_id": "492114", "amenity": "nan", "ele": "nan", "gnis:county_id": "nan", "gnis:created": "nan", "gnis:state_id": "nan", "addr:city": "nan", "addr:housenumber": "nan", "addr:state": "nan", "addr:street": "nan", "website": "nan", "wikidata": "nan", "wikipedia": "nan", "cemetery": "nan", "historic": "nan", "ref:nrhp": "nan", "tomb": "nan", "addr:postcode": "nan", "wall": "nan", "ways": "nan", "landuse_1": "nan", "type": "nan" }, "geometry": { "type": "Polygon", "coordinates": [ [ [ -84.2687746, 38.2036653 ], [ -84.2685815, 38.2031321 ], [ -84.2679351, 38.203248 ], [ -84.2675274, 38.2015217 ], [ -84.2686558, 38.2012561 ], [ -84.2690321, 38.2011676 ], [ -84.2692192, 38.2018003 ], [ -84.2697295, 38.2035262 ], [ -84.2687746, 38.2036653 ] ] ] } },
{ "type": "Feature", "properties": { "element_type": "way", "osmid": "485581082", "barrier": "nan", "nodes": [ 4783615493, 4783615492, 4783615491, 4783615490, 4783615493 ], "denomination": "nan", "designation": "nan", "landuse": "cemetery", "name": "Marquis Calmes Tomb", "religion": "nan", "gnis:feature_id": "nan", "amenity": "nan", "ele": "nan", "gnis:county_id": "nan", "gnis:created": "nan", "gnis:state_id": "nan", "addr:city": "nan", "addr:housenumber": "nan", "addr:state": "nan", "addr:street": "nan", "website": "nan", "wikidata": "nan", "wikipedia": "nan", "cemetery": "grave", "historic": "tomb", "ref:nrhp": "88003346", "tomb": "vault", "addr:postcode": "nan", "wall": "nan", "ways": "nan", "landuse_1": "nan", "type": "nan" }, "geometry": { "type": "Polygon", "coordinates": [ [ [ -84.6742554, 38.0591741 ], [ -84.6742742, 38.0591129 ], [ -84.6741924, 38.0590981 ], [ -84.6741722, 38.0591604 ], [ -84.6742554, 38.0591741 ] ] ] } },
{ "type": "Feature", "properties": { "element_type": "way", "osmid": "589070568", "barrier": "nan", "nodes": [ 5625258573, 4715413911, 4715413908, 4715413907, 4715413906, 4715413905, 4715413904, 4715413903, 4715413902, 4715413901, 4715413900, 358599390, 4715413899, 4715413898, 4715413897, 5625258573 ], "denomination": "nan", "designation": "nan", "landuse": "cemetery", "name": "Mount Olive Cemetery", "religion": "nan", "gnis:feature_id": "498787", "amenity": "nan", "ele": "nan", "gnis:county_id": "nan", "gnis:created": "nan", "gnis:state_id": "nan", "addr:city": "nan", "addr:housenumber": "nan", "addr:state": "nan", "addr:street": "nan", "website": "nan", "wikidata": "Q7137263", "wikipedia": "nan", "cemetery": "nan", "historic": "nan", "ref:nrhp": "nan", "tomb": "nan", "addr:postcode": "nan", "wall": "nan", "ways": "nan", "landuse_1": "nan", "type": "nan" }, "geometry": { "type": "Polygon", "coordinates": [ [ [ -84.2686558, 38.2012561 ], [ -84.2690321, 38.2011676 ], [ -84.2692192, 38.2018003 ], [ -84.2707018, 38.2016419 ], [ -84.2707849, 38.2008515 ], [ -84.270793, 38.2005669 ], [ -84.2706964, 38.2004109 ], [ -84.2704497, 38.2002613 ], [ -84.2702699, 38.2001812 ], [ -84.2700098, 38.2001559 ], [ -84.269594, 38.200177 ], [ -84.2693392, 38.2002619 ], [ -84.2690442, 38.2003603 ], [ -84.2685936, 38.2004742 ], [ -84.2684193, 38.2005205 ], [ -84.2686558, 38.2012561 ] ] ] } },
{ "type": "Feature", "properties": { "element_type": "way", "osmid": "679862136", "barrier": "nan", "nodes": [ 6365711092, 6365711090, 6365711091, 6365711089, 6365711092 ], "denomination": "nan", "designation": "nan", "landuse": "cemetery", "name": "nan", "religion": "nan", "gnis:feature_id": "nan", "amenity": "nan", "ele": "nan", "gnis:county_id": "nan", "gnis:created": "nan", "gnis:state_id": "nan", "addr:city": "nan", "addr:housenumber": "nan", "addr:state": "nan", "addr:street": "nan", "website": "nan", "wikidata": "nan", "wikipedia": "nan", "cemetery": "nan", "historic": "nan", "ref:nrhp": "nan", "tomb": "nan", "addr:postcode": "nan", "wall": "nan", "ways": "nan", "landuse_1": "nan", "type": "nan" }, "geometry": { "type": "Polygon", "coordinates": [ [ [ -84.6978074, 38.2059705 ], [ -84.6970926, 38.2059147 ], [ -84.6968494, 38.2067565 ], [ -84.6977261, 38.2067872 ], [ -84.6978074, 38.2059705 ] ] ] } },
{ "type": "Feature", "properties": { "element_type": "way", "osmid": "681382230", "barrier": "nan", "nodes": [ 6380876439, 6380876403, 6380876412, 6380876423, 6380876433, 6380876439 ], "denomination": "nan", "designation": "nan", "landuse": "cemetery", "name": "Maple Grove Cemetery", "religion": "nan", "gnis:feature_id": "497505", "amenity": "nan", "ele": "265", "gnis:county_id": "209", "gnis:created": "09/20/1979", "gnis:state_id": "21", "addr:city": "nan", "addr:housenumber": "nan", "addr:state": "nan", "addr:street": "nan", "website": "nan", "wikidata": "nan", "wikipedia": "nan", "cemetery": "nan", "historic": "nan", "ref:nrhp": "nan", "tomb": "nan", "addr:postcode": "nan", "wall": "nan", "ways": "nan", "landuse_1": "nan", "type": "nan" }, "geometry": { "type": "Polygon", "coordinates": [ [ [ -84.5404778, 38.2164026 ], [ -84.540293, 38.2163844 ], [ -84.5401681, 38.2164444 ], [ -84.5389098, 38.2175486 ], [ -84.540856, 38.2181514 ], [ -84.5404778, 38.2164026 ] ] ] } },
{ "type": "Feature", "properties": { "element_type": "way", "osmid": "681414152", "barrier": "nan", "nodes": [ 6381207130, 6381207127, 6381207129, 6381207132, 6381207126, 6381207128, 6381215566, 6381215567, 6381207131, 6381207130 ], "denomination": "nan", "designation": "nan", "landuse": "cemetery", "name": "Crest Lawn Gardens", "religion": "nan", "gnis:feature_id": "490327", "amenity": "grave_yard", "ele": "263", "gnis:county_id": "209", "gnis:created": "09/20/1979", "gnis:state_id": "21", "addr:city": "nan", "addr:housenumber": "nan", "addr:state": "nan", "addr:street": "nan", "website": "nan", "wikidata": "nan", "wikipedia": "nan", "cemetery": "nan", "historic": "nan", "ref:nrhp": "nan", "tomb": "nan", "addr:postcode": "nan", "wall": "nan", "ways": "nan", "landuse_1": "nan", "type": "nan" }, "geometry": { "type": "Polygon", "coordinates": [ [ [ -84.5494818, 38.1602136 ], [ -84.5506063, 38.1594403 ], [ -84.5510066, 38.1587618 ], [ -84.5519813, 38.1570806 ], [ -84.5509741, 38.1567487 ], [ -84.5498306, 38.1580272 ], [ -84.5492142, 38.1584297 ], [ -84.5494319, 38.1586556 ], [ -84.5486588, 38.1591423 ], [ -84.5494818, 38.1602136 ] ] ] } },
{ "type": "Feature", "properties": { "element_type": "way", "osmid": "892086870", "barrier": "nan", "nodes": [ 8291675442, 8291675443, 8291675444, 8291675445, 8291675446, 8291675442 ], "denomination": "nan", "designation": "nan", "landuse": "cemetery", "name": "nan", "religion": "nan", "gnis:feature_id": "nan", "amenity": "nan", "ele": "nan", "gnis:county_id": "nan", "gnis:created": "nan", "gnis:state_id": "nan", "addr:city": "nan", "addr:housenumber": "nan", "addr:state": "nan", "addr:street": "nan", "website": "nan", "wikidata": "nan", "wikipedia": "nan", "cemetery": "nan", "historic": "nan", "ref:nrhp": "nan", "tomb": "nan", "addr:postcode": "nan", "wall": "nan", "ways": "nan", "landuse_1": "nan", "type": "nan" }, "geometry": { "type": "Polygon", "coordinates": [ [ [ -84.5174656, 38.0101358 ], [ -84.5172627, 38.010089 ], [ -84.5173252, 38.0099181 ], [ -84.5173927, 38.0098784 ], [ -84.517555, 38.0099202 ], [ -84.5174656, 38.0101358 ] ] ] } },
{ "type": "Feature", "properties": { "element_type": "way", "osmid": "894115963", "barrier": "nan", "nodes": [ 8310217158, 8310217159, 8310217160, 8310217161, 8310217162, 8310217158 ], "denomination": "nan", "designation": "nan", "landuse": "cemetery", "name": "nan", "religion": "nan", "gnis:feature_id": "nan", "amenity": "nan", "ele": "nan", "gnis:county_id": "nan", "gnis:created": "nan", "gnis:state_id": "nan", "addr:city": "nan", "addr:housenumber": "nan", "addr:state": "nan", "addr:street": "nan", "website": "nan", "wikidata": "nan", "wikipedia": "nan", "cemetery": "nan", "historic": "nan", "ref:nrhp": "nan", "tomb": "nan", "addr:postcode": "nan", "wall": "nan", "ways": "nan", "landuse_1": "nan", "type": "nan" }, "geometry": { "type": "Polygon", "coordinates": [ [ [ -84.3398541, 37.8796804 ], [ -84.3397728, 37.8795382 ], [ -84.3395792, 37.8795789 ], [ -84.339281, 37.8796153 ], [ -84.3394099, 37.8798312 ], [ -84.3398541, 37.8796804 ] ] ] } },
{ "type": "Feature", "properties": { "element_type": "way", "osmid": "903243718", "barrier": "nan", "nodes": [ 8389195679, 8389195680, 8389195681, 8389195682, 8389195679 ], "denomination": "nan", "designation": "nan", "landuse": "cemetery", "name": "Second Independent Missionary Baptist Cemetery", "religion": "nan", "gnis:feature_id": "nan", "amenity": "grave_yard", "ele": "nan", "gnis:county_id": "nan", "gnis:created": "nan", "gnis:state_id": "nan", "addr:city": "nan", "addr:housenumber": "nan", "addr:state": "nan", "addr:street": "nan", "website": "nan", "wikidata": "nan", "wikipedia": "nan", "cemetery": "nan", "historic": "nan", "ref:nrhp": "nan", "tomb": "nan", "addr:postcode": "nan", "wall": "nan", "ways": "nan", "landuse_1": "nan", "type": "nan" }, "geometry": { "type": "Polygon", "coordinates": [ [ [ -84.360737, 37.9495558 ], [ -84.360499, 37.9500484 ], [ -84.3593712, 37.9497467 ], [ -84.359671, 37.9491091 ], [ -84.360737, 37.9495558 ] ] ] } },
{ "type": "Feature", "properties": { "element_type": "way", "osmid": "903243719", "barrier": "nan", "nodes": [ 8389195685, 8389195686, 8389198119, 8389195687, 8389195666, 8389195667, 9416635103, 9416635104, 8389195685 ], "denomination": "nan", "designation": "nan", "landuse": "cemetery", "name": "Athens Christian Church Cemetery", "religion": "nan", "gnis:feature_id": "nan", "amenity": "grave_yard", "ele": "nan", "gnis:county_id": "nan", "gnis:created": "nan", "gnis:state_id": "nan", "addr:city": "nan", "addr:housenumber": "nan", "addr:state": "nan", "addr:street": "nan", "website": "nan", "wikidata": "nan", "wikipedia": "nan", "cemetery": "nan", "historic": "nan", "ref:nrhp": "nan", "tomb": "nan", "addr:postcode": "nan", "wall": "nan", "ways": "nan", "landuse_1": "nan", "type": "nan" }, "geometry": { "type": "Polygon", "coordinates": [ [ [ -84.3656784, 37.9519076 ], [ -84.3662036, 37.9513482 ], [ -84.3668364, 37.9516996 ], [ -84.3672391, 37.9519231 ], [ -84.3667086, 37.9525613 ], [ -84.3662891, 37.9523417 ], [ -84.3655332, 37.9523309 ], [ -84.3655452, 37.9520371 ], [ -84.3656784, 37.9519076 ] ] ] } },
{ "type": "Feature", "properties": { "element_type": "way", "osmid": "926438429", "barrier": "nan", "nodes": [ 8597177892, 8597177893, 8597177894, 8597177895, 8597177892 ], "denomination": "nan", "designation": "nan", "landuse": "cemetery", "name": "Muslim Cemetery of Central Kentucky", "religion": "muslim", "gnis:feature_id": "nan", "amenity": "nan", "ele": "nan", "gnis:county_id": "nan", "gnis:created": "nan", "gnis:state_id": "nan", "addr:city": "nan", "addr:housenumber": "nan", "addr:state": "nan", "addr:street": "nan", "website": "https://mccky.org/", "wikidata": "nan", "wikipedia": "nan", "cemetery": "nan", "historic": "nan", "ref:nrhp": "nan", "tomb": "nan", "addr:postcode": "nan", "wall": "nan", "ways": "nan", "landuse_1": "nan", "type": "nan" }, "geometry": { "type": "Polygon", "coordinates": [ [ [ -84.5267981, 38.1235415 ], [ -84.5266543, 38.1229926 ], [ -84.5259348, 38.1231573 ], [ -84.5262129, 38.1236862 ], [ -84.5267981, 38.1235415 ] ] ] } },
{ "type": "Feature", "properties": { "element_type": "way", "osmid": "992958745", "barrier": "nan", "nodes": [ 9173593211, 9173622724, 9173622721, 9173622722, 9173593211 ], "denomination": "nan", "designation": "nan", "landuse": "cemetery", "name": "nan", "religion": "nan", "gnis:feature_id": "nan", "amenity": "nan", "ele": "nan", "gnis:county_id": "nan", "gnis:created": "nan", "gnis:state_id": "nan", "addr:city": "nan", "addr:housenumber": "nan", "addr:state": "nan", "addr:street": "nan", "website": "nan", "wikidata": "nan", "wikipedia": "nan", "cemetery": "nan", "historic": "nan", "ref:nrhp": "nan", "tomb": "nan", "addr:postcode": "nan", "wall": "nan", "ways": "nan", "landuse_1": "nan", "type": "nan" }, "geometry": { "type": "Polygon", "coordinates": [ [ [ -84.5449208, 38.1101548 ], [ -84.5449938, 38.1100443 ], [ -84.5448846, 38.1100018 ], [ -84.5448106, 38.1101098 ], [ -84.5449208, 38.1101548 ] ] ] } },
{ "type": "Feature", "properties": { "element_type": "way", "osmid": "995097555", "barrier": "nan", "nodes": [ 9188743108, 9188743109, 9188743110, 9188743111, 9188743112, 9188743113, 9188743114, 9188743108 ], "denomination": "nan", "designation": "nan", "landuse": "cemetery", "name": "nan", "religion": "nan", "gnis:feature_id": "nan", "amenity": "nan", "ele": "nan", "gnis:county_id": "nan", "gnis:created": "nan", "gnis:state_id": "nan", "addr:city": "nan", "addr:housenumber": "nan", "addr:state": "nan", "addr:street": "nan", "website": "nan", "wikidata": "nan", "wikipedia": "nan", "cemetery": "nan", "historic": "nan", "ref:nrhp": "nan", "tomb": "nan", "addr:postcode": "nan", "wall": "nan", "ways": "nan", "landuse_1": "nan", "type": "nan" }, "geometry": { "type": "Polygon", "coordinates": [ [ [ -84.4471416, 37.9871331 ], [ -84.4469455, 37.9871687 ], [ -84.4468803, 37.9870699 ], [ -84.4469431, 37.9868995 ], [ -84.4471403, 37.9868028 ], [ -84.447329, 37.9868794 ], [ -84.4473096, 37.9870639 ], [ -84.4471416, 37.9871331 ] ] ] } },
{ "type": "Feature", "properties": { "element_type": "way", "osmid": "1020974294", "barrier": "nan", "nodes": [ 9416607440, 9416607439, 9416607438, 9416607437, 9416607440 ], "denomination": "nan", "designation": "nan", "landuse": "cemetery", "name": "Howards Grove Cemetery", "religion": "nan", "gnis:feature_id": "494682", "amenity": "nan", "ele": "288", "gnis:county_id": "067", "gnis:created": "09/20/1979", "gnis:state_id": "21", "addr:city": "nan", "addr:housenumber": "nan", "addr:state": "nan", "addr:street": "nan", "website": "nan", "wikidata": "nan", "wikipedia": "nan", "cemetery": "nan", "historic": "nan", "ref:nrhp": "nan", "tomb": "nan", "addr:postcode": "nan", "wall": "nan", "ways": "nan", "landuse_1": "nan", "type": "nan" }, "geometry": { "type": "Polygon", "coordinates": [ [ [ -84.394564, 38.0960439 ], [ -84.3949932, 38.0960175 ], [ -84.394969, 38.0956745 ], [ -84.3945399, 38.095703 ], [ -84.394564, 38.0960439 ] ] ] } },
{ "type": "Feature", "properties": { "element_type": "way", "osmid": "1020974596", "barrier": "nan", "nodes": [ 9416615661, 9416615660, 9416615659, 9416615658, 9416615661 ], "denomination": "nan", "designation": "nan", "landuse": "cemetery", "name": "Prather Burying Ground", "religion": "nan", "gnis:feature_id": "nan", "amenity": "nan", "ele": "nan", "gnis:county_id": "nan", "gnis:created": "nan", "gnis:state_id": "nan", "addr:city": "nan", "addr:housenumber": "nan", "addr:state": "nan", "addr:street": "nan", "website": "nan", "wikidata": "nan", "wikipedia": "nan", "cemetery": "nan", "historic": "nan", "ref:nrhp": "nan", "tomb": "nan", "addr:postcode": "nan", "wall": "nan", "ways": "nan", "landuse_1": "nan", "type": "nan" }, "geometry": { "type": "Polygon", "coordinates": [ [ [ -84.4042314, 37.8846049 ], [ -84.4042465, 37.8845533 ], [ -84.4041784, 37.8845422 ], [ -84.4041653, 37.8845948 ], [ -84.4042314, 37.8846049 ] ] ] } },
{ "type": "Feature", "properties": { "element_type": "way", "osmid": "1020974597", "barrier": "nan", "nodes": [ 9416615665, 9416615664, 9416615663, 9416615662, 9416615665 ], "denomination": "nan", "designation": "nan", "landuse": "cemetery", "name": "Prather Family Cemetery", "religion": "nan", "gnis:feature_id": "nan", "amenity": "grave_yard", "ele": "nan", "gnis:county_id": "nan", "gnis:created": "nan", "gnis:state_id": "nan", "addr:city": "nan", "addr:housenumber": "nan", "addr:state": "nan", "addr:street": "nan", "website": "nan", "wikidata": "nan", "wikipedia": "nan", "cemetery": "nan", "historic": "nan", "ref:nrhp": "nan", "tomb": "nan", "addr:postcode": "nan", "wall": "nan", "ways": "nan", "landuse_1": "nan", "type": "nan" }, "geometry": { "type": "Polygon", "coordinates": [ [ [ -84.3998882, 37.8860028 ], [ -84.3999157, 37.8858626 ], [ -84.3997568, 37.8858473 ], [ -84.399742, 37.8859727 ], [ -84.3998882, 37.8860028 ] ] ] } },
{ "type": "Feature", "properties": { "element_type": "way", "osmid": "1020974901", "barrier": "nan", "nodes": [ 9416604032, 9416604031, 9416604030, 9416604029, 9416604032 ], "denomination": "nan", "designation": "nan", "landuse": "cemetery", "name": "nan", "religion": "nan", "gnis:feature_id": "nan", "amenity": "nan", "ele": "nan", "gnis:county_id": "nan", "gnis:created": "nan", "gnis:state_id": "nan", "addr:city": "nan", "addr:housenumber": "nan", "addr:state": "nan", "addr:street": "nan", "website": "nan", "wikidata": "nan", "wikipedia": "nan", "cemetery": "nan", "historic": "nan", "ref:nrhp": "nan", "tomb": "nan", "addr:postcode": "nan", "wall": "nan", "ways": "nan", "landuse_1": "nan", "type": "nan" }, "geometry": { "type": "Polygon", "coordinates": [ [ [ -84.4684187, 38.0096887 ], [ -84.4684321, 38.0095994 ], [ -84.4683261, 38.0095873 ], [ -84.468312, 38.0096755 ], [ -84.4684187, 38.0096887 ] ] ] } },
{ "type": "Feature", "properties": { "element_type": "way", "osmid": "1020975883", "barrier": "nan", "nodes": [ 9416609675, 9416609674, 9416609673, 9416609672, 9416609671, 9416609670, 9416609675 ], "denomination": "nan", "designation": "nan", "landuse": "cemetery", "name": "Bethel Presbyterian Church Cemetery", "religion": "nan", "gnis:feature_id": "nan", "amenity": "nan", "ele": "nan", "gnis:county_id": "nan", "gnis:created": "nan", "gnis:state_id": "nan", "addr:city": "nan", "addr:housenumber": "nan", "addr:state": "nan", "addr:street": "nan", "website": "nan", "wikidata": "nan", "wikipedia": "nan", "cemetery": "nan", "historic": "nan", "ref:nrhp": "nan", "tomb": "nan", "addr:postcode": "nan", "wall": "nan", "ways": "nan", "landuse_1": "nan", "type": "nan" }, "geometry": { "type": "Polygon", "coordinates": [ [ [ -84.5855775, 38.1309478 ], [ -84.585654, 38.1306271 ], [ -84.5852222, 38.1302537 ], [ -84.5851269, 38.130222 ], [ -84.5847353, 38.1305279 ], [ -84.5846884, 38.1308286 ], [ -84.5855775, 38.1309478 ] ] ] } },
{ "type": "Feature", "properties": { "element_type": "way", "osmid": "1020975932", "barrier": "nan", "nodes": [ 9416635103, 8389195683, 8389195668, 8389195684, 8389195685, 9416635104, 9416635103 ], "denomination": "nan", "designation": "nan", "landuse": "cemetery", "name": "Boones Creek Cemetery", "religion": "nan", "gnis:feature_id": "nan", "amenity": "grave_yard", "ele": "nan", "gnis:county_id": "nan", "gnis:created": "nan", "gnis:state_id": "nan", "addr:city": "nan", "addr:housenumber": "nan", "addr:state": "nan", "addr:street": "nan", "website": "nan", "wikidata": "nan", "wikipedia": "nan", "cemetery": "nan", "historic": "nan", "ref:nrhp": "nan", "tomb": "nan", "addr:postcode": "nan", "wall": "nan", "ways": "nan", "landuse_1": "nan", "type": "nan" }, "geometry": { "type": "Polygon", "coordinates": [ [ [ -84.3655332, 37.9523309 ], [ -84.3654662, 37.9523299 ], [ -84.3651126, 37.9523248 ], [ -84.3651534, 37.951584 ], [ -84.3656784, 37.9519076 ], [ -84.3655452, 37.9520371 ], [ -84.3655332, 37.9523309 ] ] ] } },
{ "type": "Feature", "properties": { "element_type": "way", "osmid": "1020977055", "barrier": "fence", "nodes": [ 9416648637, 11220674029, 11220674030, 11220674031, 11220674032, 9416648636, 11220674028, 11220674027, 11220674033, 9416648635, 9416648634, 9416648637 ], "denomination": "nan", "designation": "nan", "landuse": "cemetery", "name": "Eastern State Hospital Cemetery", "religion": "nan", "gnis:feature_id": "nan", "amenity": "nan", "ele": "nan", "gnis:county_id": "nan", "gnis:created": "nan", "gnis:state_id": "nan", "addr:city": "nan", "addr:housenumber": "nan", "addr:state": "nan", "addr:street": "nan", "website": "nan", "wikidata": "nan", "wikipedia": "nan", "cemetery": "nan", "historic": "nan", "ref:nrhp": "nan", "tomb": "nan", "addr:postcode": "nan", "wall": "nan", "ways": "nan", "landuse_1": "nan", "type": "nan" }, "geometry": { "type": "Polygon", "coordinates": [ [ [ -84.4948739, 38.0621775 ], [ -84.4951419, 38.0619552 ], [ -84.4951527, 38.0619633 ], [ -84.4951852, 38.0619364 ], [ -84.4951869, 38.0619252 ], [ -84.495189, 38.0619125 ], [ -84.4951572, 38.0618887 ], [ -84.495141, 38.0619021 ], [ -84.4945325, 38.0614474 ], [ -84.494511, 38.0614313 ], [ -84.4942097, 38.0616812 ], [ -84.4948739, 38.0621775 ] ] ] } },
{ "type": "Feature", "properties": { "element_type": "way", "osmid": "1020977317", "barrier": "nan", "nodes": [ 9416641615, 9416641614, 9416641613, 9416641612, 9416641611, 9416641610, 9416641609, 9416641615 ], "denomination": "nan", "designation": "nan", "landuse": "cemetery", "name": "Fayette County Infirmary Cemetery", "religion": "nan", "gnis:feature_id": "nan", "amenity": "nan", "ele": "nan", "gnis:county_id": "nan", "gnis:created": "nan", "gnis:state_id": "nan", "addr:city": "nan", "addr:housenumber": "nan", "addr:state": "nan", "addr:street": "nan", "website": "nan", "wikidata": "nan", "wikipedia": "nan", "cemetery": "nan", "historic": "nan", "ref:nrhp": "nan", "tomb": "nan", "addr:postcode": "nan", "wall": "nan", "ways": "nan", "landuse_1": "nan", "type": "nan" }, "geometry": { "type": "Polygon", "coordinates": [ [ [ -84.534175, 38.0622875 ], [ -84.5342743, 38.0621207 ], [ -84.5339356, 38.0619824 ], [ -84.5338424, 38.0620969 ], [ -84.5338686, 38.0621349 ], [ -84.533941, 38.0621914 ], [ -84.5339973, 38.062221 ], [ -84.534175, 38.0622875 ] ] ] } },
{ "type": "Feature", "properties": { "element_type": "way", "osmid": "1020977618", "barrier": "nan", "nodes": [ 9416590099, 9416590098, 1580436162, 9416590097, 9416590099 ], "denomination": "nan", "designation": "nan", "landuse": "cemetery", "name": "Forest Hill Cemetery", "religion": "nan", "gnis:feature_id": "nan", "amenity": "nan", "ele": "nan", "gnis:county_id": "nan", "gnis:created": "nan", "gnis:state_id": "nan", "addr:city": "nan", "addr:housenumber": "nan", "addr:state": "nan", "addr:street": "nan", "website": "nan", "wikidata": "nan", "wikipedia": "nan", "cemetery": "nan", "historic": "nan", "ref:nrhp": "nan", "tomb": "nan", "addr:postcode": "nan", "wall": "nan", "ways": "nan", "landuse_1": "nan", "type": "nan" }, "geometry": { "type": "Polygon", "coordinates": [ [ [ -84.5068051, 38.0628171 ], [ -84.5071464, 38.0625802 ], [ -84.5074561, 38.06286 ], [ -84.5071146, 38.0630842 ], [ -84.5068051, 38.0628171 ] ] ] } },
{ "type": "Feature", "properties": { "element_type": "way", "osmid": "1020977689", "barrier": "nan", "nodes": [ 9416643289, 9416643288, 9416643287, 9416643286, 9416643289 ], "denomination": "nan", "designation": "nan", "landuse": "cemetery", "name": "Gorham Cemetery", "religion": "nan", "gnis:feature_id": "nan", "amenity": "nan", "ele": "nan", "gnis:county_id": "nan", "gnis:created": "nan", "gnis:state_id": "nan", "addr:city": "nan", "addr:housenumber": "nan", "addr:state": "nan", "addr:street": "nan", "website": "nan", "wikidata": "nan", "wikipedia": "nan", "cemetery": "nan", "historic": "nan", "ref:nrhp": "nan", "tomb": "nan", "addr:postcode": "nan", "wall": "nan", "ways": "nan", "landuse_1": "nan", "type": "nan" }, "geometry": { "type": "Polygon", "coordinates": [ [ [ -84.484697, 38.1195818 ], [ -84.4846836, 38.1195158 ], [ -84.4844723, 38.1195412 ], [ -84.4844871, 38.1196071 ], [ -84.484697, 38.1195818 ] ] ] } },
{ "type": "Feature", "properties": { "element_type": "way", "osmid": "1020977784", "barrier": "nan", "nodes": [ 9416647865, 9416647864, 9416647863, 9416647862, 9416647865 ], "denomination": "nan", "designation": "nan", "landuse": "cemetery", "name": "Griffieth Cemetery", "religion": "nan", "gnis:feature_id": "nan", "amenity": "nan", "ele": "nan", "gnis:county_id": "nan", "gnis:created": "nan", "gnis:state_id": "nan", "addr:city": "nan", "addr:housenumber": "nan", "addr:state": "nan", "addr:street": "nan", "website": "nan", "wikidata": "nan", "wikipedia": "nan", "cemetery": "nan", "historic": "nan", "ref:nrhp": "nan", "tomb": "nan", "addr:postcode": "nan", "wall": "nan", "ways": "nan", "landuse_1": "nan", "type": "nan" }, "geometry": { "type": "Polygon", "coordinates": [ [ [ -84.3769473, 37.8726917 ], [ -84.3772685, 37.8726504 ], [ -84.3772631, 37.8724741 ], [ -84.376903, 37.8725281 ], [ -84.3769473, 37.8726917 ] ] ] } },
{ "type": "Feature", "properties": { "element_type": "way", "osmid": "1021133509", "barrier": "nan", "nodes": [ 9418078234, 9418078233, 9418078232, 9418078231, 9418078230, 9418078229, 9418078228, 9418078227, 9418078226, 9418078234 ], "denomination": "nan", "designation": "nan", "landuse": "cemetery", "name": "Maddoxtown Baptist Church Cemetery", "religion": "nan", "gnis:feature_id": "nan", "amenity": "grave_yard", "ele": "nan", "gnis:county_id": "nan", "gnis:created": "nan", "gnis:state_id": "nan", "addr:city": "nan", "addr:housenumber": "nan", "addr:state": "nan", "addr:street": "nan", "website": "nan", "wikidata": "nan", "wikipedia": "nan", "cemetery": "nan", "historic": "nan", "ref:nrhp": "nan", "tomb": "nan", "addr:postcode": "nan", "wall": "nan", "ways": "nan", "landuse_1": "nan", "type": "nan" }, "geometry": { "type": "Polygon", "coordinates": [ [ [ -84.4495842, 38.1266584 ], [ -84.4499852, 38.1259684 ], [ -84.4492382, 38.1256984 ], [ -84.4489633, 38.1262332 ], [ -84.4491564, 38.1262965 ], [ -84.4492717, 38.1263524 ], [ -84.4493589, 38.1264347 ], [ -84.4494179, 38.1265297 ], [ -84.4494836, 38.1265909 ], [ -84.4495842, 38.1266584 ] ] ] } },
{ "type": "Feature", "properties": { "element_type": "way", "osmid": "1021134228", "barrier": "nan", "nodes": [ 9418099040, 9418099039, 9418099038, 9418099037, 9418099040 ], "denomination": "nan", "designation": "nan", "landuse": "cemetery", "name": "New Vine Baptist Cemetery", "religion": "nan", "gnis:feature_id": "nan", "amenity": "grave_yard", "ele": "nan", "gnis:county_id": "nan", "gnis:created": "nan", "gnis:state_id": "nan", "addr:city": "nan", "addr:housenumber": "nan", "addr:state": "nan", "addr:street": "nan", "website": "nan", "wikidata": "nan", "wikipedia": "nan", "cemetery": "nan", "historic": "nan", "ref:nrhp": "nan", "tomb": "nan", "addr:postcode": "nan", "wall": "nan", "ways": "nan", "landuse_1": "nan", "type": "nan" }, "geometry": { "type": "Polygon", "coordinates": [ [ [ -84.6293592, 38.0417003 ], [ -84.6295135, 38.0412049 ], [ -84.6283239, 38.0412746 ], [ -84.6283628, 38.0419368 ], [ -84.6293592, 38.0417003 ] ] ] } },
{ "type": "Feature", "properties": { "element_type": "way", "osmid": "1021135296", "barrier": "nan", "nodes": [ 9418122419, 9418122418, 9418122417, 9418108116, 9418108115, 9418108114, 9418108113, 9418108112, 9418108111, 9418122419 ], "denomination": "nan", "designation": "nan", "landuse": "cemetery", "name": "Walnut Hill Presbyterian Church Cemetery", "religion": "nan", "gnis:feature_id": "nan", "amenity": "grave_yard", "ele": "nan", "gnis:county_id": "nan", "gnis:created": "nan", "gnis:state_id": "nan", "addr:city": "nan", "addr:housenumber": "nan", "addr:state": "nan", "addr:street": "nan", "website": "nan", "wikidata": "nan", "wikipedia": "nan", "cemetery": "nan", "historic": "nan", "ref:nrhp": "nan", "tomb": "nan", "addr:postcode": "nan", "wall": "nan", "ways": "nan", "landuse_1": "nan", "type": "nan" }, "geometry": { "type": "Polygon", "coordinates": [ [ [ -84.4250017, 37.9686982 ], [ -84.4263107, 37.9677615 ], [ -84.425565, 37.9673386 ], [ -84.4247872, 37.9678016 ], [ -84.424924, 37.9679793 ], [ -84.4249749, 37.9680977 ], [ -84.4249696, 37.9681696 ], [ -84.424881, 37.9682478 ], [ -84.4246852, 37.9683853 ], [ -84.4250017, 37.9686982 ] ] ] } },
{ "type": "Feature", "properties": { "element_type": "way", "osmid": "1026018178", "barrier": "nan", "nodes": [ 9459720125, 9459720124, 9459720123, 9459720122, 9459720121, 9459720120, 9459720119, 9459720118, 9459720117, 9459671916, 9459671915, 9459671914, 10560531065, 10560531064, 9459671913, 9459671912, 9459671911, 9459671910, 9459671909, 9459671908, 9459720125 ], "denomination": "nan", "designation": "nan", "landuse": "cemetery", "name": "Blue Grass Memorial Gardens", "religion": "nan", "gnis:feature_id": "487515", "amenity": "nan", "ele": "293", "gnis:county_id": "113", "gnis:created": "09/20/1979", "gnis:state_id": "21", "addr:city": "nan", "addr:housenumber": "nan", "addr:state": "nan", "addr:street": "nan", "website": "nan", "wikidata": "nan", "wikipedia": "nan", "cemetery": "nan", "historic": "nan", "ref:nrhp": "nan", "tomb": "nan", "addr:postcode": "nan", "wall": "nan", "ways": "nan", "landuse_1": "nan", "type": "nan" }, "geometry": { "type": "Polygon", "coordinates": [ [ [ -84.5926103, 37.9861662 ], [ -84.5930073, 37.986217 ], [ -84.5939487, 37.9862867 ], [ -84.5947292, 37.9863269 ], [ -84.5953971, 37.9863501 ], [ -84.5965773, 37.9864326 ], [ -84.598318, 37.9865066 ], [ -84.5994607, 37.9841473 ], [ -84.5993216, 37.9841244 ], [ -84.59731, 37.9837934 ], [ -84.5962812, 37.9836191 ], [ -84.5948303, 37.9833689 ], [ -84.5935889, 37.9831644 ], [ -84.5925652, 37.9829947 ], [ -84.5913784, 37.9828122 ], [ -84.591575, 37.9832509 ], [ -84.5918083, 37.9839253 ], [ -84.5920122, 37.9845807 ], [ -84.5923367, 37.9854242 ], [ -84.5925647, 37.9861282 ], [ -84.5926103, 37.9861662 ] ] ] } },
{ "type": "Feature", "properties": { "element_type": "way", "osmid": "1026018194", "barrier": "nan", "nodes": [ 9459697166, 9459697165, 9459697164, 9459697163, 9459697166 ], "denomination": "nan", "designation": "nan", "landuse": "cemetery", "name": "Ebenezer Cemetery", "religion": "nan", "gnis:feature_id": "491534", "amenity": "nan", "ele": "248", "gnis:county_id": "113", "gnis:created": "09/20/1979", "gnis:state_id": "21", "addr:city": "nan", "addr:housenumber": "nan", "addr:state": "nan", "addr:street": "nan", "website": "nan", "wikidata": "nan", "wikipedia": "nan", "cemetery": "nan", "historic": "nan", "ref:nrhp": "nan", "tomb": "nan", "addr:postcode": "nan", "wall": "nan", "ways": "nan", "landuse_1": "nan", "type": "nan" }, "geometry": { "type": "Polygon", "coordinates": [ [ [ -84.6857701, 37.9307678 ], [ -84.6858412, 37.9300686 ], [ -84.6847093, 37.9299956 ], [ -84.6846583, 37.9307139 ], [ -84.6857701, 37.9307678 ] ] ] } },
{ "type": "Feature", "properties": { "element_type": "way", "osmid": "1026021839", "barrier": "nan", "nodes": [ 9459698262, 9459698261, 9459698260, 9459698259, 9459698258, 9459698257, 9459698256, 9459698255, 9459698254, 9459698253, 9459698252, 9459698251, 9459698250, 9459698249, 9459698262 ], "denomination": "nan", "designation": "nan", "landuse": "cemetery", "name": "Locust Grove Cemetary", "religion": "nan", "gnis:feature_id": "nan", "amenity": "nan", "ele": "nan", "gnis:county_id": "nan", "gnis:created": "nan", "gnis:state_id": "nan", "addr:city": "nan", "addr:housenumber": "nan", "addr:state": "nan", "addr:street": "nan", "website": "nan", "wikidata": "nan", "wikipedia": "nan", "cemetery": "nan", "historic": "nan", "ref:nrhp": "nan", "tomb": "nan", "addr:postcode": "nan", "wall": "nan", "ways": "nan", "landuse_1": "nan", "type": "nan" }, "geometry": { "type": "Polygon", "coordinates": [ [ [ -84.5759189, 37.8931851 ], [ -84.5760477, 37.8932581 ], [ -84.5762314, 37.8933005 ], [ -84.5766538, 37.8932052 ], [ -84.5770387, 37.8930264 ], [ -84.5770106, 37.8927353 ], [ -84.5770428, 37.8924527 ], [ -84.577079, 37.892058 ], [ -84.5771272, 37.8916833 ], [ -84.5770052, 37.8916748 ], [ -84.5765935, 37.8916949 ], [ -84.5757446, 37.8917405 ], [ -84.5758438, 37.8924072 ], [ -84.5759135, 37.8928295 ], [ -84.5759189, 37.8931851 ] ] ] } },
{ "type": "Feature", "properties": { "element_type": "way", "osmid": "1026022194", "barrier": "nan", "nodes": [ 9459694054, 9459694053, 9459694052, 9459694051, 9459694054 ], "denomination": "nan", "designation": "nan", "landuse": "cemetery", "name": "Collins Cleveland Cemetery", "religion": "nan", "gnis:feature_id": "nan", "amenity": "nan", "ele": "nan", "gnis:county_id": "nan", "gnis:created": "nan", "gnis:state_id": "nan", "addr:city": "nan", "addr:housenumber": "nan", "addr:state": "nan", "addr:street": "nan", "website": "nan", "wikidata": "nan", "wikipedia": "nan", "cemetery": "nan", "historic": "nan", "ref:nrhp": "nan", "tomb": "nan", "addr:postcode": "nan", "wall": "nan", "ways": "nan", "landuse_1": "nan", "type": "nan" }, "geometry": { "type": "Polygon", "coordinates": [ [ [ -84.6467601, 37.9602799 ], [ -84.6475701, 37.9600737 ], [ -84.647381, 37.95962 ], [ -84.6465991, 37.9598823 ], [ -84.6467601, 37.9602799 ] ] ] } },
{ "type": "Feature", "properties": { "element_type": "way", "osmid": "1026022559", "barrier": "nan", "nodes": [ 9459740667, 9459740666, 9459740665, 9459740664, 9459740667 ], "denomination": "nan", "designation": "nan", "landuse": "cemetery", "name": "nan", "religion": "nan", "gnis:feature_id": "nan", "amenity": "nan", "ele": "nan", "gnis:county_id": "nan", "gnis:created": "nan", "gnis:state_id": "nan", "addr:city": "nan", "addr:housenumber": "nan", "addr:state": "nan", "addr:street": "nan", "website": "nan", "wikidata": "nan", "wikipedia": "nan", "cemetery": "nan", "historic": "nan", "ref:nrhp": "nan", "tomb": "nan", "addr:postcode": "nan", "wall": "nan", "ways": "nan", "landuse_1": "nan", "type": "nan" }, "geometry": { "type": "Polygon", "coordinates": [ [ [ -84.6179619, 37.8870189 ], [ -84.6180283, 37.8870311 ], [ -84.6180511, 37.8869565 ], [ -84.6179833, 37.8869422 ], [ -84.6179619, 37.8870189 ] ] ] } },
{ "type": "Feature", "properties": { "element_type": "way", "osmid": "1026023407", "barrier": "nan", "nodes": [ 9459757362, 9459757361, 9459757360, 9459757359, 9459757358, 9459757357, 9459757356, 9459757355, 9459757354, 9459757353, 9459757352, 9459757351, 9459757350, 9459757362 ], "denomination": "nan", "designation": "nan", "landuse": "cemetery", "name": "Megee Cemetery", "religion": "nan", "gnis:feature_id": "nan", "amenity": "nan", "ele": "nan", "gnis:county_id": "nan", "gnis:created": "nan", "gnis:state_id": "nan", "addr:city": "nan", "addr:housenumber": "nan", "addr:state": "nan", "addr:street": "nan", "website": "nan", "wikidata": "nan", "wikipedia": "nan", "cemetery": "nan", "historic": "nan", "ref:nrhp": "nan", "tomb": "nan", "addr:postcode": "nan", "wall": "nan", "ways": "nan", "landuse_1": "nan", "type": "nan" }, "geometry": { "type": "Polygon", "coordinates": [ [ [ -84.6559346, 37.9966002 ], [ -84.6560097, 37.9966594 ], [ -84.6560915, 37.9966763 ], [ -84.6561599, 37.9966805 ], [ -84.6562363, 37.9966488 ], [ -84.6562806, 37.9965992 ], [ -84.6562819, 37.9964935 ], [ -84.6562162, 37.9964354 ], [ -84.6561304, 37.9964121 ], [ -84.6560606, 37.9964132 ], [ -84.6559896, 37.9964459 ], [ -84.6559292, 37.9964977 ], [ -84.6559198, 37.9965643 ], [ -84.6559346, 37.9966002 ] ] ] } },
{ "type": "Feature", "properties": { "element_type": "way", "osmid": "1026024068", "barrier": "nan", "nodes": [ 9459732205, 9459732204, 9459732203, 9459732202, 9459732205 ], "denomination": "nan", "designation": "nan", "landuse": "cemetery", "name": "Young and Branaugh Cemetery", "religion": "nan", "gnis:feature_id": "nan", "amenity": "nan", "ele": "nan", "gnis:county_id": "nan", "gnis:created": "nan", "gnis:state_id": "nan", "addr:city": "nan", "addr:housenumber": "nan", "addr:state": "nan", "addr:street": "nan", "website": "nan", "wikidata": "nan", "wikipedia": "nan", "cemetery": "nan", "historic": "nan", "ref:nrhp": "nan", "tomb": "nan", "addr:postcode": "nan", "wall": "nan", "ways": "nan", "landuse_1": "nan", "type": "nan" }, "geometry": { "type": "Polygon", "coordinates": [ [ [ -84.5931894, 37.9498602 ], [ -84.5932852, 37.9497259 ], [ -84.5931607, 37.9496763 ], [ -84.5930749, 37.9498105 ], [ -84.5931894, 37.9498602 ] ] ] } },
{ "type": "Feature", "properties": { "element_type": "way", "osmid": "1026024154", "barrier": "nan", "nodes": [ 9459762870, 9459762869, 9459762868, 9459762867, 9459762870 ], "denomination": "nan", "designation": "nan", "landuse": "cemetery", "name": "Keene Cemetery", "religion": "nan", "gnis:feature_id": "nan", "amenity": "nan", "ele": "nan", "gnis:county_id": "nan", "gnis:created": "nan", "gnis:state_id": "nan", "addr:city": "nan", "addr:housenumber": "nan", "addr:state": "nan", "addr:street": "nan", "website": "nan", "wikidata": "nan", "wikipedia": "nan", "cemetery": "nan", "historic": "nan", "ref:nrhp": "nan", "tomb": "nan", "addr:postcode": "nan", "wall": "nan", "ways": "nan", "landuse_1": "nan", "type": "nan" }, "geometry": { "type": "Polygon", "coordinates": [ [ [ -84.6405649, 37.9483497 ], [ -84.6410005, 37.9485319 ], [ -84.6418249, 37.9470956 ], [ -84.6407695, 37.9468581 ], [ -84.6405649, 37.9483497 ] ] ] } },
{ "type": "Feature", "properties": { "element_type": "way", "osmid": "1026024443", "barrier": "nan", "nodes": [ 9459763897, 9459763896, 9459763895, 9459763894, 9459763897 ], "denomination": "nan", "designation": "nan", "landuse": "cemetery", "name": "Frost cemetery", "religion": "nan", "gnis:feature_id": "nan", "amenity": "nan", "ele": "nan", "gnis:county_id": "nan", "gnis:created": "nan", "gnis:state_id": "nan", "addr:city": "nan", "addr:housenumber": "nan", "addr:state": "nan", "addr:street": "nan", "website": "nan", "wikidata": "nan", "wikipedia": "nan", "cemetery": "nan", "historic": "nan", "ref:nrhp": "nan", "tomb": "nan", "addr:postcode": "nan", "wall": "nan", "ways": "nan", "landuse_1": "nan", "type": "nan" }, "geometry": { "type": "Polygon", "coordinates": [ [ [ -84.6523919, 37.9366414 ], [ -84.6524569, 37.9366455 ], [ -84.6524703, 37.9365519 ], [ -84.6523994, 37.9365454 ], [ -84.6523919, 37.9366414 ] ] ] } },
{ "type": "Feature", "properties": { "element_type": "way", "osmid": "1026024626", "barrier": "nan", "nodes": [ 9459764532, 9459764531, 9459764530, 9459764529, 9459764528, 9459764527, 9459764526, 9459764525, 9459764524, 9459764523, 9459764522, 9459764521, 9459764532 ], "denomination": "nan", "designation": "nan", "landuse": "cemetery", "name": "Sallee Cemetery", "religion": "nan", "gnis:feature_id": "nan", "amenity": "nan", "ele": "nan", "gnis:county_id": "nan", "gnis:created": "nan", "gnis:state_id": "nan", "addr:city": "nan", "addr:housenumber": "nan", "addr:state": "nan", "addr:street": "nan", "website": "nan", "wikidata": "nan", "wikipedia": "nan", "cemetery": "nan", "historic": "nan", "ref:nrhp": "nan", "tomb": "nan", "addr:postcode": "nan", "wall": "nan", "ways": "nan", "landuse_1": "nan", "type": "nan" }, "geometry": { "type": "Polygon", "coordinates": [ [ [ -84.6390977, 37.9368164 ], [ -84.6391043, 37.9368462 ], [ -84.6391289, 37.9368693 ], [ -84.6391649, 37.9368797 ], [ -84.6392026, 37.9368745 ], [ -84.639232, 37.9368551 ], [ -84.6392451, 37.9368267 ], [ -84.6392385, 37.9367969 ], [ -84.6392139, 37.9367738 ], [ -84.6391779, 37.9367634 ], [ -84.6391402, 37.9367686 ], [ -84.6391108, 37.936788 ], [ -84.6390977, 37.9368164 ] ] ] } },
{ "type": "Feature", "properties": { "element_type": "way", "osmid": "1026024779", "barrier": "nan", "nodes": [ 9459717006, 9459717005, 9459717004, 9459717003, 9459717006 ], "denomination": "nan", "designation": "nan", "landuse": "cemetery", "name": "Neal Cemetery", "religion": "nan", "gnis:feature_id": "nan", "amenity": "nan", "ele": "nan", "gnis:county_id": "nan", "gnis:created": "nan", "gnis:state_id": "nan", "addr:city": "nan", "addr:housenumber": "nan", "addr:state": "nan", "addr:street": "nan", "website": "nan", "wikidata": "nan", "wikipedia": "nan", "cemetery": "nan", "historic": "nan", "ref:nrhp": "nan", "tomb": "nan", "addr:postcode": "nan", "wall": "nan", "ways": "nan", "landuse_1": "nan", "type": "nan" }, "geometry": { "type": "Polygon", "coordinates": [ [ [ -84.6027931, 37.9422676 ], [ -84.6028067, 37.9421935 ], [ -84.6027286, 37.9421847 ], [ -84.6027158, 37.9422588 ], [ -84.6027931, 37.9422676 ] ] ] } },
{ "type": "Feature", "properties": { "element_type": "way", "osmid": "1026024895", "barrier": "nan", "nodes": [ 9459764536, 9459764535, 9459764534, 9459764533, 9459764536 ], "denomination": "nan", "designation": "nan", "landuse": "cemetery", "name": "Crockett-Woodson Cemetery", "religion": "nan", "gnis:feature_id": "nan", "amenity": "nan", "ele": "nan", "gnis:county_id": "nan", "gnis:created": "nan", "gnis:state_id": "nan", "addr:city": "nan", "addr:housenumber": "nan", "addr:state": "nan", "addr:street": "nan", "website": "nan", "wikidata": "nan", "wikipedia": "nan", "cemetery": "nan", "historic": "nan", "ref:nrhp": "nan", "tomb": "nan", "addr:postcode": "nan", "wall": "nan", "ways": "nan", "landuse_1": "nan", "type": "nan" }, "geometry": { "type": "Polygon", "coordinates": [ [ [ -84.5844582, 37.9348977 ], [ -84.5846291, 37.9349016 ], [ -84.584621, 37.9347912 ], [ -84.5844492, 37.9347828 ], [ -84.5844582, 37.9348977 ] ] ] } },
{ "type": "Feature", "properties": { "element_type": "way", "osmid": "1026024915", "barrier": "nan", "nodes": [ 9459743029, 9459743028, 9459743027, 9459743026, 9459743029 ], "denomination": "nan", "designation": "nan", "landuse": "cemetery", "name": "Aaron Farra Family Cemetery", "religion": "nan", "gnis:feature_id": "nan", "amenity": "nan", "ele": "nan", "gnis:county_id": "nan", "gnis:created": "nan", "gnis:state_id": "nan", "addr:city": "nan", "addr:housenumber": "nan", "addr:state": "nan", "addr:street": "nan", "website": "nan", "wikidata": "nan", "wikipedia": "nan", "cemetery": "nan", "historic": "nan", "ref:nrhp": "nan", "tomb": "nan", "addr:postcode": "nan", "wall": "nan", "ways": "nan", "landuse_1": "nan", "type": "nan" }, "geometry": { "type": "Polygon", "coordinates": [ [ [ -84.5492255, 37.9406961 ], [ -84.5493402, 37.9406607 ], [ -84.5493103, 37.9406062 ], [ -84.5491955, 37.9406423 ], [ -84.5492255, 37.9406961 ] ] ] } },
{ "type": "Feature", "properties": { "element_type": "way", "osmid": "1026025220", "barrier": "nan", "nodes": [ 9459740680, 9459740679, 9459740678, 9459740677, 9459740680 ], "denomination": "nan", "designation": "nan", "landuse": "cemetery", "name": "Clarence Marrs Farm Cemetery", "religion": "nan", "gnis:feature_id": "nan", "amenity": "nan", "ele": "nan", "gnis:county_id": "nan", "gnis:created": "nan", "gnis:state_id": "nan", "addr:city": "nan", "addr:housenumber": "nan", "addr:state": "nan", "addr:street": "nan", "website": "nan", "wikidata": "nan", "wikipedia": "nan", "cemetery": "nan", "historic": "nan", "ref:nrhp": "nan", "tomb": "nan", "addr:postcode": "nan", "wall": "nan", "ways": "nan", "landuse_1": "nan", "type": "nan" }, "geometry": { "type": "Polygon", "coordinates": [ [ [ -84.5206297, 37.9387732 ], [ -84.5207044, 37.9386204 ], [ -84.5205974, 37.9385943 ], [ -84.520526, 37.9387498 ], [ -84.5206297, 37.9387732 ] ] ] } },
{ "type": "Feature", "properties": { "element_type": "way", "osmid": "1026025289", "barrier": "nan", "nodes": [ 9459774376, 9459774375, 9459774374, 9459774373, 9459774376 ], "denomination": "nan", "designation": "nan", "landuse": "cemetery", "name": "Young Cemetery", "religion": "nan", "gnis:feature_id": "nan", "amenity": "nan", "ele": "nan", "gnis:county_id": "nan", "gnis:created": "nan", "gnis:state_id": "nan", "addr:city": "nan", "addr:housenumber": "nan", "addr:state": "nan", "addr:street": "nan", "website": "nan", "wikidata": "nan", "wikipedia": "nan", "cemetery": "nan", "historic": "nan", "ref:nrhp": "nan", "tomb": "nan", "addr:postcode": "nan", "wall": "nan", "ways": "nan", "landuse_1": "nan", "type": "nan" }, "geometry": { "type": "Polygon", "coordinates": [ [ [ -84.4988986, 37.9383622 ], [ -84.4990697, 37.9383855 ], [ -84.4991036, 37.9382074 ], [ -84.4989256, 37.9381855 ], [ -84.4988986, 37.9383622 ] ] ] } },
{ "type": "Feature", "properties": { "element_type": "way", "osmid": "1026025560", "barrier": "nan", "nodes": [ 9459756436, 9459756435, 9459756434, 9459756433, 9459756436 ], "denomination": "nan", "designation": "nan", "landuse": "cemetery", "name": "Knight Cemetery", "religion": "nan", "gnis:feature_id": "nan", "amenity": "nan", "ele": "nan", "gnis:county_id": "nan", "gnis:created": "nan", "gnis:state_id": "nan", "addr:city": "nan", "addr:housenumber": "nan", "addr:state": "nan", "addr:street": "nan", "website": "nan", "wikidata": "nan", "wikipedia": "nan", "cemetery": "nan", "historic": "nan", "ref:nrhp": "nan", "tomb": "nan", "addr:postcode": "nan", "wall": "nan", "ways": "nan", "landuse_1": "nan", "type": "nan" }, "geometry": { "type": "Polygon", "coordinates": [ [ [ -84.6108989, 37.9176394 ], [ -84.6109078, 37.9175834 ], [ -84.6108315, 37.9175764 ], [ -84.6108226, 37.9176324 ], [ -84.6108989, 37.9176394 ] ] ] } },
{ "type": "Feature", "properties": { "element_type": "way", "osmid": "1026025648", "barrier": "nan", "nodes": [ 9459773127, 9459773126, 9459773125, 9459773124, 9459773127 ], "denomination": "nan", "designation": "nan", "landuse": "cemetery", "name": "Price Cemetery", "religion": "nan", "gnis:feature_id": "nan", "amenity": "nan", "ele": "nan", "gnis:county_id": "nan", "gnis:created": "nan", "gnis:state_id": "nan", "addr:city": "nan", "addr:housenumber": "nan", "addr:state": "nan", "addr:street": "nan", "website": "nan", "wikidata": "nan", "wikipedia": "nan", "cemetery": "nan", "historic": "nan", "ref:nrhp": "nan", "tomb": "nan", "addr:postcode": "nan", "wall": "nan", "ways": "nan", "landuse_1": "nan", "type": "nan" }, "geometry": { "type": "Polygon", "coordinates": [ [ [ -84.6621278, 37.9067996 ], [ -84.6620829, 37.9067996 ], [ -84.6620847, 37.9067338 ], [ -84.6621305, 37.9067338 ], [ -84.6621278, 37.9067996 ] ] ] } },
{ "type": "Feature", "properties": { "element_type": "way", "osmid": "1026026309", "barrier": "nan", "nodes": [ 9459786139, 9459786138, 9459786137, 9459786136, 9459786139 ], "denomination": "nan", "designation": "nan", "landuse": "cemetery", "name": "Todhunter Cemetery", "religion": "nan", "gnis:feature_id": "nan", "amenity": "nan", "ele": "nan", "gnis:county_id": "nan", "gnis:created": "nan", "gnis:state_id": "nan", "addr:city": "nan", "addr:housenumber": "nan", "addr:state": "nan", "addr:street": "nan", "website": "nan", "wikidata": "nan", "wikipedia": "nan", "cemetery": "nan", "historic": "nan", "ref:nrhp": "nan", "tomb": "nan", "addr:postcode": "nan", "wall": "nan", "ways": "nan", "landuse_1": "nan", "type": "nan" }, "geometry": { "type": "Polygon", "coordinates": [ [ [ -84.5851555, 37.9035223 ], [ -84.5852347, 37.9034734 ], [ -84.5851652, 37.9034054 ], [ -84.5850845, 37.9034615 ], [ -84.5851555, 37.9035223 ] ] ] } },
{ "type": "Feature", "properties": { "element_type": "way", "osmid": "1026026337", "barrier": "nan", "nodes": [ 9459773136, 9459773135, 9459773134, 9459773133, 9459773136 ], "denomination": "nan", "designation": "nan", "landuse": "cemetery", "name": "Duncan Cemetery", "religion": "nan", "gnis:feature_id": "nan", "amenity": "nan", "ele": "nan", "gnis:county_id": "nan", "gnis:created": "nan", "gnis:state_id": "nan", "addr:city": "nan", "addr:housenumber": "nan", "addr:state": "nan", "addr:street": "nan", "website": "nan", "wikidata": "nan", "wikipedia": "nan", "cemetery": "nan", "historic": "nan", "ref:nrhp": "nan", "tomb": "nan", "addr:postcode": "nan", "wall": "nan", "ways": "nan", "landuse_1": "nan", "type": "nan" }, "geometry": { "type": "Polygon", "coordinates": [ [ [ -84.569057, 37.8896058 ], [ -84.5691142, 37.8894798 ], [ -84.5689326, 37.8894077 ], [ -84.5688688, 37.8895424 ], [ -84.569057, 37.8896058 ] ] ] } },
{ "type": "Feature", "properties": { "element_type": "way", "osmid": "1026026600", "barrier": "nan", "nodes": [ 9459762592, 9459762591, 9459762590, 9459762589, 9459762592 ], "denomination": "nan", "designation": "nan", "landuse": "cemetery", "name": "Moravian-A. J. Corman Estate Cemetery", "religion": "nan", "gnis:feature_id": "nan", "amenity": "nan", "ele": "nan", "gnis:county_id": "nan", "gnis:created": "nan", "gnis:state_id": "nan", "addr:city": "nan", "addr:housenumber": "nan", "addr:state": "nan", "addr:street": "nan", "website": "nan", "wikidata": "nan", "wikipedia": "nan", "cemetery": "nan", "historic": "nan", "ref:nrhp": "nan", "tomb": "nan", "addr:postcode": "nan", "wall": "nan", "ways": "nan", "landuse_1": "nan", "type": "nan" }, "geometry": { "type": "Polygon", "coordinates": [ [ [ -84.6100896, 37.8650049 ], [ -84.6105693, 37.8646724 ], [ -84.6101634, 37.8643499 ], [ -84.6096213, 37.8646282 ], [ -84.6100896, 37.8650049 ] ] ] } },
{ "type": "Feature", "properties": { "element_type": "way", "osmid": "1026026764", "barrier": "nan", "nodes": [ 9459786143, 9459786142, 9459786141, 9459786140, 9459786143 ], "denomination": "nan", "designation": "nan", "landuse": "cemetery", "name": "Dickerson Family Cemetery", "religion": "nan", "gnis:feature_id": "nan", "amenity": "nan", "ele": "nan", "gnis:county_id": "nan", "gnis:created": "nan", "gnis:state_id": "nan", "addr:city": "nan", "addr:housenumber": "nan", "addr:state": "nan", "addr:street": "nan", "website": "nan", "wikidata": "nan", "wikipedia": "nan", "cemetery": "nan", "historic": "nan", "ref:nrhp": "nan", "tomb": "nan", "addr:postcode": "nan", "wall": "nan", "ways": "nan", "landuse_1": "nan", "type": "nan" }, "geometry": { "type": "Polygon", "coordinates": [ [ [ -84.5475141, 37.883884 ], [ -84.5475284, 37.8838027 ], [ -84.5474443, 37.8837934 ], [ -84.54743, 37.8838748 ], [ -84.5475141, 37.883884 ] ] ] } },
{ "type": "Feature", "properties": { "element_type": "way", "osmid": "1026027144", "barrier": "nan", "nodes": [ 9459725903, 9459725902, 9459725901, 9459725900, 9459725903 ], "denomination": "nan", "designation": "nan", "landuse": "cemetery", "name": "Simpson Cemetery", "religion": "nan", "gnis:feature_id": "nan", "amenity": "nan", "ele": "nan", "gnis:county_id": "nan", "gnis:created": "nan", "gnis:state_id": "nan", "addr:city": "nan", "addr:housenumber": "nan", "addr:state": "nan", "addr:street": "nan", "website": "nan", "wikidata": "nan", "wikipedia": "nan", "cemetery": "nan", "historic": "nan", "ref:nrhp": "nan", "tomb": "nan", "addr:postcode": "nan", "wall": "nan", "ways": "nan", "landuse_1": "nan", "type": "nan" }, "geometry": { "type": "Polygon", "coordinates": [ [ [ -84.5159339, 37.8850091 ], [ -84.5160389, 37.8849672 ], [ -84.5159817, 37.8848896 ], [ -84.5158715, 37.8849368 ], [ -84.5159339, 37.8850091 ] ] ] } },
{ "type": "Feature", "properties": { "element_type": "way", "osmid": "1026027237", "barrier": "nan", "nodes": [ 9459762599, 9459762598, 9459762597, 9459762596, 9459762595, 9459762594, 9459762593, 9459762599 ], "denomination": "nan", "designation": "nan", "landuse": "cemetery", "name": "Taylor Family Farm Cemetery", "religion": "nan", "gnis:feature_id": "nan", "amenity": "nan", "ele": "nan", "gnis:county_id": "nan", "gnis:created": "nan", "gnis:state_id": "nan", "addr:city": "nan", "addr:housenumber": "nan", "addr:state": "nan", "addr:street": "nan", "website": "nan", "wikidata": "nan", "wikipedia": "nan", "cemetery": "nan", "historic": "nan", "ref:nrhp": "nan", "tomb": "nan", "addr:postcode": "nan", "wall": "nan", "ways": "nan", "landuse_1": "nan", "type": "nan" }, "geometry": { "type": "Polygon", "coordinates": [ [ [ -84.4745799, 37.897743 ], [ -84.47477, 37.8975662 ], [ -84.4747605, 37.8975202 ], [ -84.4746424, 37.8974645 ], [ -84.4744822, 37.8974013 ], [ -84.4744795, 37.8975577 ], [ -84.4745053, 37.8976487 ], [ -84.4745799, 37.897743 ] ] ] } },
{ "type": "Feature", "properties": { "element_type": "way", "osmid": "1026027338", "barrier": "nan", "nodes": [ 9459795235, 9459795234, 9459795233, 9459795232, 9459795235 ], "denomination": "nan", "designation": "nan", "landuse": "cemetery", "name": "Cravens Cemetery", "religion": "nan", "gnis:feature_id": "nan", "amenity": "nan", "ele": "nan", "gnis:county_id": "nan", "gnis:created": "nan", "gnis:state_id": "nan", "addr:city": "nan", "addr:housenumber": "nan", "addr:state": "nan", "addr:street": "nan", "website": "nan", "wikidata": "nan", "wikipedia": "nan", "cemetery": "nan", "historic": "nan", "ref:nrhp": "nan", "tomb": "nan", "addr:postcode": "nan", "wall": "nan", "ways": "nan", "landuse_1": "nan", "type": "nan" }, "geometry": { "type": "Polygon", "coordinates": [ [ [ -84.4830084, 37.8734462 ], [ -84.4830587, 37.8733718 ], [ -84.4829432, 37.8733232 ], [ -84.4828957, 37.8734188 ], [ -84.4830084, 37.8734462 ] ] ] } },
{ "type": "Feature", "properties": { "element_type": "way", "osmid": "1026030141", "barrier": "nan", "nodes": [ 9459817914, 9459817913, 9459817912, 9459817911, 9459817914 ], "denomination": "nan", "designation": "nan", "landuse": "cemetery", "name": "Riddle Cemetery", "religion": "nan", "gnis:feature_id": "nan", "amenity": "nan", "ele": "nan", "gnis:county_id": "nan", "gnis:created": "nan", "gnis:state_id": "nan", "addr:city": "nan", "addr:housenumber": "nan", "addr:state": "nan", "addr:street": "nan", "website": "nan", "wikidata": "nan", "wikipedia": "nan", "cemetery": "nan", "historic": "nan", "ref:nrhp": "nan", "tomb": "nan", "addr:postcode": "nan", "wall": "nan", "ways": "nan", "landuse_1": "nan", "type": "nan" }, "geometry": { "type": "Polygon", "coordinates": [ [ [ -84.5108767, 37.8637776 ], [ -84.510994, 37.8635417 ], [ -84.5107388, 37.8634768 ], [ -84.5106369, 37.8637059 ], [ -84.5108767, 37.8637776 ] ] ] } },
{ "type": "Feature", "properties": { "element_type": "way", "osmid": "1026030343", "barrier": "nan", "nodes": [ 9459820276, 9459820275, 9459820274, 9459820273, 9459820276 ], "denomination": "nan", "designation": "nan", "landuse": "cemetery", "name": "Cobb Cemetery", "religion": "nan", "gnis:feature_id": "nan", "amenity": "nan", "ele": "nan", "gnis:county_id": "nan", "gnis:created": "nan", "gnis:state_id": "nan", "addr:city": "nan", "addr:housenumber": "nan", "addr:state": "nan", "addr:street": "nan", "website": "nan", "wikidata": "nan", "wikipedia": "nan", "cemetery": "nan", "historic": "nan", "ref:nrhp": "nan", "tomb": "nan", "addr:postcode": "nan", "wall": "nan", "ways": "nan", "landuse_1": "nan", "type": "nan" }, "geometry": { "type": "Polygon", "coordinates": [ [ [ -84.5411892, 37.8587025 ], [ -84.5413108, 37.8584386 ], [ -84.5409565, 37.858344 ], [ -84.5408961, 37.8586085 ], [ -84.5411892, 37.8587025 ] ] ] } },
{ "type": "Feature", "properties": { "element_type": "way", "osmid": "1032460055", "barrier": "nan", "nodes": [ 9512805510, 9512805509, 9512805508, 9512805507, 9512805510 ], "denomination": "nan", "designation": "nan", "landuse": "cemetery", "name": "Cog Hill Cemetery", "religion": "nan", "gnis:feature_id": "489784", "amenity": "nan", "ele": "253", "gnis:county_id": "167", "gnis:created": "09/20/1979", "gnis:state_id": "21", "addr:city": "nan", "addr:housenumber": "nan", "addr:state": "nan", "addr:street": "nan", "website": "nan", "wikidata": "nan", "wikipedia": "nan", "cemetery": "nan", "historic": "nan", "ref:nrhp": "nan", "tomb": "nan", "addr:postcode": "nan", "wall": "nan", "ways": "nan", "landuse_1": "nan", "type": "nan" }, "geometry": { "type": "Polygon", "coordinates": [ [ [ -84.7058854, 37.8475241 ], [ -84.7059041, 37.8474458 ], [ -84.7058002, 37.8474341 ], [ -84.7057861, 37.8475114 ], [ -84.7058854, 37.8475241 ] ] ] } },
{ "type": "Feature", "properties": { "element_type": "way", "osmid": "1038911405", "barrier": "nan", "nodes": [ 9567274235, 9567274236, 9567274237, 9567274238, 9567274299, 9567274239, 9567274240, 9567274241, 9567274242, 9567274243, 9567274244, 9567274259, 9567274245, 9567274246, 9567274247, 9567274248, 9567274249, 9567274250, 9567274251, 9567274252, 9567274253, 9567274254, 9567274255, 9567274256, 9567274257, 9567274235 ], "denomination": "nan", "designation": "nan", "landuse": "cemetery", "name": "Pisgah Cemetery", "religion": "nan", "gnis:feature_id": "nan", "amenity": "nan", "ele": "nan", "gnis:county_id": "nan", "gnis:created": "nan", "gnis:state_id": "nan", "addr:city": "nan", "addr:housenumber": "nan", "addr:state": "nan", "addr:street": "nan", "website": "nan", "wikidata": "nan", "wikipedia": "nan", "cemetery": "nan", "historic": "nan", "ref:nrhp": "nan", "tomb": "nan", "addr:postcode": "nan", "wall": "nan", "ways": "nan", "landuse_1": "nan", "type": "nan" }, "geometry": { "type": "Polygon", "coordinates": [ [ [ -84.6550269, 38.0539942 ], [ -84.6544463, 38.0543753 ], [ -84.6545827, 38.0546032 ], [ -84.6545502, 38.0555075 ], [ -84.6545079, 38.0556849 ], [ -84.6543292, 38.0564329 ], [ -84.654565, 38.0564897 ], [ -84.6553194, 38.0563517 ], [ -84.6552605, 38.0561423 ], [ -84.6552011, 38.0561304 ], [ -84.6551808, 38.0560976 ], [ -84.6551821, 38.0560673 ], [ -84.6551833, 38.0560373 ], [ -84.6552014, 38.0559957 ], [ -84.6552312, 38.0559951 ], [ -84.6552033, 38.055819 ], [ -84.655257, 38.0555764 ], [ -84.6553126, 38.0552399 ], [ -84.6553185, 38.055014 ], [ -84.6553531, 38.054941 ], [ -84.6554055, 38.0548926 ], [ -84.6556026, 38.0547281 ], [ -84.6556389, 38.0546192 ], [ -84.6556151, 38.0545367 ], [ -84.6555523, 38.0544537 ], [ -84.6550269, 38.0539942 ] ] ] } },
{ "type": "Feature", "properties": { "element_type": "way", "osmid": "1044281335", "barrier": "nan", "nodes": [ 9609085479, 9609085478, 9609085477, 9609085476, 9609085475, 9609085474, 9609085473, 9609085472, 9609085479 ], "denomination": "nan", "designation": "nan", "landuse": "cemetery", "name": "Mount Vernon Church Cemetery", "religion": "nan", "gnis:feature_id": "nan", "amenity": "nan", "ele": "nan", "gnis:county_id": "nan", "gnis:created": "nan", "gnis:state_id": "nan", "addr:city": "nan", "addr:housenumber": "nan", "addr:state": "nan", "addr:street": "nan", "website": "nan", "wikidata": "nan", "wikipedia": "nan", "cemetery": "nan", "historic": "nan", "ref:nrhp": "nan", "tomb": "nan", "addr:postcode": "nan", "wall": "nan", "ways": "nan", "landuse_1": "nan", "type": "nan" }, "geometry": { "type": "Polygon", "coordinates": [ [ [ -84.6514767, 38.1050883 ], [ -84.6516484, 38.1047401 ], [ -84.6511965, 38.104625 ], [ -84.6510422, 38.1049195 ], [ -84.6510409, 38.1049501 ], [ -84.6510503, 38.1049743 ], [ -84.6510784, 38.1050007 ], [ -84.6511026, 38.1050081 ], [ -84.6514767, 38.1050883 ] ] ] } },
{ "type": "Feature", "properties": { "element_type": "way", "osmid": "1044281544", "barrier": "nan", "nodes": [ 9609168490, 9609168489, 9609168488, 9609168487, 9609168486, 9609168485, 9609168484, 9609168483, 9609168482, 9609168481, 9609168480, 9609168479, 9609168490 ], "denomination": "nan", "designation": "nan", "landuse": "cemetery", "name": "Sons and Daughters of Relief Cemetery", "religion": "nan", "gnis:feature_id": "nan", "amenity": "nan", "ele": "nan", "gnis:county_id": "nan", "gnis:created": "nan", "gnis:state_id": "nan", "addr:city": "nan", "addr:housenumber": "nan", "addr:state": "nan", "addr:street": "nan", "website": "nan", "wikidata": "nan", "wikipedia": "nan", "cemetery": "nan", "historic": "nan", "ref:nrhp": "nan", "tomb": "nan", "addr:postcode": "nan", "wall": "nan", "ways": "nan", "landuse_1": "nan", "type": "nan" }, "geometry": { "type": "Polygon", "coordinates": [ [ [ -84.6875806, 38.1514989 ], [ -84.6878086, 38.1514345 ], [ -84.6880607, 38.1513185 ], [ -84.6882512, 38.1511603 ], [ -84.6881305, 38.1510749 ], [ -84.6878421, 38.1509652 ], [ -84.6876638, 38.1508798 ], [ -84.6875913, 38.1508619 ], [ -84.6875283, 38.1508872 ], [ -84.6874331, 38.1510285 ], [ -84.6872802, 38.1512669 ], [ -84.6872333, 38.1513786 ], [ -84.6875806, 38.1514989 ] ] ] } },
{ "type": "Feature", "properties": { "element_type": "way", "osmid": "1054216667", "barrier": "nan", "nodes": [ 9688067804, 9688067805, 9688067806, 9688067807, 9688067808, 9688067804 ], "denomination": "nan", "designation": "nan", "landuse": "cemetery", "name": "Lexington National Cemetery", "religion": "nan", "gnis:feature_id": "nan", "amenity": "nan", "ele": "nan", "gnis:county_id": "nan", "gnis:created": "nan", "gnis:state_id": "nan", "addr:city": "Lexington", "addr:housenumber": "833", "addr:state": "KY", "addr:street": "West Main Street", "website": "https://www.cem.va.gov/cems/nchp/Lexington.asp", "wikidata": "nan", "wikipedia": "nan", "cemetery": "nan", "historic": "nan", "ref:nrhp": "nan", "tomb": "nan", "addr:postcode": "40508", "wall": "nan", "ways": "nan", "landuse_1": "nan", "type": "nan" }, "geometry": { "type": "Polygon", "coordinates": [ [ [ -84.5115486, 38.0579778 ], [ -84.5110925, 38.0584354 ], [ -84.5109251, 38.0582702 ], [ -84.5105882, 38.0575577 ], [ -84.5107474, 38.0574639 ], [ -84.5115486, 38.0579778 ] ] ] } },
{ "type": "Feature", "properties": { "element_type": "way", "osmid": "1066827136", "barrier": "nan", "nodes": [ 9795861912, 9795861913, 9795861914, 9795861915, 9795861912 ], "denomination": "nan", "designation": "nan", "landuse": "cemetery", "name": "Huntertown Cemetery", "religion": "nan", "gnis:feature_id": "nan", "amenity": "nan", "ele": "nan", "gnis:county_id": "nan", "gnis:created": "nan", "gnis:state_id": "nan", "addr:city": "nan", "addr:housenumber": "nan", "addr:state": "nan", "addr:street": "nan", "website": "nan", "wikidata": "nan", "wikipedia": "nan", "cemetery": "nan", "historic": "nan", "ref:nrhp": "nan", "tomb": "nan", "addr:postcode": "nan", "wall": "nan", "ways": "nan", "landuse_1": "nan", "type": "nan" }, "geometry": { "type": "Polygon", "coordinates": [ [ [ -84.6976439, 38.0311995 ], [ -84.6973695, 38.0309652 ], [ -84.698011, 38.0304989 ], [ -84.6982855, 38.0307332 ], [ -84.6976439, 38.0311995 ] ] ] } },
{ "type": "Feature", "properties": { "element_type": "way", "osmid": "1088485644", "barrier": "nan", "nodes": [ 9416648638, 9972534126, 9972534127, 9972534128, 9416648638 ], "denomination": "nan", "designation": "nan", "landuse": "cemetery", "name": "Cadentown Cemetery", "religion": "nan", "gnis:feature_id": "nan", "amenity": "grave_yard", "ele": "nan", "gnis:county_id": "nan", "gnis:created": "nan", "gnis:state_id": "nan", "addr:city": "nan", "addr:housenumber": "nan", "addr:state": "nan", "addr:street": "nan", "website": "nan", "wikidata": "nan", "wikipedia": "nan", "cemetery": "nan", "historic": "nan", "ref:nrhp": "nan", "tomb": "nan", "addr:postcode": "nan", "wall": "nan", "ways": "nan", "landuse_1": "nan", "type": "nan" }, "geometry": { "type": "Polygon", "coordinates": [ [ [ -84.4298838, 38.0110953 ], [ -84.4296956, 38.0112591 ], [ -84.4298873, 38.0113958 ], [ -84.4300755, 38.011232 ], [ -84.4298838, 38.0110953 ] ] ] } },
{ "type": "Feature", "properties": { "element_type": "way", "osmid": "1088486565", "barrier": "nan", "nodes": [ 358610149, 9972537441, 9972537442, 9972537443, 358610149 ], "denomination": "nan", "designation": "nan", "landuse": "cemetery", "name": "Zion Hill Cemetery", "religion": "nan", "gnis:feature_id": "507295", "amenity": "grave_yard", "ele": "242", "gnis:county_id": "239", "gnis:created": "09/20/1979", "gnis:state_id": "21", "addr:city": "nan", "addr:housenumber": "nan", "addr:state": "nan", "addr:street": "nan", "website": "nan", "wikidata": "nan", "wikipedia": "nan", "cemetery": "nan", "historic": "nan", "ref:nrhp": "nan", "tomb": "nan", "addr:postcode": "nan", "wall": "nan", "ways": "nan", "landuse_1": "nan", "type": "nan" }, "geometry": { "type": "Polygon", "coordinates": [ [ [ -84.6431265, 38.1161022 ], [ -84.643326, 38.1157898 ], [ -84.6446564, 38.1163655 ], [ -84.6444032, 38.1167048 ], [ -84.6431265, 38.1161022 ] ] ] } },
{ "type": "Feature", "properties": { "element_type": "way", "osmid": "1107217194", "barrier": "nan", "nodes": [ 10131323952, 10131323953, 10131323954, 10131323955, 10131323952 ], "denomination": "nan", "designation": "nan", "landuse": "cemetery", "name": "Chrisman Family Cemetery", "religion": "nan", "gnis:feature_id": "nan", "amenity": "nan", "ele": "nan", "gnis:county_id": "nan", "gnis:created": "nan", "gnis:state_id": "nan", "addr:city": "nan", "addr:housenumber": "nan", "addr:state": "nan", "addr:street": "nan", "website": "nan", "wikidata": "nan", "wikipedia": "nan", "cemetery": "nan", "historic": "nan", "ref:nrhp": "nan", "tomb": "nan", "addr:postcode": "nan", "wall": "nan", "ways": "nan", "landuse_1": "nan", "type": "nan" }, "geometry": { "type": "Polygon", "coordinates": [ [ [ -84.551788, 37.9177164 ], [ -84.5516738, 37.9176734 ], [ -84.551775, 37.9175357 ], [ -84.5518787, 37.9175742 ], [ -84.551788, 37.9177164 ] ] ] } },
{ "type": "Feature", "properties": { "element_type": "way", "osmid": "1167634750", "barrier": "wall", "nodes": [ 10858961090, 10858961089, 10858961091, 10858961092, 10858961090 ], "denomination": "nan", "designation": "nan", "landuse": "cemetery", "name": "nan", "religion": "nan", "gnis:feature_id": "nan", "amenity": "nan", "ele": "nan", "gnis:county_id": "nan", "gnis:created": "nan", "gnis:state_id": "nan", "addr:city": "nan", "addr:housenumber": "nan", "addr:state": "nan", "addr:street": "nan", "website": "nan", "wikidata": "nan", "wikipedia": "nan", "cemetery": "nan", "historic": "nan", "ref:nrhp": "nan", "tomb": "nan", "addr:postcode": "nan", "wall": "dry_stone", "ways": "nan", "landuse_1": "nan", "type": "nan" }, "geometry": { "type": "Polygon", "coordinates": [ [ [ -84.3492577, 37.8822274 ], [ -84.3491307, 37.8821898 ], [ -84.3491762, 37.8820942 ], [ -84.3493032, 37.8821319 ], [ -84.3492577, 37.8822274 ] ] ] } },
{ "type": "Feature", "properties": { "element_type": "way", "osmid": "1180704392", "barrier": "nan", "nodes": [ 10965746994, 10965746995, 10965746996, 10965746997, 10965746994 ], "denomination": "nan", "designation": "nan", "landuse": "cemetery", "name": "nan", "religion": "nan", "gnis:feature_id": "nan", "amenity": "nan", "ele": "nan", "gnis:county_id": "nan", "gnis:created": "nan", "gnis:state_id": "nan", "addr:city": "nan", "addr:housenumber": "nan", "addr:state": "nan", "addr:street": "nan", "website": "nan", "wikidata": "nan", "wikipedia": "nan", "cemetery": "nan", "historic": "nan", "ref:nrhp": "nan", "tomb": "nan", "addr:postcode": "nan", "wall": "nan", "ways": "nan", "landuse_1": "nan", "type": "nan" }, "geometry": { "type": "Polygon", "coordinates": [ [ [ -84.534797, 38.1015844 ], [ -84.534648, 38.1015845 ], [ -84.5346479, 38.1014931 ], [ -84.5347969, 38.101493 ], [ -84.534797, 38.1015844 ] ] ] } },
{ "type": "Feature", "properties": { "element_type": "relation", "osmid": "3339762", "barrier": "nan", "nodes": [ [ [ 1580436220, 1580436210, 1580436190, 1580436244, 8089913155, 9416590098, 1580436162, 1580436262, 1580436180, 1580436184, 1580436202, 1580436258, 3196470008, 4037139152, 9688067804, 1580436233, 9688067808, 4037139153, 3381627748, 1580436220 ] ] ], "denomination": "nan", "designation": "nan", "landuse": "cemetery", "name": "Lexington Cemetery", "religion": "multifaith", "gnis:feature_id": "nan", "amenity": "nan", "ele": "nan", "gnis:county_id": "nan", "gnis:created": "nan", "gnis:state_id": "nan", "addr:city": "nan", "addr:housenumber": "nan", "addr:state": "nan", "addr:street": "nan", "website": "nan", "wikidata": "Q4257680", "wikipedia": "en:Lexington Cemetery", "cemetery": "nan", "historic": "nan", "ref:nrhp": "nan", "tomb": "nan", "addr:postcode": "nan", "wall": "nan", "ways": [ 144485928 ], "landuse_1": "park", "type": "multipolygon" }, "geometry": { "type": "Polygon", "coordinates": [ [ [ -84.5072012, 38.0552562 ], [ -84.5081875, 38.0558913 ], [ -84.5083005, 38.0559609 ], [ -84.5107474, 38.0574639 ], [ -84.5111858, 38.0577332 ], [ -84.5115486, 38.0579778 ], [ -84.5117441, 38.0581096 ], [ -84.514638, 38.0599913 ], [ -84.5155363, 38.0607395 ], [ -84.5139171, 38.0638718 ], [ -84.5135094, 38.0643279 ], [ -84.5127584, 38.064953 ], [ -84.5111158, 38.0661693 ], [ -84.5074561, 38.06286 ], [ -84.5071464, 38.0625802 ], [ -84.5027067, 38.0585836 ], [ -84.5024469, 38.0583303 ], [ -84.5056988, 38.0570124 ], [ -84.505613, 38.0566914 ], [ -84.5072012, 38.0552562 ] ] ] } }
]
}
