{
"type": "FeatureCollection",
"crs": { "type": "name", "properties": { "name": "urn:ogc:def:crs:OGC:1.3:CRS84" } },
"features": [
{ "type": "Feature", "properties": { "element_type": "node", "osmid": "3119594836", "landuse": "commercial", "name": "Hart's Dry-cleaning and Laundry", "shop": "dry_cleaning", "nodes": "nan", "wikidata": "nan", "social_facility": "nan", "social_facility:for": "nan", "addr:city": "nan", "addr:housenumber": "nan", "addr:postcode": "nan", "addr:state": "nan", "addr:street": "nan", "barrier": "nan", "brand": "nan", "brand:wikidata": "nan", "brand:wikipedia": "nan", "auctioneer": "nan", "operator": "nan", "website": "nan", "ways": "nan", "type": "nan" }, "geometry": { "type": "Point", "coordinates": [ -84.4994023, 37.9697652 ] } },
{ "type": "Feature", "properties": { "element_type": "way", "osmid": "257137168", "landuse": "commercial", "name": "City Center", "shop": "nan", "nodes": [ 2627400231, 2627400232, 2627400233, 2627400234, 3772174659, 3772174658, 2627400235, 2627400236, 2627400237, 2627400238, 4018289466, 3772174660, 2627400239, 3772174661, 2627400231 ], "wikidata": "Q5062216", "social_facility": "nan", "social_facility:for": "nan", "addr:city": "nan", "addr:housenumber": "nan", "addr:postcode": "nan", "addr:state": "nan", "addr:street": "nan", "barrier": "nan", "brand": "nan", "brand:wikidata": "nan", "brand:wikipedia": "nan", "auctioneer": "nan", "operator": "nan", "website": "nan", "ways": "nan", "type": "nan" }, "geometry": { "type": "Polygon", "coordinates": [ [ [ -84.4987414, 38.0465283 ], [ -84.4987092, 38.0465875 ], [ -84.4985858, 38.0466762 ], [ -84.4979743, 38.0470838 ], [ -84.4978321, 38.0469571 ], [ -84.4977221, 38.0469106 ], [ -84.4971615, 38.0464164 ], [ -84.4971351, 38.0463663 ], [ -84.4972152, 38.0462854 ], [ -84.4978992, 38.0458165 ], [ -84.4979879, 38.0458265 ], [ -84.4979769, 38.0458313 ], [ -84.4980547, 38.0458714 ], [ -84.4986502, 38.0463974 ], [ -84.4987414, 38.0465283 ] ] ] } },
{ "type": "Feature", "properties": { "element_type": "way", "osmid": "316623063", "landuse": "commercial", "name": "nan", "shop": "nan", "nodes": [ 3227588560, 3227588561, 3227588562, 3227588563, 3227588564, 3227588560 ], "wikidata": "nan", "social_facility": "group_home", "social_facility:for": "senior", "addr:city": "nan", "addr:housenumber": "nan", "addr:postcode": "nan", "addr:state": "nan", "addr:street": "nan", "barrier": "nan", "brand": "nan", "brand:wikidata": "nan", "brand:wikipedia": "nan", "auctioneer": "nan", "operator": "nan", "website": "nan", "ways": "nan", "type": "nan" }, "geometry": { "type": "Polygon", "coordinates": [ [ [ -84.5185919, 38.0301249 ], [ -84.5178087, 38.0311981 ], [ -84.5169415, 38.0307766 ], [ -84.5174525, 38.0299091 ], [ -84.517586, 38.029684 ], [ -84.5185919, 38.0301249 ] ] ] } },
{ "type": "Feature", "properties": { "element_type": "way", "osmid": "317462778", "landuse": "commercial", "name": "Central Equipment", "shop": "nan", "nodes": [ 3237310733, 3237310734, 3237310735, 4076180027, 9533276648, 3957543321, 3957543320, 3237310733 ], "wikidata": "nan", "social_facility": "nan", "social_facility:for": "nan", "addr:city": "nan", "addr:housenumber": "nan", "addr:postcode": "nan", "addr:state": "nan", "addr:street": "nan", "barrier": "nan", "brand": "nan", "brand:wikidata": "nan", "brand:wikipedia": "nan", "auctioneer": "nan", "operator": "nan", "website": "nan", "ways": "nan", "type": "nan" }, "geometry": { "type": "Polygon", "coordinates": [ [ [ -84.5259363, 38.0460881 ], [ -84.523518, 38.046005 ], [ -84.5236449, 38.0450796 ], [ -84.5237354, 38.0450849 ], [ -84.5240474, 38.0451032 ], [ -84.5260103, 38.0452181 ], [ -84.5259924, 38.0453969 ], [ -84.5259363, 38.0460881 ] ] ] } },
{ "type": "Feature", "properties": { "element_type": "way", "osmid": "332288490", "landuse": "commercial", "name": "nan", "shop": "nan", "nodes": [ 3393115664, 3394038919, 3394038920, 3394038921, 3227588556, 3393115663, 3393115664 ], "wikidata": "nan", "social_facility": "nan", "social_facility:for": "nan", "addr:city": "nan", "addr:housenumber": "nan", "addr:postcode": "nan", "addr:state": "nan", "addr:street": "nan", "barrier": "nan", "brand": "nan", "brand:wikidata": "nan", "brand:wikipedia": "nan", "auctioneer": "nan", "operator": "nan", "website": "nan", "ways": "nan", "type": "nan" }, "geometry": { "type": "Polygon", "coordinates": [ [ [ -84.5296029, 38.0302362 ], [ -84.5290642, 38.0306266 ], [ -84.5283838, 38.0309781 ], [ -84.5285738, 38.0311312 ], [ -84.5301897, 38.0319756 ], [ -84.5310266, 38.0311136 ], [ -84.5296029, 38.0302362 ] ] ] } },
{ "type": "Feature", "properties": { "element_type": "way", "osmid": "332288493", "landuse": "commercial", "name": "nan", "shop": "nan", "nodes": [ 3394038935, 3394038936, 3394038937, 3394038943, 3394038938, 3394038939, 3394038940, 3394038941, 3394038942, 3394038935 ], "wikidata": "nan", "social_facility": "nan", "social_facility:for": "nan", "addr:city": "nan", "addr:housenumber": "nan", "addr:postcode": "nan", "addr:state": "nan", "addr:street": "nan", "barrier": "nan", "brand": "nan", "brand:wikidata": "nan", "brand:wikipedia": "nan", "auctioneer": "nan", "operator": "nan", "website": "nan", "ways": "nan", "type": "nan" }, "geometry": { "type": "Polygon", "coordinates": [ [ [ -84.5230644, 38.026534 ], [ -84.5226447, 38.0270282 ], [ -84.5233118, 38.0275711 ], [ -84.5235769, 38.0281036 ], [ -84.5239701, 38.0286743 ], [ -84.5243766, 38.0281627 ], [ -84.5236962, 38.0275119 ], [ -84.5239524, 38.0271569 ], [ -84.5234532, 38.0267498 ], [ -84.5230644, 38.026534 ] ] ] } },
{ "type": "Feature", "properties": { "element_type": "way", "osmid": "332332574", "landuse": "commercial", "name": "nan", "shop": "nan", "nodes": [ 3394485688, 3394485690, 3394485681, 3394485687, 3394485688 ], "wikidata": "nan", "social_facility": "nan", "social_facility:for": "nan", "addr:city": "nan", "addr:housenumber": "nan", "addr:postcode": "nan", "addr:state": "nan", "addr:street": "nan", "barrier": "nan", "brand": "nan", "brand:wikidata": "nan", "brand:wikipedia": "nan", "auctioneer": "nan", "operator": "nan", "website": "nan", "ways": "nan", "type": "nan" }, "geometry": { "type": "Polygon", "coordinates": [ [ [ -84.5171959, 38.0295717 ], [ -84.5162979, 38.0293647 ], [ -84.5170839, 38.0278819 ], [ -84.5177917, 38.0284406 ], [ -84.5171959, 38.0295717 ] ] ] } },
{ "type": "Feature", "properties": { "element_type": "way", "osmid": "332332575", "landuse": "commercial", "name": "nan", "shop": "nan", "nodes": [ 3227588562, 9536061281, 3394485691, 4006781454, 3394485690, 3227588564, 3227588563, 3227588562 ], "wikidata": "nan", "social_facility": "nan", "social_facility:for": "nan", "addr:city": "nan", "addr:housenumber": "nan", "addr:postcode": "nan", "addr:state": "nan", "addr:street": "nan", "barrier": "nan", "brand": "nan", "brand:wikidata": "nan", "brand:wikipedia": "nan", "auctioneer": "nan", "operator": "nan", "website": "nan", "ways": "nan", "type": "nan" }, "geometry": { "type": "Polygon", "coordinates": [ [ [ -84.5169415, 38.0307766 ], [ -84.5167381, 38.0309952 ], [ -84.5156484, 38.0303844 ], [ -84.5161974, 38.0293398 ], [ -84.5162979, 38.0293647 ], [ -84.517586, 38.029684 ], [ -84.5174525, 38.0299091 ], [ -84.5169415, 38.0307766 ] ] ] } },
{ "type": "Feature", "properties": { "element_type": "way", "osmid": "332342999", "landuse": "commercial", "name": "nan", "shop": "nan", "nodes": [ 3394582031, 3394582032, 3394582033, 3394582034, 3394582035, 3394485682, 3394485683, 3394582031 ], "wikidata": "nan", "social_facility": "nan", "social_facility:for": "nan", "addr:city": "nan", "addr:housenumber": "nan", "addr:postcode": "nan", "addr:state": "nan", "addr:street": "nan", "barrier": "nan", "brand": "nan", "brand:wikidata": "nan", "brand:wikipedia": "nan", "auctioneer": "nan", "operator": "nan", "website": "nan", "ways": "nan", "type": "nan" }, "geometry": { "type": "Polygon", "coordinates": [ [ [ -84.5207413, 38.031078 ], [ -84.5202065, 38.0307576 ], [ -84.5194853, 38.030368 ], [ -84.5183528, 38.0298797 ], [ -84.517901, 38.0297081 ], [ -84.5182578, 38.0288338 ], [ -84.5196108, 38.0300686 ], [ -84.5207413, 38.031078 ] ] ] } },
{ "type": "Feature", "properties": { "element_type": "way", "osmid": "332343000", "landuse": "commercial", "name": "nan", "shop": "nan", "nodes": [ 163519590, 3394485796, 3394485797, 3394485798, 3394485799, 3394485800, 3394485801, 4054939318, 9089875213, 9089875206, 3394485802, 3394485803, 3394485804, 3394485805, 3394485806, 3394485807, 3394485810, 3394485811, 3394485812, 3394485813, 3394485814, 2631983423, 2631983422, 3394582084, 3394582036, 3394582037, 10740274199, 10740274198, 3118546870, 3118546864, 10790137885, 3118546862, 3118546874, 3394582038, 3394582039, 3118550944, 3394737360, 3394582040, 3394582041, 3394582044, 3394582045, 3394582046, 3394582047, 3394582043, 3394582048, 3394582051, 3394582052, 3394582049, 3394582050, 3394582042, 3394582053, 3474246386, 3474246387, 3415942448, 3394582054, 3394582055, 3048333258, 3513558714, 3394582056, 3513559407, 3513559283, 3513559258, 3394582057, 3394582058, 3394582059, 3394582060, 3394582061, 4076013402, 3394582062, 3394582063, 3394582064, 3394582065, 3394582066, 3394582067, 3394582068, 3394582069, 3394582070, 3394582071, 3140123479, 3394582072, 3394582074, 163519590 ], "wikidata": "nan", "social_facility": "nan", "social_facility:for": "nan", "addr:city": "nan", "addr:housenumber": "nan", "addr:postcode": "nan", "addr:state": "nan", "addr:street": "nan", "barrier": "nan", "brand": "nan", "brand:wikidata": "nan", "brand:wikipedia": "nan", "auctioneer": "nan", "operator": "nan", "website": "nan", "ways": "nan", "type": "nan" }, "geometry": { "type": "Polygon", "coordinates": [ [ [ -84.519601, 38.032649 ], [ -84.5202665, 38.0332893 ], [ -84.5194141, 38.0338104 ], [ -84.518687, 38.0331344 ], [ -84.5182519, 38.0334583 ], [ -84.5194916, 38.0346085 ], [ -84.5190643, 38.0348937 ], [ -84.5190984, 38.0349275 ], [ -84.519193, 38.0350213 ], [ -84.519343, 38.0351701 ], [ -84.5194059, 38.0352324 ], [ -84.5186458, 38.0356908 ], [ -84.5175584, 38.0346333 ], [ -84.5165829, 38.0353644 ], [ -84.5172888, 38.0359902 ], [ -84.5164816, 38.0365099 ], [ -84.5148484, 38.034909 ], [ -84.5142941, 38.0353221 ], [ -84.5144252, 38.0354489 ], [ -84.5138828, 38.0358902 ], [ -84.5134837, 38.0355652 ], [ -84.5133785, 38.0354 ], [ -84.5133865, 38.0353133 ], [ -84.5132845, 38.0352833 ], [ -84.5132208, 38.0352646 ], [ -84.5129109, 38.035889 ], [ -84.5129088, 38.0358964 ], [ -84.5127899, 38.0363186 ], [ -84.5126021, 38.0364502 ], [ -84.5121581, 38.0371872 ], [ -84.5122346, 38.0372308 ], [ -84.5122784, 38.0371734 ], [ -84.5123079, 38.0372115 ], [ -84.5126322, 38.0370144 ], [ -84.5143292, 38.0386948 ], [ -84.5139144, 38.0389603 ], [ -84.5142904, 38.0393155 ], [ -84.5143633, 38.0393844 ], [ -84.5139214, 38.0396584 ], [ -84.51321, 38.040124 ], [ -84.5130524, 38.040252 ], [ -84.5137229, 38.0408215 ], [ -84.5138583, 38.0407333 ], [ -84.5151699, 38.0419824 ], [ -84.5164335, 38.0409872 ], [ -84.516958, 38.0406163 ], [ -84.5184638, 38.0400762 ], [ -84.5175516, 38.0393896 ], [ -84.5192605, 38.0381892 ], [ -84.5183761, 38.0374188 ], [ -84.5192849, 38.0368171 ], [ -84.5194301, 38.03673 ], [ -84.5196366, 38.0368884 ], [ -84.5200421, 38.0366427 ], [ -84.5201153, 38.0366258 ], [ -84.5206586, 38.0363435 ], [ -84.5207806, 38.0364485 ], [ -84.5209867, 38.036626 ], [ -84.521896, 38.0374089 ], [ -84.5220396, 38.037354 ], [ -84.5221675, 38.0373052 ], [ -84.5223019, 38.0372538 ], [ -84.5229578, 38.0370032 ], [ -84.5235633, 38.0362589 ], [ -84.5230122, 38.0359598 ], [ -84.5232684, 38.0356118 ], [ -84.5243671, 38.0361612 ], [ -84.524527, 38.0360641 ], [ -84.5246888, 38.0359658 ], [ -84.5248229, 38.03593 ], [ -84.5247977, 38.0358442 ], [ -84.5249779, 38.0358018 ], [ -84.5251113, 38.035628 ], [ -84.5254084, 38.0357809 ], [ -84.5255692, 38.0356981 ], [ -84.526256, 38.034741 ], [ -84.5245365, 38.033855 ], [ -84.5234713, 38.0335048 ], [ -84.5230502, 38.0331938 ], [ -84.5226562, 38.0329153 ], [ -84.521229, 38.03165 ], [ -84.519601, 38.032649 ] ] ] } },
{ "type": "Feature", "properties": { "element_type": "way", "osmid": "332343011", "landuse": "commercial", "name": "nan", "shop": "nan", "nodes": [ 3394485659, 163427778, 3394485657, 3394485658, 3394485659 ], "wikidata": "nan", "social_facility": "nan", "social_facility:for": "nan", "addr:city": "nan", "addr:housenumber": "nan", "addr:postcode": "nan", "addr:state": "nan", "addr:street": "nan", "barrier": "nan", "brand": "nan", "brand:wikidata": "nan", "brand:wikipedia": "nan", "auctioneer": "nan", "operator": "nan", "website": "nan", "ways": "nan", "type": "nan" }, "geometry": { "type": "Polygon", "coordinates": [ [ [ -84.5318579, 38.0245145 ], [ -84.532209, 38.023858 ], [ -84.5312786, 38.023455 ], [ -84.5308255, 38.0240837 ], [ -84.5318579, 38.0245145 ] ] ] } },
{ "type": "Feature", "properties": { "element_type": "way", "osmid": "332358262", "landuse": "commercial", "name": "nan", "shop": "nan", "nodes": [ 3394737361, 3394737362, 3394737363, 3394737364, 3394737365, 163433120, 4037078006, 4037078007, 3394737366, 4037078008, 4037078702, 4037078009, 4079447631, 3394737361 ], "wikidata": "nan", "social_facility": "nan", "social_facility:for": "nan", "addr:city": "nan", "addr:housenumber": "nan", "addr:postcode": "nan", "addr:state": "nan", "addr:street": "nan", "barrier": "nan", "brand": "nan", "brand:wikidata": "nan", "brand:wikipedia": "nan", "auctioneer": "nan", "operator": "nan", "website": "nan", "ways": "nan", "type": "nan" }, "geometry": { "type": "Polygon", "coordinates": [ [ [ -84.5056102, 38.0502417 ], [ -84.5061205, 38.0497819 ], [ -84.5059838, 38.049684 ], [ -84.5057787, 38.0498602 ], [ -84.5054254, 38.0495894 ], [ -84.505092, 38.04983 ], [ -84.505072, 38.049876 ], [ -84.505066, 38.049967 ], [ -84.505073, 38.050009 ], [ -84.505094, 38.050052 ], [ -84.5051523, 38.0500767 ], [ -84.5053972, 38.050163 ], [ -84.5055125, 38.0502056 ], [ -84.5056102, 38.0502417 ] ] ] } },
{ "type": "Feature", "properties": { "element_type": "way", "osmid": "332358271", "landuse": "commercial", "name": "nan", "shop": "nan", "nodes": [ 3394737543, 3394737548, 3958993878, 3958993879, 3394737549, 3958993880, 3394737547, 3394737546, 3394737538, 3394737539, 3394737540, 3394737541, 3394737542, 3394737543 ], "wikidata": "nan", "social_facility": "nan", "social_facility:for": "nan", "addr:city": "nan", "addr:housenumber": "nan", "addr:postcode": "nan", "addr:state": "nan", "addr:street": "nan", "barrier": "nan", "brand": "nan", "brand:wikidata": "nan", "brand:wikipedia": "nan", "auctioneer": "nan", "operator": "nan", "website": "nan", "ways": "nan", "type": "nan" }, "geometry": { "type": "Polygon", "coordinates": [ [ [ -84.5231376, 38.0508744 ], [ -84.5231066, 38.0499643 ], [ -84.5216564, 38.0500202 ], [ -84.5212095, 38.0500374 ], [ -84.5210747, 38.0500426 ], [ -84.5206369, 38.0500605 ], [ -84.5190429, 38.0501258 ], [ -84.519105, 38.0504536 ], [ -84.521491, 38.0503166 ], [ -84.5215842, 38.0504585 ], [ -84.5224541, 38.0504145 ], [ -84.5229512, 38.0504096 ], [ -84.5229015, 38.0508793 ], [ -84.5231376, 38.0508744 ] ] ] } },
{ "type": "Feature", "properties": { "element_type": "way", "osmid": "332358273", "landuse": "commercial", "name": "nan", "shop": "nan", "nodes": [ 3394737563, 3394737562, 3394737564, 4076013361, 3394737565, 3394737537, 3394737563 ], "wikidata": "nan", "social_facility": "nan", "social_facility:for": "nan", "addr:city": "nan", "addr:housenumber": "nan", "addr:postcode": "nan", "addr:state": "nan", "addr:street": "nan", "barrier": "nan", "brand": "nan", "brand:wikidata": "nan", "brand:wikipedia": "nan", "auctioneer": "nan", "operator": "nan", "website": "nan", "ways": "nan", "type": "nan" }, "geometry": { "type": "Polygon", "coordinates": [ [ [ -84.5172154, 38.0512605 ], [ -84.515787, 38.0513343 ], [ -84.5155134, 38.0513455 ], [ -84.5153118, 38.0503285 ], [ -84.5153085, 38.0503117 ], [ -84.5170732, 38.0501992 ], [ -84.5172154, 38.0512605 ] ] ] } },
{ "type": "Feature", "properties": { "element_type": "way", "osmid": "332483255", "landuse": "commercial", "name": "nan", "shop": "nan", "nodes": [ 3394582052, 3393115640, 3393115639, 3396241779, 4053970777, 3396241780, 3396241781, 3393115635, 3396241782, 3396241783, 163537805, 163537802, 163537799, 3396241784, 163537795, 3396241785, 163537793, 3381827673, 4053617399, 163432116, 4053971087, 163432119, 2631996279, 163432130, 163432135, 2631996306, 163432148, 2631996304, 163432158, 3394582052 ], "wikidata": "nan", "social_facility": "nan", "social_facility:for": "nan", "addr:city": "nan", "addr:housenumber": "nan", "addr:postcode": "nan", "addr:state": "nan", "addr:street": "nan", "barrier": "nan", "brand": "nan", "brand:wikidata": "nan", "brand:wikipedia": "nan", "auctioneer": "nan", "operator": "nan", "website": "nan", "ways": "nan", "type": "nan" }, "geometry": { "type": "Polygon", "coordinates": [ [ [ -84.5184638, 38.0400762 ], [ -84.5201554, 38.0389804 ], [ -84.5207154, 38.0393805 ], [ -84.5216217, 38.0387374 ], [ -84.5221467, 38.0391917 ], [ -84.5228641, 38.0398125 ], [ -84.5237301, 38.0392351 ], [ -84.5239023, 38.0392623 ], [ -84.5243088, 38.0394119 ], [ -84.5243768, 38.0394333 ], [ -84.524351, 38.039474 ], [ -84.524316, 38.039563 ], [ -84.524297, 38.039676 ], [ -84.52426, 38.0397508 ], [ -84.524189, 38.039838 ], [ -84.5240947, 38.0399151 ], [ -84.524025, 38.039972 ], [ -84.5239926, 38.0399952 ], [ -84.5234436, 38.0403893 ], [ -84.523295, 38.040496 ], [ -84.5232122, 38.0404286 ], [ -84.523051, 38.040286 ], [ -84.5225174, 38.0400231 ], [ -84.521965, 38.039775 ], [ -84.521344, 38.039692 ], [ -84.5207392, 38.0397217 ], [ -84.519258, 38.040038 ], [ -84.5186609, 38.0401775 ], [ -84.518382, 38.040239 ], [ -84.5184638, 38.0400762 ] ] ] } },
{ "type": "Feature", "properties": { "element_type": "way", "osmid": "332483264", "landuse": "commercial", "name": "nan", "shop": "nan", "nodes": [ 3396241803, 3396241804, 3396241805, 2633267273, 2633267272, 2633267274, 2633267277, 3396241852, 2633267276, 3957543583, 3957543582, 3957543581, 3957543584, 3957543591, 3396241854, 163432368, 163432375, 7025248076, 7025248075, 163457582, 3396241803 ], "wikidata": "nan", "social_facility": "nan", "social_facility:for": "nan", "addr:city": "nan", "addr:housenumber": "nan", "addr:postcode": "nan", "addr:state": "nan", "addr:street": "nan", "barrier": "nan", "brand": "nan", "brand:wikidata": "nan", "brand:wikipedia": "nan", "auctioneer": "nan", "operator": "nan", "website": "nan", "ways": "nan", "type": "nan" }, "geometry": { "type": "Polygon", "coordinates": [ [ [ -84.5254347, 38.0489866 ], [ -84.5243801, 38.0490101 ], [ -84.524338, 38.0484651 ], [ -84.5240161, 38.0484134 ], [ -84.523587, 38.0484557 ], [ -84.5241771, 38.0483162 ], [ -84.5244115, 38.0480592 ], [ -84.5247543, 38.0476449 ], [ -84.5247792, 38.0473116 ], [ -84.5248616, 38.0473228 ], [ -84.5248736, 38.0471095 ], [ -84.5248148, 38.047091 ], [ -84.5249129, 38.0464334 ], [ -84.5234781, 38.0463113 ], [ -84.523362, 38.0471946 ], [ -84.523185, 38.048479 ], [ -84.52323, 38.049794 ], [ -84.5239789, 38.0497183 ], [ -84.5243213, 38.0496837 ], [ -84.525446, 38.04957 ], [ -84.5254347, 38.0489866 ] ] ] } },
{ "type": "Feature", "properties": { "element_type": "way", "osmid": "333862581", "landuse": "commercial", "name": "nan", "shop": "nan", "nodes": [ 3409053642, 3409053606, 163508930, 163508928, 163508926, 163508924, 163508920, 3409053607, 3393361893, 3393361894, 163549421, 163549424, 7025284984, 163549427, 163549431, 4076179937, 163549433, 7284513326, 163549436, 1586515854, 7025284937, 163440129, 7062957082, 163440128, 7025286537, 163440126, 7025286527, 163440124, 163440121, 10210342083, 163588347, 8317490595, 8647649156, 8647649161, 8647649152, 163568559, 4076148736, 4076148727, 4076148723, 4076148706, 4076148657, 4076148634, 10207588563, 163441325, 10207588564, 3714169829, 3714169626, 3714169824, 163416054, 3714168887, 3409053608, 3409053609, 3409053610, 3409053611, 3409053612, 3409053613, 3409053614, 3409053615, 3409053640, 3409053616, 3409053617, 3409053618, 3409053619, 3409053620, 3409053641, 3409053642 ], "wikidata": "nan", "social_facility": "nan", "social_facility:for": "nan", "addr:city": "nan", "addr:housenumber": "nan", "addr:postcode": "nan", "addr:state": "nan", "addr:street": "nan", "barrier": "nan", "brand": "nan", "brand:wikidata": "nan", "brand:wikipedia": "nan", "auctioneer": "nan", "operator": "nan", "website": "nan", "ways": "nan", "type": "nan" }, "geometry": { "type": "Polygon", "coordinates": [ [ [ -84.5256384, 38.0083059 ], [ -84.5250345, 38.0080632 ], [ -84.524623, 38.007983 ], [ -84.524614, 38.008091 ], [ -84.524576, 38.008287 ], [ -84.52454, 38.00839 ], [ -84.524493, 38.008491 ], [ -84.5243772, 38.0086831 ], [ -84.5218818, 38.0076789 ], [ -84.522339, 38.0069393 ], [ -84.522499, 38.006041 ], [ -84.522517, 38.005818 ], [ -84.5225173, 38.0057548 ], [ -84.522518, 38.005603 ], [ -84.522535, 38.005477 ], [ -84.5225583, 38.0054003 ], [ -84.522573, 38.005352 ], [ -84.5226512, 38.0051957 ], [ -84.5227384, 38.0050213 ], [ -84.5229145, 38.0047047 ], [ -84.5223392, 38.0044995 ], [ -84.522086, 38.004411 ], [ -84.5216943, 38.0042754 ], [ -84.521044, 38.004051 ], [ -84.5209381, 38.0040135 ], [ -84.520623, 38.003902 ], [ -84.5204514, 38.0038372 ], [ -84.520374, 38.003808 ], [ -84.5194084, 38.0034228 ], [ -84.5194346, 38.0033424 ], [ -84.5194554, 38.0032788 ], [ -84.519522, 38.0030904 ], [ -84.5195464, 38.0030228 ], [ -84.5195926, 38.0028949 ], [ -84.5196806, 38.0026514 ], [ -84.5197284, 38.0025068 ], [ -84.5200439, 38.0015998 ], [ -84.5201091, 38.0014157 ], [ -84.5201721, 38.0012343 ], [ -84.5202186, 38.001106 ], [ -84.520373, 38.0006506 ], [ -84.5204196, 38.0005076 ], [ -84.5206223, 37.9998858 ], [ -84.5206614, 37.9997658 ], [ -84.5206974, 37.9996653 ], [ -84.5208927, 37.9991207 ], [ -84.5209173, 37.9990524 ], [ -84.5209326, 37.9990065 ], [ -84.5211912, 37.9982364 ], [ -84.5214329, 37.9982673 ], [ -84.5215591, 37.998284 ], [ -84.5219288, 37.9979538 ], [ -84.5222122, 37.9978276 ], [ -84.5226189, 37.9977596 ], [ -84.5231735, 37.9976819 ], [ -84.5240486, 37.9976625 ], [ -84.5248496, 37.997711 ], [ -84.5253179, 37.9978373 ], [ -84.5251454, 37.998148 ], [ -84.5253919, 37.9981966 ], [ -84.5263285, 37.9984783 ], [ -84.5261437, 38.0002069 ], [ -84.5259835, 38.0033534 ], [ -84.5257784, 38.0057085 ], [ -84.5256863, 38.0073923 ], [ -84.5256384, 38.0083059 ] ] ] } },
{ "type": "Feature", "properties": { "element_type": "way", "osmid": "333862589", "landuse": "commercial", "name": "nan", "shop": "nan", "nodes": [ 3409053626, 3409053627, 3409053628, 3409053629, 3409053630, 3409053633, 3714168906, 3409053634, 3714168903, 3714168902, 3714240573, 3714240572, 163423897, 163423895, 163423890, 163423886, 3409053626 ], "wikidata": "nan", "social_facility": "nan", "social_facility:for": "nan", "addr:city": "nan", "addr:housenumber": "nan", "addr:postcode": "nan", "addr:state": "nan", "addr:street": "nan", "barrier": "nan", "brand": "nan", "brand:wikidata": "nan", "brand:wikipedia": "nan", "auctioneer": "nan", "operator": "nan", "website": "nan", "ways": "nan", "type": "nan" }, "geometry": { "type": "Polygon", "coordinates": [ [ [ -84.530539, 38.0027967 ], [ -84.5298532, 38.0026445 ], [ -84.529348, 38.002256 ], [ -84.5288796, 38.0020036 ], [ -84.526612, 38.001586 ], [ -84.5266736, 37.9992163 ], [ -84.5267512, 37.9986414 ], [ -84.5267968, 37.9983034 ], [ -84.5272087, 37.9984487 ], [ -84.5279821, 37.9987214 ], [ -84.5296958, 37.9993257 ], [ -84.5318713, 38.000093 ], [ -84.531982, 38.000132 ], [ -84.531942, 38.000139 ], [ -84.53184, 38.000192 ], [ -84.531707, 38.000395 ], [ -84.530539, 38.0027967 ] ] ] } },
{ "type": "Feature", "properties": { "element_type": "way", "osmid": "333901570", "landuse": "commercial", "name": "nan", "shop": "nan", "nodes": [ 3409514385, 3409515821, 3714240558, 3409515806, 3714250906, 1672845482, 1672845406, 1672845556, 1672845578, 3409515808, 3409515809, 3409515810, 3409515811, 3409515812, 3409515813, 3409515814, 3409515887, 3409515833, 3409515886, 3409515885, 3409515884, 3409515815, 3409515816, 3409515817, 3409515818, 3409515819, 3409515794, 3409515793, 3409514392, 3409514391, 3409514390, 3409514389, 3409514388, 3409515822, 3409514387, 3409514386, 3409514385 ], "wikidata": "nan", "social_facility": "nan", "social_facility:for": "nan", "addr:city": "nan", "addr:housenumber": "nan", "addr:postcode": "nan", "addr:state": "nan", "addr:street": "nan", "barrier": "nan", "brand": "nan", "brand:wikidata": "nan", "brand:wikipedia": "nan", "auctioneer": "nan", "operator": "nan", "website": "nan", "ways": "nan", "type": "nan" }, "geometry": { "type": "Polygon", "coordinates": [ [ [ -84.5278346, 37.9979386 ], [ -84.5288555, 37.9982866 ], [ -84.5336403, 37.9999175 ], [ -84.5338082, 37.9999747 ], [ -84.5353124, 38.0005305 ], [ -84.5371605, 38.0011461 ], [ -84.537874, 37.9998737 ], [ -84.5393068, 38.0003773 ], [ -84.5406211, 37.9995699 ], [ -84.5400841, 37.9988121 ], [ -84.5399329, 37.9984434 ], [ -84.5397674, 37.9978876 ], [ -84.5396954, 37.9972807 ], [ -84.5396451, 37.9970822 ], [ -84.5395011, 37.9967192 ], [ -84.5381265, 37.999175 ], [ -84.5380617, 37.9992771 ], [ -84.5353924, 37.9983999 ], [ -84.5349381, 37.9982506 ], [ -84.5366079, 37.9952049 ], [ -84.5362137, 37.9950986 ], [ -84.5360609, 37.9950574 ], [ -84.5354923, 37.9950688 ], [ -84.5346071, 37.9950064 ], [ -84.533801, 37.9947909 ], [ -84.5303536, 37.9936225 ], [ -84.5287774, 37.9930779 ], [ -84.5286263, 37.9933275 ], [ -84.5284751, 37.9932765 ], [ -84.5280505, 37.9941386 ], [ -84.5281872, 37.994201 ], [ -84.5279065, 37.9947455 ], [ -84.5275755, 37.9956813 ], [ -84.5272541, 37.9967551 ], [ -84.5272156, 37.9968837 ], [ -84.5270357, 37.997621 ], [ -84.5278346, 37.9979386 ] ] ] } },
{ "type": "Feature", "properties": { "element_type": "way", "osmid": "367318967", "landuse": "commercial", "name": "nan", "shop": "nan", "nodes": [ 3409515798, 3409515797, 3409515796, 3409515795, 3712568646, 3712568647, 2332727082, 163471411, 163515392, 163515390, 163515380, 5476817519, 5476817490, 163515376, 163515373, 163457897, 5476817936, 163457893, 5476817924, 3712568648, 2767102186, 2767102187, 2767102188, 3712568649, 3712568650, 3712568651, 3301631867, 163588331, 163441211, 321279801, 163471626, 321280402, 321277580, 321277622, 163561436, 3712568652, 3712568653, 3712568654, 3712568655, 3712568656, 3712568657, 3437506652, 163443193, 163443200, 163510072, 163510068, 163510066, 163510064, 163510062, 11009965221, 163510061, 7127075305, 7127075302, 3712568658, 163510056, 7127073768, 3437498480, 7127075307, 3712560194, 163411945, 163411940, 163412468, 163411918, 163411915, 163411912, 163411909, 163411908, 3409515798 ], "wikidata": "nan", "social_facility": "nan", "social_facility:for": "nan", "addr:city": "nan", "addr:housenumber": "nan", "addr:postcode": "nan", "addr:state": "nan", "addr:street": "nan", "barrier": "nan", "brand": "nan", "brand:wikidata": "nan", "brand:wikipedia": "nan", "auctioneer": "nan", "operator": "nan", "website": "nan", "ways": "nan", "type": "nan" }, "geometry": { "type": "Polygon", "coordinates": [ [ [ -84.5265031, 37.9973998 ], [ -84.5267406, 37.9964924 ], [ -84.5273883, 37.9947795 ], [ -84.5283384, 37.9929248 ], [ -84.5360851, 37.9788171 ], [ -84.5361684, 37.9786599 ], [ -84.5359475, 37.9785754 ], [ -84.5338736, 37.9777509 ], [ -84.532543, 37.977265 ], [ -84.53113, 37.976722 ], [ -84.529075, 37.975936 ], [ -84.5270015, 37.9751381 ], [ -84.5259379, 37.9747289 ], [ -84.524023, 37.973992 ], [ -84.523248, 37.973689 ], [ -84.523062, 37.973621 ], [ -84.5226677, 37.9742695 ], [ -84.52264, 37.974315 ], [ -84.5225926, 37.9743915 ], [ -84.5224894, 37.974558 ], [ -84.5226784, 37.9746715 ], [ -84.5252418, 37.975575 ], [ -84.5243915, 37.97881 ], [ -84.5276676, 37.9796104 ], [ -84.5273303, 37.9805676 ], [ -84.5282605, 37.9807923 ], [ -84.5279255, 37.9815904 ], [ -84.5275096, 37.9826703 ], [ -84.5268916, 37.9842175 ], [ -84.5262097, 37.9862023 ], [ -84.5260684, 37.9863375 ], [ -84.5257757, 37.9869453 ], [ -84.525253, 37.9880207 ], [ -84.5248544, 37.9888215 ], [ -84.5241345, 37.9902827 ], [ -84.5238947, 37.9907766 ], [ -84.5203888, 37.9895904 ], [ -84.5187151, 37.9889815 ], [ -84.518361, 37.9900216 ], [ -84.5179963, 37.9906896 ], [ -84.5188246, 37.9910428 ], [ -84.5185739, 37.9914941 ], [ -84.518362, 37.992046 ], [ -84.51928, 37.992378 ], [ -84.518513, 37.9938 ], [ -84.518497, 37.993866 ], [ -84.518503, 37.993914 ], [ -84.51853, 37.993956 ], [ -84.51857, 37.993989 ], [ -84.5185881, 37.9939996 ], [ -84.518625, 37.994021 ], [ -84.5186411, 37.9940272 ], [ -84.518836, 37.9940973 ], [ -84.5189888, 37.9941491 ], [ -84.52041, 37.994631 ], [ -84.5205526, 37.9946964 ], [ -84.5208867, 37.9947875 ], [ -84.5210464, 37.9948394 ], [ -84.5214903, 37.9949837 ], [ -84.521752, 37.9950037 ], [ -84.5221085, 37.9950309 ], [ -84.522617, 37.99512 ], [ -84.523589, 37.996118 ], [ -84.524024, 37.996604 ], [ -84.524698, 37.997081 ], [ -84.525426, 37.997432 ], [ -84.526204, 37.997714 ], [ -84.5265031, 37.9973998 ] ] ] } },
{ "type": "Feature", "properties": { "element_type": "way", "osmid": "375571877", "landuse": "commercial", "name": "Wicked World Scaregrounds", "shop": "nan", "nodes": [ 3789293186, 3789293187, 3789293188, 3789293189, 3789293186 ], "wikidata": "nan", "social_facility": "nan", "social_facility:for": "nan", "addr:city": "nan", "addr:housenumber": "nan", "addr:postcode": "nan", "addr:state": "nan", "addr:street": "nan", "barrier": "nan", "brand": "nan", "brand:wikidata": "nan", "brand:wikipedia": "nan", "auctioneer": "nan", "operator": "nan", "website": "nan", "ways": "nan", "type": "nan" }, "geometry": { "type": "Polygon", "coordinates": [ [ [ -84.4735924, 37.9310157 ], [ -84.4753853, 37.9303455 ], [ -84.4761537, 37.9309804 ], [ -84.4745382, 37.931724 ], [ -84.4735924, 37.9310157 ] ] ] } },
{ "type": "Feature", "properties": { "element_type": "way", "osmid": "388496047", "landuse": "commercial", "name": "Landmark Office Centre", "shop": "nan", "nodes": [ 3916889918, 3916889919, 3916889920, 3916889921, 3916889922, 3916889923, 3916889924, 3916889925, 3916889926, 3916889927, 3916889928, 3916889929, 3916889930, 3916889918 ], "wikidata": "nan", "social_facility": "nan", "social_facility:for": "nan", "addr:city": "nan", "addr:housenumber": "nan", "addr:postcode": "nan", "addr:state": "nan", "addr:street": "nan", "barrier": "nan", "brand": "nan", "brand:wikidata": "nan", "brand:wikipedia": "nan", "auctioneer": "nan", "operator": "nan", "website": "nan", "ways": "nan", "type": "nan" }, "geometry": { "type": "Polygon", "coordinates": [ [ [ -84.5688969, 38.1809546 ], [ -84.5670383, 38.1827019 ], [ -84.5666689, 38.1826173 ], [ -84.5664681, 38.1825733 ], [ -84.5663362, 38.1825446 ], [ -84.5661429, 38.182503 ], [ -84.5660209, 38.1824774 ], [ -84.565948, 38.1824744 ], [ -84.5658463, 38.1824816 ], [ -84.565797, 38.1824865 ], [ -84.565757, 38.1824429 ], [ -84.5658463, 38.182392 ], [ -84.5678551, 38.1804448 ], [ -84.5688969, 38.1809546 ] ] ] } },
{ "type": "Feature", "properties": { "element_type": "way", "osmid": "401629465", "landuse": "commercial", "name": "McMeekin Plaza", "shop": "nan", "nodes": [ 4040398770, 4040398771, 4040398772, 4040398773, 4040398774, 4040398775, 4040398776, 4040398777, 4040398770 ], "wikidata": "nan", "social_facility": "nan", "social_facility:for": "nan", "addr:city": "nan", "addr:housenumber": "nan", "addr:postcode": "nan", "addr:state": "nan", "addr:street": "nan", "barrier": "nan", "brand": "nan", "brand:wikidata": "nan", "brand:wikipedia": "nan", "auctioneer": "nan", "operator": "nan", "website": "nan", "ways": "nan", "type": "nan" }, "geometry": { "type": "Polygon", "coordinates": [ [ [ -84.5612328, 38.1956791 ], [ -84.5613893, 38.1946515 ], [ -84.5603852, 38.1945395 ], [ -84.5599556, 38.194969 ], [ -84.5598692, 38.1950607 ], [ -84.5595516, 38.1952699 ], [ -84.5593415, 38.1953745 ], [ -84.5594138, 38.1955213 ], [ -84.5612328, 38.1956791 ] ] ] } },
{ "type": "Feature", "properties": { "element_type": "way", "osmid": "401650348", "landuse": "commercial", "name": "Boston Square", "shop": "nan", "nodes": [ 4040620049, 4040620050, 4040620051, 4040620052, 4040620053, 4040620054, 4040620055, 4040620056, 4040620057, 4040620058, 4040620059, 4040620049 ], "wikidata": "nan", "social_facility": "nan", "social_facility:for": "nan", "addr:city": "nan", "addr:housenumber": "nan", "addr:postcode": "nan", "addr:state": "nan", "addr:street": "nan", "barrier": "nan", "brand": "nan", "brand:wikidata": "nan", "brand:wikipedia": "nan", "auctioneer": "nan", "operator": "nan", "website": "nan", "ways": "nan", "type": "nan" }, "geometry": { "type": "Polygon", "coordinates": [ [ [ -84.5476899, 38.21485 ], [ -84.5467136, 38.214753 ], [ -84.5467082, 38.2142599 ], [ -84.5457802, 38.2141925 ], [ -84.5458767, 38.2139438 ], [ -84.5459411, 38.2136783 ], [ -84.5459411, 38.2134633 ], [ -84.5458606, 38.2131556 ], [ -84.5456675, 38.2129154 ], [ -84.5468799, 38.2119712 ], [ -84.5470408, 38.2118279 ], [ -84.5476899, 38.21485 ] ] ] } },
{ "type": "Feature", "properties": { "element_type": "way", "osmid": "401650349", "landuse": "commercial", "name": "Elkhorn Plaza", "shop": "nan", "nodes": [ 4040620060, 4040620061, 4040620062, 4040620063, 4040620064, 4040620065, 4040620066, 4040620067, 4040620068, 4040620060 ], "wikidata": "nan", "social_facility": "nan", "social_facility:for": "nan", "addr:city": "nan", "addr:housenumber": "nan", "addr:postcode": "nan", "addr:state": "nan", "addr:street": "nan", "barrier": "nan", "brand": "nan", "brand:wikidata": "nan", "brand:wikipedia": "nan", "auctioneer": "nan", "operator": "nan", "website": "nan", "ways": "nan", "type": "nan" }, "geometry": { "type": "Polygon", "coordinates": [ [ [ -84.5448253, 38.2132652 ], [ -84.5451579, 38.2138848 ], [ -84.5450989, 38.2140365 ], [ -84.5449648, 38.2141756 ], [ -84.5448092, 38.2142346 ], [ -84.5439402, 38.2144622 ], [ -84.5435861, 38.2137078 ], [ -84.5438919, 38.2136066 ], [ -84.544144, 38.2135307 ], [ -84.5448253, 38.2132652 ] ] ] } },
{ "type": "Feature", "properties": { "element_type": "way", "osmid": "401650350", "landuse": "commercial", "name": "Georgetown Centre", "shop": "nan", "nodes": [ 4040620069, 4040620070, 4040620071, 4040620072, 4040620073, 4040620074, 4040620075, 4040620076, 4040620077, 4040620078, 4040620079, 4040620080, 4040620081, 4040620082, 4040620083, 4040620084, 4040620085, 4040620086, 4040620087, 4040620088, 4040620892, 4040620891, 4040620890, 4040620889, 4040620069 ], "wikidata": "nan", "social_facility": "nan", "social_facility:for": "nan", "addr:city": "nan", "addr:housenumber": "nan", "addr:postcode": "nan", "addr:state": "nan", "addr:street": "nan", "barrier": "nan", "brand": "nan", "brand:wikidata": "nan", "brand:wikipedia": "nan", "auctioneer": "nan", "operator": "nan", "website": "nan", "ways": "nan", "type": "nan" }, "geometry": { "type": "Polygon", "coordinates": [ [ [ -84.5429746, 38.2136951 ], [ -84.5426474, 38.2131472 ], [ -84.5428727, 38.2130798 ], [ -84.5429478, 38.2129828 ], [ -84.5429531, 38.2128859 ], [ -84.542127, 38.2121145 ], [ -84.5411292, 38.211242 ], [ -84.541038, 38.2111367 ], [ -84.5410005, 38.2110355 ], [ -84.5409361, 38.2109723 ], [ -84.5407108, 38.2109428 ], [ -84.5403299, 38.2109976 ], [ -84.5400939, 38.2110903 ], [ -84.5399383, 38.2111914 ], [ -84.5398793, 38.21128 ], [ -84.5398793, 38.2114907 ], [ -84.5401905, 38.2125697 ], [ -84.5402656, 38.2128521 ], [ -84.5404265, 38.2134717 ], [ -84.5405177, 38.2143569 ], [ -84.540743, 38.2143147 ], [ -84.5414565, 38.2140913 ], [ -84.5419178, 38.2139396 ], [ -84.5426795, 38.213771 ], [ -84.5429746, 38.2136951 ] ] ] } },
{ "type": "Feature", "properties": { "element_type": "way", "osmid": "401676064", "landuse": "commercial", "name": "Washington Square", "shop": "nan", "nodes": [ 4040874316, 4040874317, 4040874318, 4040874319, 4040874320, 4040874321, 4040874322, 4040874323, 4040874316 ], "wikidata": "nan", "social_facility": "nan", "social_facility:for": "nan", "addr:city": "nan", "addr:housenumber": "nan", "addr:postcode": "nan", "addr:state": "nan", "addr:street": "nan", "barrier": "nan", "brand": "nan", "brand:wikidata": "nan", "brand:wikipedia": "nan", "auctioneer": "nan", "operator": "nan", "website": "nan", "ways": "nan", "type": "nan" }, "geometry": { "type": "Polygon", "coordinates": [ [ [ -84.5619292, 38.1912301 ], [ -84.5589824, 38.1910686 ], [ -84.559342, 38.1886204 ], [ -84.55937, 38.1885286 ], [ -84.5594634, 38.1883451 ], [ -84.5596082, 38.1880918 ], [ -84.5604441, 38.1883965 ], [ -84.5622514, 38.1890205 ], [ -84.5619292, 38.1912301 ] ] ] } },
{ "type": "Feature", "properties": { "element_type": "way", "osmid": "401676065", "landuse": "commercial", "name": "Bradford Park", "shop": "nan", "nodes": [ 4040874324, 5794103713, 4040874325, 4040874326, 1802642084, 1802642082, 5732711323, 4040874327, 4040874328, 4040874329, 4040874330, 4040874331, 4040874324 ], "wikidata": "nan", "social_facility": "nan", "social_facility:for": "nan", "addr:city": "nan", "addr:housenumber": "nan", "addr:postcode": "nan", "addr:state": "nan", "addr:street": "nan", "barrier": "nan", "brand": "nan", "brand:wikidata": "nan", "brand:wikipedia": "nan", "auctioneer": "nan", "operator": "nan", "website": "nan", "ways": "nan", "type": "nan" }, "geometry": { "type": "Polygon", "coordinates": [ [ [ -84.5644526, 38.1942783 ], [ -84.5625968, 38.1940877 ], [ -84.5617889, 38.1940047 ], [ -84.5620511, 38.1922538 ], [ -84.5630107, 38.1913318 ], [ -84.5640104, 38.1907677 ], [ -84.5644613, 38.1906496 ], [ -84.5646815, 38.1905919 ], [ -84.5643014, 38.1927311 ], [ -84.5645255, 38.1927532 ], [ -84.5645069, 38.1928669 ], [ -84.5646563, 38.1928853 ], [ -84.5644526, 38.1942783 ] ] ] } },
{ "type": "Feature", "properties": { "element_type": "way", "osmid": "401676067", "landuse": "commercial", "name": "Southgate Shops", "shop": "nan", "nodes": [ 4040874332, 4040874333, 4040874334, 4040874335, 4040874336, 4040874337, 4040874338, 4040874339, 4040874340, 4040874341, 4040874342, 4040874343, 4040874344, 4040874345, 4040874332 ], "wikidata": "nan", "social_facility": "nan", "social_facility:for": "nan", "addr:city": "nan", "addr:housenumber": "nan", "addr:postcode": "nan", "addr:state": "nan", "addr:street": "nan", "barrier": "nan", "brand": "nan", "brand:wikidata": "nan", "brand:wikipedia": "nan", "auctioneer": "nan", "operator": "nan", "website": "nan", "ways": "nan", "type": "nan" }, "geometry": { "type": "Polygon", "coordinates": [ [ [ -84.5608546, 38.1829799 ], [ -84.5590368, 38.1833917 ], [ -84.5583467, 38.1835127 ], [ -84.5555614, 38.1839874 ], [ -84.5554566, 38.1836387 ], [ -84.5565535, 38.1833384 ], [ -84.5570834, 38.1832609 ], [ -84.5572806, 38.1832173 ], [ -84.5574717, 38.183164 ], [ -84.5579585, 38.1830235 ], [ -84.5590553, 38.1827232 ], [ -84.5604972, 38.1823164 ], [ -84.560565, 38.1823164 ], [ -84.5605897, 38.1823793 ], [ -84.5608546, 38.1829799 ] ] ] } },
{ "type": "Feature", "properties": { "element_type": "way", "osmid": "401676068", "landuse": "commercial", "name": "Pioneer Plaza", "shop": "nan", "nodes": [ 4040874346, 4040874347, 391879830, 4040874348, 4040874346 ], "wikidata": "nan", "social_facility": "nan", "social_facility:for": "nan", "addr:city": "nan", "addr:housenumber": "nan", "addr:postcode": "nan", "addr:state": "nan", "addr:street": "nan", "barrier": "nan", "brand": "nan", "brand:wikidata": "nan", "brand:wikipedia": "nan", "auctioneer": "nan", "operator": "nan", "website": "nan", "ways": "nan", "type": "nan" }, "geometry": { "type": "Polygon", "coordinates": [ [ [ -84.558624, 38.1796813 ], [ -84.5593018, 38.1812556 ], [ -84.556764, 38.18195 ], [ -84.5560894, 38.1803516 ], [ -84.558624, 38.1796813 ] ] ] } },
{ "type": "Feature", "properties": { "element_type": "way", "osmid": "401676069", "landuse": "commercial", "name": "Indian Acres Shopping Center", "shop": "nan", "nodes": [ 4040874349, 4040874350, 4040874351, 4040874352, 4040874349 ], "wikidata": "nan", "social_facility": "nan", "social_facility:for": "nan", "addr:city": "nan", "addr:housenumber": "nan", "addr:postcode": "nan", "addr:state": "nan", "addr:street": "nan", "barrier": "nan", "brand": "nan", "brand:wikidata": "nan", "brand:wikipedia": "nan", "auctioneer": "nan", "operator": "nan", "website": "nan", "ways": "nan", "type": "nan" }, "geometry": { "type": "Polygon", "coordinates": [ [ [ -84.5610587, 38.1986746 ], [ -84.5626267, 38.199188 ], [ -84.5633015, 38.1970602 ], [ -84.5613859, 38.1966468 ], [ -84.5610587, 38.1986746 ] ] ] } },
{ "type": "Feature", "properties": { "element_type": "way", "osmid": "401676070", "landuse": "commercial", "name": "Factory Stores of America", "shop": "nan", "nodes": [ 4040874353, 4040874354, 4040874355, 4040874356, 4040874357, 4040874358, 4040874359, 4040874360, 4040874361, 4040874353 ], "wikidata": "nan", "social_facility": "nan", "social_facility:for": "nan", "addr:city": "nan", "addr:housenumber": "nan", "addr:postcode": "nan", "addr:state": "nan", "addr:street": "nan", "barrier": "nan", "brand": "nan", "brand:wikidata": "nan", "brand:wikipedia": "nan", "auctioneer": "nan", "operator": "nan", "website": "nan", "ways": "nan", "type": "nan" }, "geometry": { "type": "Polygon", "coordinates": [ [ [ -84.535752, 38.2160036 ], [ -84.5359122, 38.2164781 ], [ -84.5387714, 38.2175916 ], [ -84.5382045, 38.2180757 ], [ -84.5390795, 38.2192957 ], [ -84.538069, 38.2196637 ], [ -84.5376869, 38.219044 ], [ -84.5365038, 38.2193635 ], [ -84.5351481, 38.2161489 ], [ -84.535752, 38.2160036 ] ] ] } },
{ "type": "Feature", "properties": { "element_type": "way", "osmid": "401676071", "landuse": "commercial", "name": "Thoroughbred Center", "shop": "nan", "nodes": [ 4040874362, 4040874363, 4040874364, 4040874365, 4040874366, 4040874367, 4040874368, 4040874369, 4040874370, 4040874371, 4040874372, 4040874373, 4040874374, 4040874375, 4040874376, 4040874377, 4040874378, 4040874379, 4040874380, 4040874381, 4040874382, 4040874383, 4040874384, 4040874362 ], "wikidata": "nan", "social_facility": "nan", "social_facility:for": "nan", "addr:city": "nan", "addr:housenumber": "nan", "addr:postcode": "nan", "addr:state": "nan", "addr:street": "nan", "barrier": "nan", "brand": "nan", "brand:wikidata": "nan", "brand:wikipedia": "nan", "auctioneer": "nan", "operator": "nan", "website": "nan", "ways": "nan", "type": "nan" }, "geometry": { "type": "Polygon", "coordinates": [ [ [ -84.5342721, 38.2224273 ], [ -84.5346786, 38.2217246 ], [ -84.5349632, 38.2211944 ], [ -84.535077, 38.2208559 ], [ -84.5351665, 38.2204471 ], [ -84.5351584, 38.2198977 ], [ -84.5350689, 38.219425 ], [ -84.5349063, 38.2190672 ], [ -84.5325483, 38.2195783 ], [ -84.5323369, 38.2191695 ], [ -84.5322963, 38.2190609 ], [ -84.5323125, 38.2189842 ], [ -84.5324914, 38.2187862 ], [ -84.5335484, 38.2180132 ], [ -84.5331419, 38.2174383 ], [ -84.5336623, 38.2171827 ], [ -84.5334265, 38.2168761 ], [ -84.533272, 38.2167611 ], [ -84.5331094, 38.2166908 ], [ -84.5329305, 38.2166653 ], [ -84.5327841, 38.2166781 ], [ -84.5318409, 38.2168761 ], [ -84.5294992, 38.2208367 ], [ -84.5342721, 38.2224273 ] ] ] } },
{ "type": "Feature", "properties": { "element_type": "way", "osmid": "404275208", "landuse": "commercial", "name": "Twin Towers", "shop": "nan", "nodes": [ 1729801787, 1729801796, 4162419469, 1736925136, 4162419464, 1736925057, 1736925161, 1736925071, 4065500264, 1736925171, 1729801787 ], "wikidata": "nan", "social_facility": "nan", "social_facility:for": "nan", "addr:city": "nan", "addr:housenumber": "nan", "addr:postcode": "nan", "addr:state": "nan", "addr:street": "nan", "barrier": "nan", "brand": "nan", "brand:wikidata": "nan", "brand:wikipedia": "nan", "auctioneer": "nan", "operator": "nan", "website": "nan", "ways": "nan", "type": "nan" }, "geometry": { "type": "Polygon", "coordinates": [ [ [ -84.4999274, 38.0487709 ], [ -84.5005429, 38.0483453 ], [ -84.5005072, 38.048314 ], [ -84.5002431, 38.048082 ], [ -84.5001249, 38.047983 ], [ -84.4998903, 38.0477865 ], [ -84.4997364, 38.0476552 ], [ -84.4991583, 38.0480541 ], [ -84.4993158, 38.0481994 ], [ -84.4996273, 38.0484988 ], [ -84.4999274, 38.0487709 ] ] ] } },
{ "type": "Feature", "properties": { "element_type": "way", "osmid": "405407451", "landuse": "commercial", "name": "nan", "shop": "nan", "nodes": [ 4076148704, 4076148646, 4076148692, 4076148649, 4076148643, 4076148637, 4076148622, 4076148593, 4076148590, 4076148591, 4076148592, 4076148594, 4076148596, 4076148604, 4076148608, 4076148619, 4076148621, 4076148623, 4076148625, 4076148633, 4076148638, 4076148658, 4076148675, 4076148713, 4076148715, 4076148717, 4076148716, 4076148709, 4076148705, 4076148703, 4076148704 ], "wikidata": "nan", "social_facility": "nan", "social_facility:for": "nan", "addr:city": "nan", "addr:housenumber": "nan", "addr:postcode": "nan", "addr:state": "nan", "addr:street": "nan", "barrier": "nan", "brand": "nan", "brand:wikidata": "nan", "brand:wikipedia": "nan", "auctioneer": "nan", "operator": "nan", "website": "nan", "ways": "nan", "type": "nan" }, "geometry": { "type": "Polygon", "coordinates": [ [ [ -84.5169809, 38.0011012 ], [ -84.5170238, 38.0005833 ], [ -84.518086, 38.000949 ], [ -84.5182576, 38.0005939 ], [ -84.5182362, 38.0005707 ], [ -84.5182335, 38.0005368 ], [ -84.5183327, 38.000298 ], [ -84.5167449, 37.9997823 ], [ -84.5165947, 37.9997569 ], [ -84.5164847, 37.999759 ], [ -84.5163506, 37.9997696 ], [ -84.516195, 37.9998055 ], [ -84.5161038, 37.9998372 ], [ -84.5159938, 37.9999091 ], [ -84.5159161, 37.9999725 ], [ -84.5156881, 38.0002409 ], [ -84.5156827, 38.0002769 ], [ -84.5156988, 38.0003022 ], [ -84.5157498, 38.000336 ], [ -84.5159107, 38.000446 ], [ -84.5160207, 38.0005453 ], [ -84.5161226, 38.0006531 ], [ -84.5162191, 38.0007884 ], [ -84.5164418, 38.0011498 ], [ -84.5164686, 38.0011625 ], [ -84.5165088, 38.0011751 ], [ -84.5165517, 38.0011667 ], [ -84.5166993, 38.0011181 ], [ -84.5167797, 38.0011033 ], [ -84.5169165, 38.0010948 ], [ -84.5169809, 38.0011012 ] ] ] } },
{ "type": "Feature", "properties": { "element_type": "way", "osmid": "406122270", "landuse": "commercial", "name": "nan", "shop": "nan", "nodes": [ 4082308389, 8376547284, 8376547285, 3712561187, 2780485962, 3712561188, 3712561189, 3712561190, 4082308390, 4082308391, 4082308392, 4082308393, 4082308394, 4082308395, 4082308396, 4082308397, 4082308398, 4082308399, 4082308400, 8132949682, 8132949678, 4082308389 ], "wikidata": "nan", "social_facility": "nan", "social_facility:for": "nan", "addr:city": "nan", "addr:housenumber": "nan", "addr:postcode": "nan", "addr:state": "nan", "addr:street": "nan", "barrier": "nan", "brand": "nan", "brand:wikidata": "nan", "brand:wikipedia": "nan", "auctioneer": "nan", "operator": "nan", "website": "nan", "ways": "nan", "type": "nan" }, "geometry": { "type": "Polygon", "coordinates": [ [ [ -84.5565411, 38.0122306 ], [ -84.5565072, 38.0122185 ], [ -84.5542268, 38.0114019 ], [ -84.5499574, 38.0098731 ], [ -84.5503095, 38.0109415 ], [ -84.5503822, 38.010973 ], [ -84.5504798, 38.0111927 ], [ -84.550926, 38.0126345 ], [ -84.5511516, 38.0131483 ], [ -84.5512497, 38.0133443 ], [ -84.5512931, 38.0134068 ], [ -84.551418, 38.013554 ], [ -84.5515106, 38.0136523 ], [ -84.5516514, 38.0137727 ], [ -84.5517855, 38.0138657 ], [ -84.551921, 38.013946 ], [ -84.5521422, 38.0140496 ], [ -84.5523032, 38.0141151 ], [ -84.5530166, 38.0143507 ], [ -84.5546674, 38.013347 ], [ -84.5548554, 38.013235 ], [ -84.5565411, 38.0122306 ] ] ] } },
{ "type": "Feature", "properties": { "element_type": "way", "osmid": "474948464", "landuse": "commercial", "name": "nan", "shop": "nan", "nodes": [ 4687966344, 2627438972, 4687966345, 163489389, 4687966346, 4687966347, 4687966348, 4687966349, 4687966350, 4052227514, 5591346544, 4759952864, 163435294, 5591346546, 163435300, 4759952863, 4052227562, 163505701, 4052227565, 163505699, 4687966351, 4687966352, 163511317, 163511320, 8647307851, 4687966353, 4687966354, 4687966355, 4687966356, 4687966357, 163552145, 4687966358, 4687966359, 163428143, 4687966360, 6797542956, 6797542955, 4687966361, 4687966362, 163486566, 4687966363, 4687966364, 4687966365, 7180144515, 4773652523, 4687966366, 4773655032, 4687966367, 4773652570, 4773652550, 1730000146, 4176803570, 4176803573, 163588460, 163588465, 4687966368, 4687966369, 7028037394, 163483159, 4176803541, 163443035, 4176803542, 163443037, 163443039, 163443041, 4687966344 ], "wikidata": "nan", "social_facility": "nan", "social_facility:for": "nan", "addr:city": "nan", "addr:housenumber": "nan", "addr:postcode": "nan", "addr:state": "nan", "addr:street": "nan", "barrier": "nan", "brand": "nan", "brand:wikidata": "nan", "brand:wikipedia": "nan", "auctioneer": "nan", "operator": "nan", "website": "nan", "ways": "nan", "type": "nan" }, "geometry": { "type": "Polygon", "coordinates": [ [ [ -84.4923985, 38.0286099 ], [ -84.4910451, 38.0281704 ], [ -84.4912818, 38.0277257 ], [ -84.490496, 38.027471 ], [ -84.4898253, 38.0274633 ], [ -84.4896502, 38.0282544 ], [ -84.489573, 38.0282416 ], [ -84.4894876, 38.0286708 ], [ -84.490068, 38.0291923 ], [ -84.4899879, 38.0294897 ], [ -84.4898054, 38.0301519 ], [ -84.4897853, 38.0302249 ], [ -84.489761, 38.030314 ], [ -84.4897441, 38.030437 ], [ -84.489736, 38.030496 ], [ -84.4897534, 38.0305312 ], [ -84.4900495, 38.0311301 ], [ -84.490089, 38.03121 ], [ -84.4901501, 38.0313356 ], [ -84.490163, 38.031362 ], [ -84.4902579, 38.031542 ], [ -84.490878, 38.0312678 ], [ -84.491014, 38.031402 ], [ -84.491034, 38.031378 ], [ -84.4914731, 38.0310726 ], [ -84.4915626, 38.0310104 ], [ -84.49279, 38.0321268 ], [ -84.4929171, 38.0320358 ], [ -84.493301, 38.0323566 ], [ -84.4934809, 38.0322174 ], [ -84.493805, 38.032508 ], [ -84.4934917, 38.0327254 ], [ -84.4941357, 38.0333435 ], [ -84.494479, 38.03311 ], [ -84.4944062, 38.0330448 ], [ -84.4947536, 38.0327729 ], [ -84.4947282, 38.0327397 ], [ -84.4948039, 38.0326789 ], [ -84.4943224, 38.0322681 ], [ -84.49441, 38.032206 ], [ -84.4938696, 38.0317287 ], [ -84.4942117, 38.0314792 ], [ -84.4936956, 38.0309878 ], [ -84.4937467, 38.0309513 ], [ -84.4939071, 38.0308369 ], [ -84.4940185, 38.0307575 ], [ -84.4932036, 38.0303303 ], [ -84.4927806, 38.0301086 ], [ -84.4926423, 38.0301988 ], [ -84.4923954, 38.0303598 ], [ -84.4923092, 38.030416 ], [ -84.49181, 38.0299542 ], [ -84.4921286, 38.0297308 ], [ -84.492272, 38.029617 ], [ -84.492329, 38.029546 ], [ -84.4926261, 38.0298396 ], [ -84.4928601, 38.0296431 ], [ -84.4927707, 38.0295941 ], [ -84.49261, 38.029506 ], [ -84.492584, 38.0294937 ], [ -84.492321, 38.029367 ], [ -84.492241, 38.0293238 ], [ -84.492221, 38.029313 ], [ -84.49218, 38.029286 ], [ -84.492092, 38.029208 ], [ -84.4923985, 38.0286099 ] ] ] } },
{ "type": "Feature", "properties": { "element_type": "way", "osmid": "479392394", "landuse": "commercial", "name": "Wilmore Shopping Center", "shop": "nan", "nodes": [ 4725069874, 4725069875, 4725069876, 4725069877, 4725069878, 7027535857, 4725069874 ], "wikidata": "nan", "social_facility": "nan", "social_facility:for": "nan", "addr:city": "nan", "addr:housenumber": "nan", "addr:postcode": "nan", "addr:state": "nan", "addr:street": "nan", "barrier": "nan", "brand": "nan", "brand:wikidata": "nan", "brand:wikipedia": "nan", "auctioneer": "nan", "operator": "nan", "website": "nan", "ways": "nan", "type": "nan" }, "geometry": { "type": "Polygon", "coordinates": [ [ [ -84.6625141, 37.8608649 ], [ -84.6616975, 37.8602479 ], [ -84.662294, 37.8597946 ], [ -84.6625524, 37.8598274 ], [ -84.6628331, 37.8596259 ], [ -84.663268, 37.8600006 ], [ -84.6625141, 37.8608649 ] ] ] } },
{ "type": "Feature", "properties": { "element_type": "way", "osmid": "479584048", "landuse": "commercial", "name": "nan", "shop": "nan", "nodes": [ 4726579805, 4726579806, 6971024591, 4726579807, 4726579808, 4726579809, 4726579810, 4726579811, 4726579812, 4726579813, 163458906, 4726579814, 4726579805 ], "wikidata": "nan", "social_facility": "nan", "social_facility:for": "nan", "addr:city": "nan", "addr:housenumber": "nan", "addr:postcode": "nan", "addr:state": "nan", "addr:street": "nan", "barrier": "nan", "brand": "nan", "brand:wikidata": "nan", "brand:wikipedia": "nan", "auctioneer": "nan", "operator": "nan", "website": "nan", "ways": "nan", "type": "nan" }, "geometry": { "type": "Polygon", "coordinates": [ [ [ -84.4520782, 38.0009107 ], [ -84.4507171, 37.9995541 ], [ -84.4491407, 38.0001719 ], [ -84.4490203, 38.0002191 ], [ -84.4482842, 37.9999625 ], [ -84.4469251, 38.0009107 ], [ -84.4472507, 38.002004 ], [ -84.4479444, 38.0029075 ], [ -84.4490062, 38.0022828 ], [ -84.4496432, 38.0015577 ], [ -84.45082, 38.001271 ], [ -84.4519933, 38.0012231 ], [ -84.4520782, 38.0009107 ] ] ] } },
{ "type": "Feature", "properties": { "element_type": "way", "osmid": "479584049", "landuse": "commercial", "name": "nan", "shop": "nan", "nodes": [ 4726579815, 4726579816, 7025228625, 4726579817, 4726579818, 4726579815 ], "wikidata": "nan", "social_facility": "nan", "social_facility:for": "nan", "addr:city": "nan", "addr:housenumber": "nan", "addr:postcode": "nan", "addr:state": "nan", "addr:street": "nan", "barrier": "nan", "brand": "nan", "brand:wikidata": "nan", "brand:wikipedia": "nan", "auctioneer": "nan", "operator": "nan", "website": "nan", "ways": "nan", "type": "nan" }, "geometry": { "type": "Polygon", "coordinates": [ [ [ -84.4518768, 38.0074017 ], [ -84.4458115, 38.0013931 ], [ -84.4452647, 38.0017469 ], [ -84.4427854, 38.0033508 ], [ -84.4496035, 38.0089293 ], [ -84.4518768, 38.0074017 ] ] ] } },
{ "type": "Feature", "properties": { "element_type": "way", "osmid": "573680757", "landuse": "commercial", "name": "nan", "shop": "nan", "nodes": [ 5508974688, 3443946087, 3443946088, 3443946089, 9090899677, 3443946090, 3443946091, 7025313359, 3443946092, 3443948535, 3443948534, 3443948533, 3443948532, 3443948531, 5508974706, 5508974707, 5508974704, 5508974703, 5508974702, 5508974701, 5508974700, 5508974699, 5508975393, 5508974697, 5508974696, 5508974695, 5508975416, 5508975530, 5508974694, 5508974692, 5508974691, 5508974690, 5508974689, 5508975536, 5508974688 ], "wikidata": "nan", "social_facility": "nan", "social_facility:for": "nan", "addr:city": "nan", "addr:housenumber": "nan", "addr:postcode": "nan", "addr:state": "nan", "addr:street": "nan", "barrier": "nan", "brand": "nan", "brand:wikidata": "nan", "brand:wikipedia": "nan", "auctioneer": "nan", "operator": "nan", "website": "nan", "ways": "nan", "type": "nan" }, "geometry": { "type": "Polygon", "coordinates": [ [ [ -84.5549297, 38.0467184 ], [ -84.5551032, 38.0465433 ], [ -84.5550299, 38.045854 ], [ -84.5542765, 38.0458728 ], [ -84.5542819, 38.0457346 ], [ -84.5542823, 38.0457255 ], [ -84.5519236, 38.0457685 ], [ -84.5519248, 38.045828 ], [ -84.551927, 38.0459433 ], [ -84.5511608, 38.0459538 ], [ -84.5511608, 38.0460113 ], [ -84.5511131, 38.0460813 ], [ -84.5511036, 38.0461614 ], [ -84.5512275, 38.0467342 ], [ -84.5512335, 38.0470398 ], [ -84.5475753, 38.0472998 ], [ -84.5479192, 38.0487842 ], [ -84.5492584, 38.0486777 ], [ -84.5492909, 38.0487994 ], [ -84.5499617, 38.048745 ], [ -84.5498072, 38.0476564 ], [ -84.5509496, 38.0475508 ], [ -84.5511138, 38.0486565 ], [ -84.5511407, 38.0488378 ], [ -84.5514131, 38.048841 ], [ -84.5514862, 38.0493116 ], [ -84.552211, 38.0492761 ], [ -84.552365, 38.0492685 ], [ -84.5528563, 38.0492444 ], [ -84.5527628, 38.0482423 ], [ -84.5533564, 38.0482103 ], [ -84.5533238, 38.0474707 ], [ -84.5548525, 38.047522 ], [ -84.554861, 38.047433 ], [ -84.5549297, 38.0467184 ] ] ] } },
{ "type": "Feature", "properties": { "element_type": "way", "osmid": "603502218", "landuse": "commercial", "name": "nan", "shop": "nan", "nodes": [ 5729016913, 5729016914, 5718577045, 5729016915, 5729016916, 5729016917, 5729016918, 5729016919, 5729016920, 5729016913 ], "wikidata": "nan", "social_facility": "nan", "social_facility:for": "nan", "addr:city": "nan", "addr:housenumber": "nan", "addr:postcode": "nan", "addr:state": "nan", "addr:street": "nan", "barrier": "nan", "brand": "nan", "brand:wikidata": "nan", "brand:wikipedia": "nan", "auctioneer": "nan", "operator": "nan", "website": "nan", "ways": "nan", "type": "nan" }, "geometry": { "type": "Polygon", "coordinates": [ [ [ -84.4683245, 38.048055 ], [ -84.4687076, 38.0483323 ], [ -84.4670221, 38.0497436 ], [ -84.4645333, 38.0518353 ], [ -84.4639424, 38.0512462 ], [ -84.4643952, 38.0509595 ], [ -84.4653426, 38.0503563 ], [ -84.4660952, 38.0498786 ], [ -84.4663034, 38.0497443 ], [ -84.4683245, 38.048055 ] ] ] } },
{ "type": "Feature", "properties": { "element_type": "way", "osmid": "603502220", "landuse": "commercial", "name": "nan", "shop": "nan", "nodes": [ 5729017045, 5729017046, 5729017047, 5729017048, 5729017049, 5729017050, 5729017051, 5729017052, 5729017053, 5729017054, 5729017022, 5729017023, 5729017024, 5729017025, 5729017026, 5729017027, 5729017028, 5718577042, 5718577043, 5718577044, 5729017045 ], "wikidata": "nan", "social_facility": "nan", "social_facility:for": "nan", "addr:city": "nan", "addr:housenumber": "nan", "addr:postcode": "nan", "addr:state": "nan", "addr:street": "nan", "barrier": "nan", "brand": "nan", "brand:wikidata": "nan", "brand:wikipedia": "nan", "auctioneer": "nan", "operator": "nan", "website": "nan", "ways": "nan", "type": "nan" }, "geometry": { "type": "Polygon", "coordinates": [ [ [ -84.4641321, 38.0521725 ], [ -84.463497, 38.0514743 ], [ -84.4633971, 38.051501 ], [ -84.4632632, 38.0515263 ], [ -84.4631134, 38.0515361 ], [ -84.4629153, 38.0515263 ], [ -84.4627779, 38.0515024 ], [ -84.4625816, 38.0514462 ], [ -84.4624264, 38.0513731 ], [ -84.4622783, 38.0512776 ], [ -84.4612658, 38.0505564 ], [ -84.4611625, 38.0507135 ], [ -84.4611013, 38.0509188 ], [ -84.461103, 38.0509739 ], [ -84.4611153, 38.0510235 ], [ -84.4612518, 38.0510814 ], [ -84.4612096, 38.0511684 ], [ -84.4613931, 38.0512821 ], [ -84.4624382, 38.0521245 ], [ -84.4634072, 38.0527817 ], [ -84.4641321, 38.0521725 ] ] ] } },
{ "type": "Feature", "properties": { "element_type": "way", "osmid": "603502221", "landuse": "commercial", "name": "nan", "shop": "nan", "nodes": [ 5729017021, 5729017055, 5729017056, 5729017057, 5729017058, 5729017059, 5729017060, 5729017061, 5729017062, 5729017063, 5729017064, 5729017065, 5729017066, 5729017067, 5729017068, 5729017069, 5729017070, 5729017071, 5729017072, 5729017073, 5729017074, 5729017075, 5729017076, 5729017077, 5729017078, 5729017079, 5729017080, 5729017081, 5729017082, 5729017083, 5718577054, 5718577053, 5718577052, 5718577051, 5718577050, 5718577049, 5718577048, 5718577062, 5729017084, 5729017085, 5729017086, 5729017087, 5729017088, 5729017029, 5729017030, 5729017031, 5729017032, 5729017033, 5729017034, 5729017035, 5729017036, 5729017037, 5729017038, 5729017039, 5729017040, 5729017041, 5729017042, 5729017043, 5729017044, 5729017021 ], "wikidata": "nan", "social_facility": "nan", "social_facility:for": "nan", "addr:city": "nan", "addr:housenumber": "nan", "addr:postcode": "nan", "addr:state": "nan", "addr:street": "nan", "barrier": "nan", "brand": "nan", "brand:wikidata": "nan", "brand:wikipedia": "nan", "auctioneer": "nan", "operator": "nan", "website": "nan", "ways": "nan", "type": "nan" }, "geometry": { "type": "Polygon", "coordinates": [ [ [ -84.4611258, 38.0504544 ], [ -84.4610278, 38.0503579 ], [ -84.4609442, 38.0502482 ], [ -84.4608963, 38.0501873 ], [ -84.4608545, 38.0501557 ], [ -84.4608127, 38.0501362 ], [ -84.460757, 38.0501264 ], [ -84.4607044, 38.0501362 ], [ -84.4599666, 38.0504541 ], [ -84.4598165, 38.0505162 ], [ -84.4597299, 38.0505406 ], [ -84.4596572, 38.0505503 ], [ -84.4594004, 38.0506685 ], [ -84.459026, 38.0508305 ], [ -84.4588883, 38.0508902 ], [ -84.4588435, 38.0509207 ], [ -84.4588342, 38.0509523 ], [ -84.4582139, 38.0512252 ], [ -84.4581087, 38.0512398 ], [ -84.4579169, 38.0513202 ], [ -84.4573863, 38.0515553 ], [ -84.4572433, 38.0516147 ], [ -84.4572158, 38.051625 ], [ -84.4571949, 38.0516652 ], [ -84.4572027, 38.051691 ], [ -84.4581501, 38.0526778 ], [ -84.4583923, 38.0529774 ], [ -84.4591191, 38.0537303 ], [ -84.4596737, 38.0543043 ], [ -84.4608148, 38.0555475 ], [ -84.4611743, 38.0552521 ], [ -84.461036, 38.0551505 ], [ -84.4608083, 38.0549589 ], [ -84.4601757, 38.0542938 ], [ -84.4591781, 38.0531784 ], [ -84.4591538, 38.0531894 ], [ -84.4585316, 38.0525256 ], [ -84.4588047, 38.0523344 ], [ -84.4586293, 38.0520338 ], [ -84.4590281, 38.0520649 ], [ -84.4596046, 38.0517167 ], [ -84.4599679, 38.0515767 ], [ -84.4599995, 38.051614 ], [ -84.460338, 38.0515276 ], [ -84.4603977, 38.0514067 ], [ -84.4604082, 38.0513695 ], [ -84.4603382, 38.0512813 ], [ -84.4602192, 38.0511503 ], [ -84.460228, 38.0511117 ], [ -84.4602577, 38.0510773 ], [ -84.4603312, 38.051047 ], [ -84.4603785, 38.0510511 ], [ -84.4604345, 38.0510084 ], [ -84.4605692, 38.0509753 ], [ -84.460704, 38.0509133 ], [ -84.4607285, 38.050843 ], [ -84.4607863, 38.0507865 ], [ -84.4608703, 38.0507204 ], [ -84.4610155, 38.0505453 ], [ -84.4611258, 38.0504544 ] ] ] } },
{ "type": "Feature", "properties": { "element_type": "way", "osmid": "626681935", "landuse": "commercial", "name": "Town Branch Distillery", "shop": "nan", "nodes": [ 5916225423, 5916225424, 5916225425, 5916225426, 5916225427, 5916225428, 5916225429, 5916225430, 5916225431, 5916225432, 5916225433, 5916225434, 5916225423 ], "wikidata": "nan", "social_facility": "nan", "social_facility:for": "nan", "addr:city": "nan", "addr:housenumber": "nan", "addr:postcode": "nan", "addr:state": "nan", "addr:street": "nan", "barrier": "nan", "brand": "nan", "brand:wikidata": "nan", "brand:wikipedia": "nan", "auctioneer": "nan", "operator": "nan", "website": "nan", "ways": "nan", "type": "nan" }, "geometry": { "type": "Polygon", "coordinates": [ [ [ -84.5092234, 38.0491567 ], [ -84.5089572, 38.0493314 ], [ -84.5091603, 38.0495244 ], [ -84.5091884, 38.0495116 ], [ -84.5092864, 38.0496072 ], [ -84.5093658, 38.0495539 ], [ -84.5093798, 38.0495686 ], [ -84.5094709, 38.0495097 ], [ -84.5094546, 38.0494877 ], [ -84.5095059, 38.0494491 ], [ -84.5094125, 38.0493553 ], [ -84.5094312, 38.0493424 ], [ -84.5092234, 38.0491567 ] ] ] } },
{ "type": "Feature", "properties": { "element_type": "way", "osmid": "626681936", "landuse": "commercial", "name": "Lexington Brewing Co.", "shop": "nan", "nodes": [ 5916225435, 5916225436, 5916225437, 5916225438, 5916225439, 5916225440, 5916225441, 5916225442, 5916225443, 5916225444, 5916225445, 5916225446, 5916225447, 5916225448, 5916225435 ], "wikidata": "nan", "social_facility": "nan", "social_facility:for": "nan", "addr:city": "Lexington", "addr:housenumber": "401", "addr:postcode": "40508", "addr:state": "KY", "addr:street": "Cross Street", "barrier": "nan", "brand": "nan", "brand:wikidata": "nan", "brand:wikipedia": "nan", "auctioneer": "nan", "operator": "nan", "website": "nan", "ways": "nan", "type": "nan" }, "geometry": { "type": "Polygon", "coordinates": [ [ [ -84.5096924, 38.0496507 ], [ -84.5097443, 38.0496955 ], [ -84.5096874, 38.049735 ], [ -84.5097443, 38.0497944 ], [ -84.5096957, 38.049826 ], [ -84.5097392, 38.0498695 ], [ -84.5096857, 38.0499025 ], [ -84.5096974, 38.0499143 ], [ -84.5095601, 38.0500066 ], [ -84.5095769, 38.0500251 ], [ -84.5094998, 38.0500791 ], [ -84.5093944, 38.0499737 ], [ -84.5094279, 38.0499552 ], [ -84.5093425, 38.0498774 ], [ -84.5096924, 38.0496507 ] ] ] } },
{ "type": "Feature", "properties": { "element_type": "way", "osmid": "681618278", "landuse": "commercial", "name": "Champion Business Center", "shop": "nan", "nodes": [ 6383365188, 6383365152, 6383365178, 6383365116, 6383365142, 6383365167, 6383365194, 6383365131, 6383365157, 6383365184, 6383365122, 6383365148, 6383365175, 6383365200, 6383365138, 6383365163, 6383365191, 6383365127, 6383365154, 6383365181, 6383365118, 6383365145, 6383365171, 6383365196, 6383365134, 6383365160, 6383365187, 6383365124, 6383365151, 6383365177, 6383365203, 6383365141, 6383365166, 6383365188 ], "wikidata": "nan", "social_facility": "nan", "social_facility:for": "nan", "addr:city": "nan", "addr:housenumber": "nan", "addr:postcode": "nan", "addr:state": "nan", "addr:street": "nan", "barrier": "nan", "brand": "nan", "brand:wikidata": "nan", "brand:wikipedia": "nan", "auctioneer": "nan", "operator": "nan", "website": "nan", "ways": "nan", "type": "nan" }, "geometry": { "type": "Polygon", "coordinates": [ [ [ -84.5428306, 38.2216606 ], [ -84.542816, 38.2216893 ], [ -84.5428148, 38.2217371 ], [ -84.542819, 38.2217944 ], [ -84.5428186, 38.2218497 ], [ -84.5428156, 38.2219087 ], [ -84.5428168, 38.2219556 ], [ -84.5428373, 38.2220219 ], [ -84.5428468, 38.2220701 ], [ -84.5428543, 38.2221341 ], [ -84.5428723, 38.2222256 ], [ -84.5428765, 38.2222839 ], [ -84.5428769, 38.2223233 ], [ -84.5428873, 38.2224404 ], [ -84.5428903, 38.222589 ], [ -84.5428646, 38.2227115 ], [ -84.5428494, 38.2228197 ], [ -84.5428267, 38.2229386 ], [ -84.5427828, 38.2230694 ], [ -84.5427344, 38.2232312 ], [ -84.5426981, 38.223293 ], [ -84.5428101, 38.2233358 ], [ -84.5431505, 38.2227509 ], [ -84.5433777, 38.2223949 ], [ -84.543573, 38.2220893 ], [ -84.5437758, 38.2217468 ], [ -84.543514, 38.2216279 ], [ -84.5434126, 38.221566 ], [ -84.5432869, 38.221528 ], [ -84.5431779, 38.2215268 ], [ -84.5430901, 38.2215458 ], [ -84.5430076, 38.2215761 ], [ -84.5428813, 38.221616 ], [ -84.5428306, 38.2216606 ] ] ] } },
{ "type": "Feature", "properties": { "element_type": "way", "osmid": "694616965", "landuse": "commercial", "name": "Richmond Woods Centre", "shop": "nan", "nodes": [ 6522349682, 6522349683, 6522349684, 6522375185, 6522375186, 6522375187, 6522375188, 6522375189, 6522375190, 6522349682 ], "wikidata": "nan", "social_facility": "nan", "social_facility:for": "nan", "addr:city": "nan", "addr:housenumber": "nan", "addr:postcode": "nan", "addr:state": "nan", "addr:street": "nan", "barrier": "nan", "brand": "nan", "brand:wikidata": "nan", "brand:wikipedia": "nan", "auctioneer": "nan", "operator": "nan", "website": "nan", "ways": "nan", "type": "nan" }, "geometry": { "type": "Polygon", "coordinates": [ [ [ -84.4526467, 38.0117994 ], [ -84.4519926, 38.0112451 ], [ -84.4518661, 38.0112451 ], [ -84.4512806, 38.0114435 ], [ -84.451409, 38.0116923 ], [ -84.4515658, 38.0118558 ], [ -84.4517435, 38.011998 ], [ -84.451976, 38.011818 ], [ -84.4522632, 38.0120712 ], [ -84.4526467, 38.0117994 ] ] ] } },
{ "type": "Feature", "properties": { "element_type": "way", "osmid": "694773794", "landuse": "commercial", "name": "nan", "shop": "nan", "nodes": [ 6525080295, 6525080296, 6525080297, 6525080298, 6525080299, 6525080300, 7092046471, 6525080301, 6525080295 ], "wikidata": "nan", "social_facility": "nan", "social_facility:for": "nan", "addr:city": "nan", "addr:housenumber": "nan", "addr:postcode": "nan", "addr:state": "nan", "addr:street": "nan", "barrier": "nan", "brand": "nan", "brand:wikidata": "nan", "brand:wikipedia": "nan", "auctioneer": "nan", "operator": "nan", "website": "nan", "ways": "nan", "type": "nan" }, "geometry": { "type": "Polygon", "coordinates": [ [ [ -84.4540473, 38.0158672 ], [ -84.453674, 38.0169314 ], [ -84.453701, 38.0169981 ], [ -84.4561985, 38.0175711 ], [ -84.456618, 38.0164432 ], [ -84.4565103, 38.0163098 ], [ -84.455889, 38.0161866 ], [ -84.4541551, 38.0158429 ], [ -84.4540473, 38.0158672 ] ] ] } },
{ "type": "Feature", "properties": { "element_type": "way", "osmid": "1001602946", "landuse": "commercial", "name": "nan", "shop": "nan", "nodes": [ 9244865254, 9234056301, 9234056300, 9234056299, 9244865255, 9244865256, 9233272975, 9233272974, 9244865257, 9244862154, 9233272945, 9233272944, 9244862142, 9244862141, 9244862140, 9244865260, 9244865259, 8441927659, 8441927658, 8441927657, 9233272934, 9244865262, 9244859386, 9233272941, 9244862155, 9233272971, 9231356105, 9244865254 ], "wikidata": "nan", "social_facility": "nan", "social_facility:for": "nan", "addr:city": "nan", "addr:housenumber": "nan", "addr:postcode": "nan", "addr:state": "nan", "addr:street": "nan", "barrier": "nan", "brand": "nan", "brand:wikidata": "nan", "brand:wikipedia": "nan", "auctioneer": "nan", "operator": "nan", "website": "nan", "ways": "nan", "type": "nan" }, "geometry": { "type": "Polygon", "coordinates": [ [ [ -84.4600057, 38.0749143 ], [ -84.4594158, 38.0743861 ], [ -84.4593824, 38.0743734 ], [ -84.4593385, 38.0743734 ], [ -84.458608, 38.0748027 ], [ -84.4580863, 38.0751383 ], [ -84.4578524, 38.0752215 ], [ -84.4574245, 38.0754843 ], [ -84.4573689, 38.0755176 ], [ -84.457563, 38.0757186 ], [ -84.4576686, 38.0758277 ], [ -84.4586237, 38.076798 ], [ -84.45865, 38.0768218 ], [ -84.4587487, 38.0768424 ], [ -84.4588187, 38.0769949 ], [ -84.4589503, 38.077122 ], [ -84.459065, 38.0772328 ], [ -84.4592028, 38.0773659 ], [ -84.4598643, 38.0780818 ], [ -84.4606587, 38.0776129 ], [ -84.4611987, 38.0772661 ], [ -84.4605941, 38.0766422 ], [ -84.4603224, 38.076512 ], [ -84.4597848, 38.0760248 ], [ -84.4591354, 38.0753361 ], [ -84.4593624, 38.0752814 ], [ -84.4595512, 38.0751796 ], [ -84.4600057, 38.0749143 ] ] ] } },
{ "type": "Feature", "properties": { "element_type": "way", "osmid": "1002486111", "landuse": "commercial", "name": "nan", "shop": "nan", "nodes": [ 9251985572, 9251985573, 9251985574, 9251985575, 9251985576, 9251985577, 9251985578, 9251985579, 9251985580, 9251985581, 9251985582, 9251985572 ], "wikidata": "nan", "social_facility": "nan", "social_facility:for": "nan", "addr:city": "nan", "addr:housenumber": "nan", "addr:postcode": "nan", "addr:state": "nan", "addr:street": "nan", "barrier": "nan", "brand": "nan", "brand:wikidata": "nan", "brand:wikipedia": "nan", "auctioneer": "nan", "operator": "nan", "website": "nan", "ways": "nan", "type": "nan" }, "geometry": { "type": "Polygon", "coordinates": [ [ [ -84.4685513, 38.0700978 ], [ -84.4684076, 38.0696794 ], [ -84.4700763, 38.069231 ], [ -84.4701151, 38.0692306 ], [ -84.4701513, 38.0692493 ], [ -84.4701719, 38.0692728 ], [ -84.4703025, 38.069519 ], [ -84.470342, 38.0695805 ], [ -84.4697795, 38.0697587 ], [ -84.4694048, 38.0698893 ], [ -84.4690438, 38.069974 ], [ -84.4685513, 38.0700978 ] ] ] } },
{ "type": "Feature", "properties": { "element_type": "way", "osmid": "1002486112", "landuse": "commercial", "name": "nan", "shop": "nan", "nodes": [ 9251985584, 9251985585, 9251985586, 9251985587, 9251985588, 9251985589, 9251985590, 9251985591, 9251985592, 9251985593, 9251985594, 9251985595, 9251985596, 9251985597, 9251985598, 9251985599, 9251985600, 9251985601, 9251985602, 9251985584 ], "wikidata": "nan", "social_facility": "nan", "social_facility:for": "nan", "addr:city": "nan", "addr:housenumber": "nan", "addr:postcode": "nan", "addr:state": "nan", "addr:street": "nan", "barrier": "nan", "brand": "nan", "brand:wikidata": "nan", "brand:wikipedia": "nan", "auctioneer": "nan", "operator": "nan", "website": "nan", "ways": "nan", "type": "nan" }, "geometry": { "type": "Polygon", "coordinates": [ [ [ -84.4737353, 38.0699904 ], [ -84.4730974, 38.0701633 ], [ -84.4730167, 38.0700858 ], [ -84.4725403, 38.0702434 ], [ -84.4725403, 38.0703121 ], [ -84.4722997, 38.0703845 ], [ -84.472143, 38.0703985 ], [ -84.4719153, 38.0702485 ], [ -84.4709334, 38.0698111 ], [ -84.4707412, 38.0696662 ], [ -84.4705603, 38.0695047 ], [ -84.4705119, 38.0695136 ], [ -84.4703116, 38.0691729 ], [ -84.4707735, 38.0690089 ], [ -84.4710061, 38.0688996 ], [ -84.4713048, 38.0687851 ], [ -84.4723756, 38.0682575 ], [ -84.4724385, 38.0682562 ], [ -84.4728015, 38.0686825 ], [ -84.4737353, 38.0699904 ] ] ] } },
{ "type": "Feature", "properties": { "element_type": "way", "osmid": "1002486113", "landuse": "commercial", "name": "nan", "shop": "nan", "nodes": [ 9251985603, 9251985604, 9251985605, 9251985606, 9251985607, 9251985608, 9251985609, 9251985610, 9251985611, 9251985612, 9251985613, 9251985614, 9251985615, 9251985616, 9251987217, 9251987218, 9251987219, 9251987220, 9251987221, 9251987222, 9251987223, 9251987224, 9251987225, 9251987226, 9251987227, 9251987228, 9251987229, 9251987230, 9251987231, 9251985603 ], "wikidata": "nan", "social_facility": "nan", "social_facility:for": "nan", "addr:city": "nan", "addr:housenumber": "nan", "addr:postcode": "nan", "addr:state": "nan", "addr:street": "nan", "barrier": "nan", "brand": "nan", "brand:wikidata": "nan", "brand:wikipedia": "nan", "auctioneer": "nan", "operator": "nan", "website": "nan", "ways": "nan", "type": "nan" }, "geometry": { "type": "Polygon", "coordinates": [ [ [ -84.4725241, 38.0681698 ], [ -84.4729489, 38.0686237 ], [ -84.4734818, 38.0691119 ], [ -84.4735722, 38.0692772 ], [ -84.4738516, 38.0695531 ], [ -84.4739954, 38.069609 ], [ -84.4743087, 38.0699408 ], [ -84.4743313, 38.0700565 ], [ -84.4746155, 38.070424 ], [ -84.4747512, 38.07041 ], [ -84.4753891, 38.071066 ], [ -84.4758041, 38.0716457 ], [ -84.4764079, 38.0711096 ], [ -84.4765344, 38.0710207 ], [ -84.4765684, 38.0709554 ], [ -84.4765555, 38.0708751 ], [ -84.4765024, 38.0708263 ], [ -84.4761657, 38.0706571 ], [ -84.4760875, 38.0706266 ], [ -84.4757243, 38.0703664 ], [ -84.4756168, 38.0703947 ], [ -84.4742473, 38.0693551 ], [ -84.474095, 38.0691741 ], [ -84.4738065, 38.0689185 ], [ -84.473895, 38.0688646 ], [ -84.4736927, 38.0686502 ], [ -84.4728665, 38.0679835 ], [ -84.4728258, 38.0679847 ], [ -84.4728058, 38.067975 ], [ -84.4725241, 38.0681698 ] ] ] } },
{ "type": "Feature", "properties": { "element_type": "way", "osmid": "1013509834", "landuse": "commercial", "name": "nan", "shop": "nan", "nodes": [ 9350668854, 9350668853, 9350668852, 9350668851, 9350668850, 9350668849, 9350668848, 9350668854 ], "wikidata": "nan", "social_facility": "nan", "social_facility:for": "nan", "addr:city": "nan", "addr:housenumber": "nan", "addr:postcode": "nan", "addr:state": "nan", "addr:street": "nan", "barrier": "nan", "brand": "nan", "brand:wikidata": "nan", "brand:wikipedia": "nan", "auctioneer": "nan", "operator": "nan", "website": "nan", "ways": "nan", "type": "nan" }, "geometry": { "type": "Polygon", "coordinates": [ [ [ -84.2414796, 38.0278025 ], [ -84.2400903, 38.0273419 ], [ -84.2403531, 38.0269109 ], [ -84.2403263, 38.026577 ], [ -84.2397308, 38.0262939 ], [ -84.2406803, 38.0251868 ], [ -84.2419517, 38.0258375 ], [ -84.2414796, 38.0278025 ] ] ] } },
{ "type": "Feature", "properties": { "element_type": "way", "osmid": "1027123230", "landuse": "commercial", "name": "U-Haul", "shop": "storage_rental", "nodes": [ 9469530073, 9469530074, 8285140096, 9469530075, 9469530076, 9469530077, 9469530078, 9469530079, 9469530080, 9469530081, 9469530082, 9469530083, 9469530073 ], "wikidata": "nan", "social_facility": "nan", "social_facility:for": "nan", "addr:city": "nan", "addr:housenumber": "nan", "addr:postcode": "nan", "addr:state": "nan", "addr:street": "nan", "barrier": "fence", "brand": "U-Haul", "brand:wikidata": "Q7862902", "brand:wikipedia": "en:U-Haul", "auctioneer": "nan", "operator": "nan", "website": "nan", "ways": "nan", "type": "nan" }, "geometry": { "type": "Polygon", "coordinates": [ [ [ -84.5124979, 38.0885608 ], [ -84.5142505, 38.0890539 ], [ -84.5145178, 38.0874312 ], [ -84.513484, 38.0873707 ], [ -84.5134431, 38.0878465 ], [ -84.5129717, 38.0878068 ], [ -84.5130065, 38.0879171 ], [ -84.5130051, 38.088056 ], [ -84.5129483, 38.088151 ], [ -84.5127929, 38.0882282 ], [ -84.512699, 38.0882048 ], [ -84.5125218, 38.0881298 ], [ -84.5124979, 38.0885608 ] ] ] } },
{ "type": "Feature", "properties": { "element_type": "way", "osmid": "1161585962", "landuse": "commercial", "name": "ADESA Lexington", "shop": "auctioneer", "nodes": [ 10803641695, 10803641696, 10803641697, 10803641698, 10803641699, 10803641700, 10803641701, 10803641702, 10803641703, 10803641704, 10803673405, 10803673406, 10803673407, 10803673408, 10803673409, 10803673410, 10803673411, 10803641695 ], "wikidata": "nan", "social_facility": "nan", "social_facility:for": "nan", "addr:city": "nan", "addr:housenumber": "nan", "addr:postcode": "nan", "addr:state": "nan", "addr:street": "nan", "barrier": "nan", "brand": "nan", "brand:wikidata": "nan", "brand:wikipedia": "nan", "auctioneer": "vehicles", "operator": "ADESA, Inc.", "website": "https://www.adesa.com/auction_location/adesa-lexington/", "ways": "nan", "type": "nan" }, "geometry": { "type": "Polygon", "coordinates": [ [ [ -84.3819592, 37.9592562 ], [ -84.3814871, 37.9597862 ], [ -84.3827084, 37.9603931 ], [ -84.3823492, 37.960822 ], [ -84.3819849, 37.9610323 ], [ -84.3807687, 37.9618294 ], [ -84.3794036, 37.9627397 ], [ -84.3793318, 37.9627397 ], [ -84.3788597, 37.9621814 ], [ -84.378598, 37.9618011 ], [ -84.3783209, 37.9611578 ], [ -84.3768789, 37.9613115 ], [ -84.3767044, 37.9604133 ], [ -84.3776897, 37.9599561 ], [ -84.3779617, 37.9591145 ], [ -84.3791933, 37.9579655 ], [ -84.3811895, 37.9588232 ], [ -84.3819592, 37.9592562 ] ] ] } },
{ "type": "Feature", "properties": { "element_type": "relation", "osmid": "12247466", "landuse": "commercial", "name": "nan", "shop": "nan", "nodes": [ [ [ 3712561253, 10021513756, 10021513757, 3712561254, 10021513758, 10021513759, 3712561255, 10021513760, 10021513761, 10021513762, 10021513763, 3712561256, 8304880707, 3712561257, 3960705165, 9355351597, 3960705166, 9355351599, 3960705167, 3960705168, 3960705157, 3129472559, 163439165, 3443946041, 3443946042 ], [ 3443946046, 3712561112, 3712561113, 3712561114, 3712561115, 3712561116, 3960705160, 3960705161, 3960705162, 10021513753, 10021513754, 10021513755, 3712561253 ], [ 3443946042, 3443948515, 3443948514, 3443946044, 3443946045, 3443946046 ] ] ], "wikidata": "nan", "social_facility": "nan", "social_facility:for": "nan", "addr:city": "nan", "addr:housenumber": "nan", "addr:postcode": "nan", "addr:state": "nan", "addr:street": "nan", "barrier": "nan", "brand": "nan", "brand:wikidata": "nan", "brand:wikipedia": "nan", "auctioneer": "nan", "operator": "nan", "website": "nan", "ways": [ 392877166, 901471833, 901471834 ], "type": "multipolygon" }, "geometry": { "type": "Polygon", "coordinates": [ [ [ -84.5522656, 38.0202198 ], [ -84.5510759, 38.0207759 ], [ -84.5506909, 38.0204921 ], [ -84.5506125, 38.0203981 ], [ -84.5504381, 38.020548 ], [ -84.5492248, 38.0197843 ], [ -84.5454523, 38.0229773 ], [ -84.542935, 38.021662 ], [ -84.5443757, 38.0205427 ], [ -84.545763, 38.019465 ], [ -84.5467513, 38.0186961 ], [ -84.5476682, 38.0180172 ], [ -84.5477744, 38.0179431 ], [ -84.548004, 38.017783 ], [ -84.5486543, 38.0173526 ], [ -84.548782, 38.017268 ], [ -84.5488757, 38.0173702 ], [ -84.5490002, 38.0173043 ], [ -84.5490086, 38.0172971 ], [ -84.5490195, 38.0172885 ], [ -84.5490309, 38.0172701 ], [ -84.5490447, 38.0172523 ], [ -84.5490755, 38.0172278 ], [ -84.5491552, 38.0171802 ], [ -84.5492848, 38.0171003 ], [ -84.5494836, 38.0169788 ], [ -84.5496508, 38.0168822 ], [ -84.5497786, 38.0168138 ], [ -84.5498765, 38.0167699 ], [ -84.5499739, 38.0167376 ], [ -84.550073, 38.016721 ], [ -84.5501346, 38.0167145 ], [ -84.5501498, 38.0167094 ], [ -84.5501567, 38.0167011 ], [ -84.5504129, 38.0168511 ], [ -84.5507304, 38.0170865 ], [ -84.5509887, 38.0173744 ], [ -84.5512815, 38.0177286 ], [ -84.5515848, 38.0182312 ], [ -84.5516893, 38.0186733 ], [ -84.5519438, 38.0195383 ], [ -84.5522656, 38.0202198 ] ] ] } }
]
}
