{
"type": "FeatureCollection",
"crs": { "type": "name", "properties": { "name": "urn:ogc:def:crs:OGC:1.3:CRS84" } },
"features": [
{ "type": "Feature", "properties": { "element_type": "way", "osmid": "155925563", "barrier": "nan", "nodes": [ 1682665048, 1682665049, 1682665032, 1682665031, 1682665030, 7882428722, 7882428723, 1682665023, 1682665021, 1682665019, 1682665027, 1682665025, 1682665029, 1682665048 ], "alt_name": "Haefling Peaking Station", "landuse": "industrial", "name": "Haefling Generating Station", "operator": "Kentucky Utilities Company", "plant:method": "combustion", "plant:output:electricity": "41.4 MW", "plant:source": "gas", "power": "plant", "ref:US:EIA": "1358", "source": "U.S. Energy Information Administration - EIA-860 - 2021", "start_date": "1970-10", "note": "nan", "addr:city": "nan", "addr:housenumber": "nan", "addr:state": "nan", "addr:street": "nan", "industrial": "nan", "addr:postcode": "nan", "end_date": "nan", "was:power": "nan", "website": "nan", "ways": "nan", "type": "nan" }, "geometry": { "type": "Polygon", "coordinates": [ [ [ -84.5185567, 38.079862 ], [ -84.519572, 38.0798635 ], [ -84.5198078, 38.079322 ], [ -84.5196822, 38.079316 ], [ -84.5196844, 38.0792313 ], [ -84.5196542, 38.0791479 ], [ -84.5196931, 38.0791204 ], [ -84.5197014, 38.0789843 ], [ -84.5195511, 38.0789215 ], [ -84.5191656, 38.0789011 ], [ -84.5191432, 38.0791644 ], [ -84.5185953, 38.0791528 ], [ -84.518539, 38.0791907 ], [ -84.5185567, 38.079862 ] ] ] } },
{ "type": "Feature", "properties": { "element_type": "way", "osmid": "318762677", "barrier": "nan", "nodes": [ 3251322356, 3251322357, 3251322358, 3251322359, 3251322360, 3251322361, 3251322356 ], "alt_name": "nan", "landuse": "industrial", "name": "The Klausing Group", "operator": "nan", "plant:method": "nan", "plant:output:electricity": "nan", "plant:source": "nan", "power": "nan", "ref:US:EIA": "nan", "source": "nan", "start_date": "nan", "note": "landscaping firm", "addr:city": "nan", "addr:housenumber": "nan", "addr:state": "nan", "addr:street": "nan", "industrial": "nan", "addr:postcode": "nan", "end_date": "nan", "was:power": "nan", "website": "nan", "ways": "nan", "type": "nan" }, "geometry": { "type": "Polygon", "coordinates": [ [ [ -84.5295882, 38.0568361 ], [ -84.5297062, 38.055949 ], [ -84.5307254, 38.0560314 ], [ -84.5305296, 38.0568487 ], [ -84.530484, 38.0568931 ], [ -84.5304223, 38.0569184 ], [ -84.5295882, 38.0568361 ] ] ] } },
{ "type": "Feature", "properties": { "element_type": "way", "osmid": "332342998", "barrier": "nan", "nodes": [ 3394038929, 3394582030, 3409053643, 3394485597, 3394485596, 3394485595, 3394038928, 3394038929 ], "alt_name": "nan", "landuse": "industrial", "name": "nan", "operator": "nan", "plant:method": "nan", "plant:output:electricity": "nan", "plant:source": "nan", "power": "nan", "ref:US:EIA": "nan", "source": "nan", "start_date": "nan", "note": "nan", "addr:city": "nan", "addr:housenumber": "nan", "addr:state": "nan", "addr:street": "nan", "industrial": "nan", "addr:postcode": "nan", "end_date": "nan", "was:power": "nan", "website": "nan", "ways": "nan", "type": "nan" }, "geometry": { "type": "Polygon", "coordinates": [ [ [ -84.5200151, 38.0248168 ], [ -84.5190376, 38.0238322 ], [ -84.5196725, 38.0225639 ], [ -84.5208599, 38.0203435 ], [ -84.5227298, 38.0212114 ], [ -84.5225824, 38.0214006 ], [ -84.5212132, 38.0231581 ], [ -84.5200151, 38.0248168 ] ] ] } },
{ "type": "Feature", "properties": { "element_type": "way", "osmid": "332358265", "barrier": "nan", "nodes": [ 3394737389, 2631996240, 2631996239, 2631996238, 3394737498, 3394737499, 3394737500, 3394737494, 3394737495, 3394737496, 3394737497, 3394737389 ], "alt_name": "nan", "landuse": "industrial", "name": "nan", "operator": "nan", "plant:method": "nan", "plant:output:electricity": "nan", "plant:source": "nan", "power": "nan", "ref:US:EIA": "nan", "source": "nan", "start_date": "nan", "note": "nan", "addr:city": "nan", "addr:housenumber": "nan", "addr:state": "nan", "addr:street": "nan", "industrial": "nan", "addr:postcode": "nan", "end_date": "nan", "was:power": "nan", "website": "nan", "ways": "nan", "type": "nan" }, "geometry": { "type": "Polygon", "coordinates": [ [ [ -84.5208386, 38.0481734 ], [ -84.5207143, 38.0487165 ], [ -84.5206339, 38.0491221 ], [ -84.5201833, 38.0491347 ], [ -84.5199314, 38.0492206 ], [ -84.5193784, 38.0493625 ], [ -84.5193039, 38.0499203 ], [ -84.5188379, 38.0499692 ], [ -84.5187633, 38.0493918 ], [ -84.5191734, 38.0493967 ], [ -84.5193163, 38.0482175 ], [ -84.5208386, 38.0481734 ] ] ] } },
{ "type": "Feature", "properties": { "element_type": "way", "osmid": "332358266", "barrier": "nan", "nodes": [ 3394737501, 2337836249, 2337836181, 3394737502, 2496336197, 10790252148, 10790252147, 2496336188, 4051765677, 7496518536, 4051765676, 3394737501 ], "alt_name": "nan", "landuse": "industrial", "name": "nan", "operator": "nan", "plant:method": "nan", "plant:output:electricity": "nan", "plant:source": "nan", "power": "nan", "ref:US:EIA": "nan", "source": "nan", "start_date": "nan", "note": "nan", "addr:city": "nan", "addr:housenumber": "nan", "addr:state": "nan", "addr:street": "nan", "industrial": "nan", "addr:postcode": "nan", "end_date": "nan", "was:power": "nan", "website": "nan", "ways": "nan", "type": "nan" }, "geometry": { "type": "Polygon", "coordinates": [ [ [ -84.5161225, 38.0499937 ], [ -84.5133194, 38.0502637 ], [ -84.5129576, 38.0483377 ], [ -84.5125808, 38.0470921 ], [ -84.5130157, 38.0471986 ], [ -84.5138263, 38.0471016 ], [ -84.5139338, 38.0469253 ], [ -84.5153236, 38.0467041 ], [ -84.5157692, 38.0485388 ], [ -84.515917, 38.0491476 ], [ -84.5160833, 38.0498323 ], [ -84.5161225, 38.0499937 ] ] ] } },
{ "type": "Feature", "properties": { "element_type": "way", "osmid": "332358267", "barrier": "nan", "nodes": [ 3394737503, 3394737504, 4076211337, 3394737505, 3394737506, 3394737507, 3394737508, 3394737503 ], "alt_name": "nan", "landuse": "industrial", "name": "nan", "operator": "nan", "plant:method": "nan", "plant:output:electricity": "nan", "plant:source": "nan", "power": "nan", "ref:US:EIA": "nan", "source": "nan", "start_date": "nan", "note": "nan", "addr:city": "nan", "addr:housenumber": "nan", "addr:state": "nan", "addr:street": "nan", "industrial": "nan", "addr:postcode": "nan", "end_date": "nan", "was:power": "nan", "website": "nan", "ways": "nan", "type": "nan" }, "geometry": { "type": "Polygon", "coordinates": [ [ [ -84.5182413, 38.0499643 ], [ -84.5173831, 38.0469093 ], [ -84.5170756, 38.0469516 ], [ -84.5156024, 38.0471539 ], [ -84.5159299, 38.0484475 ], [ -84.5163893, 38.0483968 ], [ -84.5167128, 38.0499252 ], [ -84.5182413, 38.0499643 ] ] ] } },
{ "type": "Feature", "properties": { "element_type": "way", "osmid": "332358269", "barrier": "nan", "nodes": [ 3394737510, 3394737511, 3394737512, 3394737513, 3394737514, 3394737515, 3394737516, 3394737517, 3394737518, 3394737519, 3394737520, 3394737521, 3394737522, 3394737523, 3394737524, 3394737525, 3394737526, 3394737527, 3394737528, 3394737510 ], "alt_name": "nan", "landuse": "industrial", "name": "nan", "operator": "nan", "plant:method": "nan", "plant:output:electricity": "nan", "plant:source": "nan", "power": "nan", "ref:US:EIA": "nan", "source": "nan", "start_date": "nan", "note": "nan", "addr:city": "nan", "addr:housenumber": "nan", "addr:state": "nan", "addr:street": "nan", "industrial": "nan", "addr:postcode": "nan", "end_date": "nan", "was:power": "nan", "website": "nan", "ways": "nan", "type": "nan" }, "geometry": { "type": "Polygon", "coordinates": [ [ [ -84.5261574, 38.0496365 ], [ -84.5261823, 38.0501454 ], [ -84.5264743, 38.0501307 ], [ -84.5265302, 38.0503264 ], [ -84.5266732, 38.0503802 ], [ -84.5268596, 38.0513735 ], [ -84.5264433, 38.0514077 ], [ -84.5265116, 38.0518432 ], [ -84.5265489, 38.0519509 ], [ -84.5269528, 38.0519949 ], [ -84.5269217, 38.0523325 ], [ -84.5257163, 38.0520683 ], [ -84.5246351, 38.0519509 ], [ -84.523933, 38.05199 ], [ -84.5238025, 38.0518921 ], [ -84.5235788, 38.0516524 ], [ -84.5234421, 38.0513197 ], [ -84.5233613, 38.0509527 ], [ -84.5233924, 38.0498811 ], [ -84.5261574, 38.0496365 ] ] ] } },
{ "type": "Feature", "properties": { "element_type": "way", "osmid": "332358270", "barrier": "nan", "nodes": [ 3394737529, 3394737530, 3394737531, 3394737532, 4079447727, 4079447728, 3394737535, 3394737536, 3394737563, 3394737537, 3394737547, 3394737546, 3394737538, 3394737539, 3394737540, 3394737541, 3394737542, 3394737543, 3394737544, 3394737545, 3394737529 ], "alt_name": "nan", "landuse": "industrial", "name": "nan", "operator": "nan", "plant:method": "nan", "plant:output:electricity": "nan", "plant:source": "nan", "power": "nan", "ref:US:EIA": "nan", "source": "nan", "start_date": "nan", "note": "nan", "addr:city": "nan", "addr:housenumber": "nan", "addr:state": "nan", "addr:street": "nan", "industrial": "nan", "addr:postcode": "nan", "end_date": "nan", "was:power": "nan", "website": "nan", "ways": "nan", "type": "nan" }, "geometry": { "type": "Polygon", "coordinates": [ [ [ -84.5237839, 38.0520536 ], [ -84.5229885, 38.0522346 ], [ -84.5216588, 38.0527484 ], [ -84.5199563, 38.0534334 ], [ -84.519018, 38.0537514 ], [ -84.5174336, 38.0538982 ], [ -84.5175268, 38.053497 ], [ -84.5173466, 38.0522395 ], [ -84.5172154, 38.0512605 ], [ -84.5170732, 38.0501992 ], [ -84.5190429, 38.0501258 ], [ -84.519105, 38.0504536 ], [ -84.521491, 38.0503166 ], [ -84.5215842, 38.0504585 ], [ -84.5224541, 38.0504145 ], [ -84.5229512, 38.0504096 ], [ -84.5229015, 38.0508793 ], [ -84.5231376, 38.0508744 ], [ -84.5232681, 38.0515447 ], [ -84.5236037, 38.0519166 ], [ -84.5237839, 38.0520536 ] ] ] } },
{ "type": "Feature", "properties": { "element_type": "way", "osmid": "332358275", "barrier": "nan", "nodes": [ 3394737567, 3394737568, 3394737569, 3394737570, 3394737571, 3394737572, 3394737573, 3394737574, 3394737575, 3394737576, 3394737577, 3394737578, 3394737579, 3394737580, 3394737581, 3394737582, 4051765343, 4051765344, 4051765345, 4051765369, 4051765346, 4051765348, 3394737567 ], "alt_name": "nan", "landuse": "industrial", "name": "nan", "operator": "nan", "plant:method": "nan", "plant:output:electricity": "nan", "plant:source": "nan", "power": "nan", "ref:US:EIA": "nan", "source": "nan", "start_date": "nan", "note": "nan", "addr:city": "nan", "addr:housenumber": "nan", "addr:state": "nan", "addr:street": "nan", "industrial": "nan", "addr:postcode": "nan", "end_date": "nan", "was:power": "nan", "website": "nan", "ways": "nan", "type": "nan" }, "geometry": { "type": "Polygon", "coordinates": [ [ [ -84.5133326, 38.0543043 ], [ -84.5138235, 38.0534872 ], [ -84.5135501, 38.052812 ], [ -84.5127486, 38.0525331 ], [ -84.5124627, 38.0529343 ], [ -84.5121583, 38.0528414 ], [ -84.5118973, 38.0533404 ], [ -84.5115183, 38.0530468 ], [ -84.5112759, 38.0529832 ], [ -84.511394, 38.0528022 ], [ -84.5111206, 38.0527092 ], [ -84.5108783, 38.0526505 ], [ -84.5105987, 38.052538 ], [ -84.5107478, 38.0522395 ], [ -84.5100767, 38.0519117 ], [ -84.5094492, 38.0526652 ], [ -84.5094841, 38.0526799 ], [ -84.5106176, 38.0531584 ], [ -84.5106798, 38.0531846 ], [ -84.5107289, 38.0532053 ], [ -84.5113565, 38.0534702 ], [ -84.5114416, 38.0535062 ], [ -84.5133326, 38.0543043 ] ] ] } },
{ "type": "Feature", "properties": { "element_type": "way", "osmid": "332358276", "barrier": "nan", "nodes": [ 3394737583, 11191942700, 3394737584, 11191941993, 3394737585, 3394737586, 3394737587, 3394737588, 3394737589, 3394737583 ], "alt_name": "nan", "landuse": "industrial", "name": "nan", "operator": "nan", "plant:method": "nan", "plant:output:electricity": "nan", "plant:source": "nan", "power": "nan", "ref:US:EIA": "nan", "source": "nan", "start_date": "nan", "note": "nan", "addr:city": "nan", "addr:housenumber": "nan", "addr:state": "nan", "addr:street": "nan", "industrial": "nan", "addr:postcode": "nan", "end_date": "nan", "was:power": "nan", "website": "nan", "ways": "nan", "type": "nan" }, "geometry": { "type": "Polygon", "coordinates": [ [ [ -84.5091516, 38.0527297 ], [ -84.5087886, 38.0532598 ], [ -84.508772, 38.0532841 ], [ -84.5107799, 38.0540602 ], [ -84.511133, 38.0541967 ], [ -84.5130282, 38.0549452 ], [ -84.5133637, 38.0550235 ], [ -84.5141652, 38.0550186 ], [ -84.5145505, 38.0549208 ], [ -84.5091516, 38.0527297 ] ] ] } },
{ "type": "Feature", "properties": { "element_type": "way", "osmid": "332358277", "barrier": "nan", "nodes": [ 3394737590, 4079447702, 3394737591, 3394737592, 3394737593, 3394737594, 4079447701, 3394737595, 3394737590 ], "alt_name": "nan", "landuse": "industrial", "name": "nan", "operator": "nan", "plant:method": "nan", "plant:output:electricity": "nan", "plant:source": "nan", "power": "nan", "ref:US:EIA": "nan", "source": "nan", "start_date": "nan", "note": "nan", "addr:city": "nan", "addr:housenumber": "nan", "addr:state": "nan", "addr:street": "nan", "industrial": "nan", "addr:postcode": "nan", "end_date": "nan", "was:power": "nan", "website": "nan", "ways": "nan", "type": "nan" }, "geometry": { "type": "Polygon", "coordinates": [ [ [ -84.5162903, 38.0544951 ], [ -84.5162859, 38.054137 ], [ -84.5162841, 38.053996 ], [ -84.5157062, 38.0538395 ], [ -84.5151905, 38.0536144 ], [ -84.5146251, 38.05336 ], [ -84.5149655, 38.0548011 ], [ -84.514973, 38.0548327 ], [ -84.5162903, 38.0544951 ] ] ] } },
{ "type": "Feature", "properties": { "element_type": "way", "osmid": "332358278", "barrier": "nan", "nodes": [ 3394737596, 3394737597, 3394737598, 3394737599, 3394737600, 3394737601, 3394737602, 3394737596 ], "alt_name": "nan", "landuse": "industrial", "name": "nan", "operator": "nan", "plant:method": "nan", "plant:output:electricity": "nan", "plant:source": "nan", "power": "nan", "ref:US:EIA": "nan", "source": "nan", "start_date": "nan", "note": "nan", "addr:city": "nan", "addr:housenumber": "nan", "addr:state": "nan", "addr:street": "nan", "industrial": "nan", "addr:postcode": "nan", "end_date": "nan", "was:power": "nan", "website": "nan", "ways": "nan", "type": "nan" }, "geometry": { "type": "Polygon", "coordinates": [ [ [ -84.5184029, 38.0549159 ], [ -84.5186825, 38.0540205 ], [ -84.5179742, 38.054182 ], [ -84.5173715, 38.0543385 ], [ -84.5173839, 38.0545196 ], [ -84.517825, 38.0545196 ], [ -84.5180363, 38.0548376 ], [ -84.5184029, 38.0549159 ] ] ] } },
{ "type": "Feature", "properties": { "element_type": "way", "osmid": "332358282", "barrier": "nan", "nodes": [ 3394737615, 3394737622, 3394737623, 3394737624, 3394737625, 3394737626, 3394737627, 3394737628, 3394737629, 3394737630, 3394737631, 3394737632, 3394737633, 3394737615 ], "alt_name": "nan", "landuse": "industrial", "name": "nan", "operator": "nan", "plant:method": "nan", "plant:output:electricity": "nan", "plant:source": "nan", "power": "nan", "ref:US:EIA": "nan", "source": "nan", "start_date": "nan", "note": "nan", "addr:city": "nan", "addr:housenumber": "nan", "addr:state": "nan", "addr:street": "nan", "industrial": "nan", "addr:postcode": "nan", "end_date": "nan", "was:power": "nan", "website": "nan", "ways": "nan", "type": "nan" }, "geometry": { "type": "Polygon", "coordinates": [ [ [ -84.5163516, 38.0573518 ], [ -84.5161179, 38.0581481 ], [ -84.5159303, 38.0580837 ], [ -84.5158501, 38.0571359 ], [ -84.5160507, 38.056662 ], [ -84.51583, 38.0565567 ], [ -84.5161042, 38.0560722 ], [ -84.5165054, 38.0561038 ], [ -84.5183779, 38.0567883 ], [ -84.518097, 38.0572149 ], [ -84.517562, 38.0571201 ], [ -84.5171942, 38.0572622 ], [ -84.5169454, 38.0575855 ], [ -84.5163516, 38.0573518 ] ] ] } },
{ "type": "Feature", "properties": { "element_type": "way", "osmid": "332358283", "barrier": "nan", "nodes": [ 3394737617, 3394737634, 11237299851, 11237299850, 11237299849, 11237299848, 11237299847, 3394737636, 3394737637, 3394737658, 3394737619, 3394737618, 5185114520, 3394737617 ], "alt_name": "nan", "landuse": "industrial", "name": "nan", "operator": "nan", "plant:method": "nan", "plant:output:electricity": "nan", "plant:source": "nan", "power": "nan", "ref:US:EIA": "nan", "source": "nan", "start_date": "nan", "note": "nan", "addr:city": "nan", "addr:housenumber": "nan", "addr:state": "nan", "addr:street": "nan", "industrial": "nan", "addr:postcode": "nan", "end_date": "nan", "was:power": "nan", "website": "nan", "ways": "nan", "type": "nan" }, "geometry": { "type": "Polygon", "coordinates": [ [ [ -84.5184383, 38.057754 ], [ -84.518051, 38.0576047 ], [ -84.5182328, 38.0573997 ], [ -84.5188015, 38.0575927 ], [ -84.5188779, 38.0574739 ], [ -84.5190756, 38.0575411 ], [ -84.519387, 38.0570472 ], [ -84.5214072, 38.0579099 ], [ -84.5223434, 38.0583101 ], [ -84.5221562, 38.0591315 ], [ -84.519274, 38.0579415 ], [ -84.5191522, 38.0580453 ], [ -84.5186617, 38.0578354 ], [ -84.5184383, 38.057754 ] ] ] } },
{ "type": "Feature", "properties": { "element_type": "way", "osmid": "332483263", "barrier": "nan", "nodes": [ 3393115627, 3396241850, 163457584, 163457587, 3396241803, 163457590, 3396241851, 3393115628, 3393115627 ], "alt_name": "nan", "landuse": "industrial", "name": "nan", "operator": "nan", "plant:method": "nan", "plant:output:electricity": "nan", "plant:source": "nan", "power": "nan", "ref:US:EIA": "nan", "source": "nan", "start_date": "nan", "note": "nan", "addr:city": "nan", "addr:housenumber": "nan", "addr:state": "nan", "addr:street": "nan", "industrial": "nan", "addr:postcode": "nan", "end_date": "nan", "was:power": "nan", "website": "nan", "ways": "nan", "type": "nan" }, "geometry": { "type": "Polygon", "coordinates": [ [ [ -84.5273721, 38.0492879 ], [ -84.5255363, 38.0494804 ], [ -84.52543, 38.049491 ], [ -84.525424, 38.049314 ], [ -84.5254347, 38.0489866 ], [ -84.525442, 38.048764 ], [ -84.525487, 38.0483822 ], [ -84.5273029, 38.0482286 ], [ -84.5273721, 38.0492879 ] ] ] } },
{ "type": "Feature", "properties": { "element_type": "way", "osmid": "333862588", "barrier": "nan", "nodes": [ 3409053626, 3409053627, 3409053628, 3409053629, 3409053630, 3394485616, 3409053631, 3409053632, 163423867, 3409053626 ], "alt_name": "nan", "landuse": "industrial", "name": "nan", "operator": "nan", "plant:method": "nan", "plant:output:electricity": "nan", "plant:source": "nan", "power": "nan", "ref:US:EIA": "nan", "source": "nan", "start_date": "nan", "note": "nan", "addr:city": "nan", "addr:housenumber": "nan", "addr:state": "nan", "addr:street": "nan", "industrial": "nan", "addr:postcode": "nan", "end_date": "nan", "was:power": "nan", "website": "nan", "ways": "nan", "type": "nan" }, "geometry": { "type": "Polygon", "coordinates": [ [ [ -84.530539, 38.0027967 ], [ -84.5298532, 38.0026445 ], [ -84.529348, 38.002256 ], [ -84.5288796, 38.0020036 ], [ -84.526612, 38.001586 ], [ -84.5265011, 38.0033486 ], [ -84.5288772, 38.0040731 ], [ -84.5289413, 38.0038487 ], [ -84.529865, 38.004115 ], [ -84.530539, 38.0027967 ] ] ] } },
{ "type": "Feature", "properties": { "element_type": "way", "osmid": "352874272", "barrier": "nan", "nodes": [ 3586533807, 3586533808, 3586533809, 3586533810, 3586533811, 3586533812, 3586533813, 3586533814, 3586533815, 3586533816, 3586533817, 3586533818, 3586533819, 3586533820, 3586533821, 3586533822, 3586533823, 3586533824, 3586533807 ], "alt_name": "nan", "landuse": "industrial", "name": "City Hall, Nicholasville Utilities", "operator": "nan", "plant:method": "nan", "plant:output:electricity": "nan", "plant:source": "nan", "power": "nan", "ref:US:EIA": "nan", "source": "nan", "start_date": "nan", "note": "nan", "addr:city": "nan", "addr:housenumber": "nan", "addr:state": "nan", "addr:street": "nan", "industrial": "nan", "addr:postcode": "nan", "end_date": "nan", "was:power": "nan", "website": "nan", "ways": "nan", "type": "nan" }, "geometry": { "type": "Polygon", "coordinates": [ [ [ -84.570412, 37.8868966 ], [ -84.5705891, 37.8864436 ], [ -84.5711792, 37.8865706 ], [ -84.5730567, 37.8881159 ], [ -84.5735824, 37.8884208 ], [ -84.5734, 37.8887552 ], [ -84.5730567, 37.8889457 ], [ -84.5728475, 37.8890431 ], [ -84.5730352, 37.8886621 ], [ -84.572944, 37.8883954 ], [ -84.5725203, 37.8882599 ], [ -84.5725846, 37.8880228 ], [ -84.5718712, 37.8875148 ], [ -84.5717531, 37.8875529 ], [ -84.5716405, 37.8875613 ], [ -84.5710289, 37.887392 ], [ -84.5709538, 37.8873708 ], [ -84.5710665, 37.8870787 ], [ -84.570412, 37.8868966 ] ] ] } },
{ "type": "Feature", "properties": { "element_type": "way", "osmid": "368785758", "barrier": "nan", "nodes": [ 3726298761, 3726298762, 1580436223, 1580436173, 1580436206, 3726298763, 3726298764, 3726298761 ], "alt_name": "nan", "landuse": "industrial", "name": "nan", "operator": "nan", "plant:method": "nan", "plant:output:electricity": "nan", "plant:source": "nan", "power": "nan", "ref:US:EIA": "nan", "source": "nan", "start_date": "nan", "note": "nan", "addr:city": "nan", "addr:housenumber": "nan", "addr:state": "nan", "addr:street": "nan", "industrial": "nan", "addr:postcode": "nan", "end_date": "nan", "was:power": "nan", "website": "nan", "ways": "nan", "type": "nan" }, "geometry": { "type": "Polygon", "coordinates": [ [ [ -84.5157728, 38.0603834 ], [ -84.5153542, 38.0582447 ], [ -84.5151563, 38.0581867 ], [ -84.5140351, 38.0586133 ], [ -84.513704, 38.0592284 ], [ -84.5146729, 38.0598187 ], [ -84.5150967, 38.0599919 ], [ -84.5157728, 38.0603834 ] ] ] } },
{ "type": "Feature", "properties": { "element_type": "way", "osmid": "368785760", "barrier": "nan", "nodes": [ 3726298765, 3726298766, 3726298767, 3726298768, 3726298769, 3726298770, 3726298771, 4077557805, 3726298772, 3726298773, 8374135818, 3726298774, 3726298775, 3726298776, 3726298777, 3726298778, 3154139621, 3154139620, 3154139608, 3726298779, 3154139607, 3227630867, 3726298780, 3726298781, 3227630870, 3227630869, 163525205, 163525202, 163525200, 163525197, 163525194, 163525191, 3726298782, 3726298783, 3726298784, 3726298785, 3726298786, 3726298787, 3726298765 ], "alt_name": "nan", "landuse": "industrial", "name": "nan", "operator": "nan", "plant:method": "nan", "plant:output:electricity": "nan", "plant:source": "nan", "power": "nan", "ref:US:EIA": "nan", "source": "nan", "start_date": "nan", "note": "nan", "addr:city": "nan", "addr:housenumber": "nan", "addr:state": "nan", "addr:street": "nan", "industrial": "nan", "addr:postcode": "nan", "end_date": "nan", "was:power": "nan", "website": "nan", "ways": "nan", "type": "nan" }, "geometry": { "type": "Polygon", "coordinates": [ [ [ -84.5196575, 38.0632093 ], [ -84.5183783, 38.0642369 ], [ -84.5185176, 38.0651892 ], [ -84.5179972, 38.065243 ], [ -84.5181284, 38.0661704 ], [ -84.5188917, 38.0706149 ], [ -84.5194486, 38.0705669 ], [ -84.5196281, 38.0720737 ], [ -84.5198859, 38.07396 ], [ -84.5199968, 38.0748346 ], [ -84.5185745, 38.0746849 ], [ -84.5166119, 38.0744784 ], [ -84.5146976, 38.0742866 ], [ -84.5134316, 38.0741852 ], [ -84.5135764, 38.0733449 ], [ -84.5140592, 38.0733153 ], [ -84.514079, 38.0734134 ], [ -84.5142823, 38.0735153 ], [ -84.5142762, 38.0736123 ], [ -84.5151612, 38.0735893 ], [ -84.5159752, 38.0735682 ], [ -84.5159468, 38.0733789 ], [ -84.5179615, 38.073386 ], [ -84.517538, 38.0706714 ], [ -84.5172105, 38.0685717 ], [ -84.5131178, 38.0648118 ], [ -84.513593, 38.064403 ], [ -84.513814, 38.064185 ], [ -84.514072, 38.063912 ], [ -84.514174, 38.063784 ], [ -84.514314, 38.063576 ], [ -84.51505, 38.062101 ], [ -84.5152072, 38.0627191 ], [ -84.5155827, 38.0624192 ], [ -84.5163015, 38.06236 ], [ -84.5162157, 38.0619292 ], [ -84.5160172, 38.0609789 ], [ -84.5160011, 38.0608522 ], [ -84.5196575, 38.0632093 ] ] ] } },
{ "type": "Feature", "properties": { "element_type": "way", "osmid": "396776441", "barrier": "nan", "nodes": [ 3996138121, 3996138122, 3996138123, 3996138124, 3996138125, 3996138126, 3996138127, 3996138128, 3996138129, 3996138130, 3996138131, 3996138132, 3996138133, 3996138134, 3996138135, 3996138136, 3996138137, 3996138138, 3996138139, 3996138140, 3996138141, 3996138142, 3996138143, 3996138144, 3996138145, 3996138146, 3996138147, 3996138148, 3996138149, 3996138150, 3996138151, 3996138152, 3996138153, 3996138154, 3996138155, 3996138156, 3996138157, 3996138158, 3996138084, 3996138159, 3996138160, 3996138161, 3996138162, 2767900070, 3996138163, 3996138164, 3996138165, 3996138166, 3996138167, 3996138168, 2767900075, 3996138169, 3996138170, 3996138171, 3996138172, 3996138173, 3996138174, 3996138175, 3996138176, 3996138177, 3996138178, 3996138179, 3996138121 ], "alt_name": "nan", "landuse": "industrial", "name": "nan", "operator": "nan", "plant:method": "nan", "plant:output:electricity": "nan", "plant:source": "nan", "power": "nan", "ref:US:EIA": "nan", "source": "nan", "start_date": "nan", "note": "nan", "addr:city": "nan", "addr:housenumber": "nan", "addr:state": "nan", "addr:street": "nan", "industrial": "nan", "addr:postcode": "nan", "end_date": "nan", "was:power": "nan", "website": "nan", "ways": "nan", "type": "nan" }, "geometry": { "type": "Polygon", "coordinates": [ [ [ -84.3338416, 38.0754717 ], [ -84.3335761, 38.0761794 ], [ -84.3335054, 38.0761626 ], [ -84.3333779, 38.0764803 ], [ -84.3334204, 38.0765694 ], [ -84.3327232, 38.0783301 ], [ -84.3310633, 38.0798735 ], [ -84.3304404, 38.0802552 ], [ -84.3273932, 38.0807873 ], [ -84.3234753, 38.0821384 ], [ -84.3213411, 38.0829101 ], [ -84.3214544, 38.083158 ], [ -84.3205625, 38.0837263 ], [ -84.3164464, 38.0880107 ], [ -84.3161456, 38.0896792 ], [ -84.3159828, 38.0897823 ], [ -84.3157917, 38.0897823 ], [ -84.3157846, 38.0898909 ], [ -84.3159686, 38.0898965 ], [ -84.3161421, 38.0900246 ], [ -84.3163013, 38.0910413 ], [ -84.3136505, 38.0906931 ], [ -84.3108226, 38.0863783 ], [ -84.3055422, 38.0880162 ], [ -84.2997343, 38.0818181 ], [ -84.301196, 38.0806202 ], [ -84.3014155, 38.0809155 ], [ -84.3017942, 38.0805812 ], [ -84.3016101, 38.0802663 ], [ -84.3047175, 38.0776671 ], [ -84.3048131, 38.0777757 ], [ -84.3048874, 38.0777256 ], [ -84.304806, 38.0776337 ], [ -84.3069437, 38.0759258 ], [ -84.3126206, 38.0756834 ], [ -84.3146167, 38.0745913 ], [ -84.316588, 38.0734713 ], [ -84.316765, 38.0735019 ], [ -84.3167942, 38.0734782 ], [ -84.3168287, 38.0734629 ], [ -84.316765, 38.0734016 ], [ -84.3177205, 38.0727831 ], [ -84.3177807, 38.0728444 ], [ -84.3179234, 38.0727551 ], [ -84.3181205, 38.0726327 ], [ -84.3181028, 38.0725881 ], [ -84.3181346, 38.0725602 ], [ -84.3183965, 38.072694 ], [ -84.3186478, 38.0728723 ], [ -84.3189168, 38.0731035 ], [ -84.319037, 38.0730213 ], [ -84.3192141, 38.0729001 ], [ -84.3188389, 38.0726828 ], [ -84.318347, 38.0724822 ], [ -84.3182656, 38.0724321 ], [ -84.3190619, 38.0719445 ], [ -84.3192566, 38.0720225 ], [ -84.319299, 38.0719751 ], [ -84.3234611, 38.0729921 ], [ -84.3235177, 38.0729531 ], [ -84.3300015, 38.0745272 ], [ -84.3300086, 38.0745746 ], [ -84.3338416, 38.0754717 ] ] ] } },
{ "type": "Feature", "properties": { "element_type": "way", "osmid": "402576465", "barrier": "fence", "nodes": [ 4049710064, 4049710072, 4049710215, 4049710202, 4049710064 ], "alt_name": "nan", "landuse": "industrial", "name": "nan", "operator": "nan", "plant:method": "nan", "plant:output:electricity": "nan", "plant:source": "nan", "power": "nan", "ref:US:EIA": "nan", "source": "nan", "start_date": "nan", "note": "nan", "addr:city": "Lexington", "addr:housenumber": "128", "addr:state": "KY", "addr:street": "Rojay Drive", "industrial": "nan", "addr:postcode": "nan", "end_date": "nan", "was:power": "nan", "website": "nan", "ways": "nan", "type": "nan" }, "geometry": { "type": "Polygon", "coordinates": [ [ [ -84.5289557, 37.9852827 ], [ -84.5291108, 37.9853261 ], [ -84.5290333, 37.9854997 ], [ -84.5288781, 37.9854563 ], [ -84.5289557, 37.9852827 ] ] ] } },
{ "type": "Feature", "properties": { "element_type": "way", "osmid": "403396140", "barrier": "nan", "nodes": [ 4057422557, 4057422514, 4057422531, 4057422556, 4057422606, 4057422751, 4049737469, 4057422557 ], "alt_name": "nan", "landuse": "industrial", "name": "nan", "operator": "nan", "plant:method": "nan", "plant:output:electricity": "nan", "plant:source": "nan", "power": "nan", "ref:US:EIA": "nan", "source": "nan", "start_date": "nan", "note": "nan", "addr:city": "Lexington", "addr:housenumber": "630", "addr:state": "KY", "addr:street": "Magnolia Avenue", "industrial": "nan", "addr:postcode": "nan", "end_date": "nan", "was:power": "nan", "website": "nan", "ways": "nan", "type": "nan" }, "geometry": { "type": "Polygon", "coordinates": [ [ [ -84.4744434, 38.0436111 ], [ -84.4740673, 38.0430471 ], [ -84.4734503, 38.0432985 ], [ -84.4729944, 38.0436048 ], [ -84.4729729, 38.0439026 ], [ -84.4735281, 38.0444117 ], [ -84.474247, 38.0438393 ], [ -84.4744434, 38.0436111 ] ] ] } },
{ "type": "Feature", "properties": { "element_type": "way", "osmid": "635446967", "barrier": "nan", "nodes": [ 5994272892, 9177148119, 5994272885, 5994272887, 5994272889, 5994272891, 5994270583, 5994270584, 5994272886, 5994272888, 5994272890, 5994272892 ], "alt_name": "nan", "landuse": "industrial", "name": "nan", "operator": "nan", "plant:method": "nan", "plant:output:electricity": "nan", "plant:source": "nan", "power": "nan", "ref:US:EIA": "nan", "source": "nan", "start_date": "nan", "note": "nan", "addr:city": "nan", "addr:housenumber": "nan", "addr:state": "nan", "addr:street": "nan", "industrial": "scrap_yard", "addr:postcode": "nan", "end_date": "nan", "was:power": "nan", "website": "nan", "ways": "nan", "type": "nan" }, "geometry": { "type": "Polygon", "coordinates": [ [ [ -84.5482314, 38.218635 ], [ -84.546494, 38.2187355 ], [ -84.5466705, 38.2177535 ], [ -84.5466065, 38.2173624 ], [ -84.5465081, 38.2171756 ], [ -84.5460905, 38.2167854 ], [ -84.5461439, 38.2164482 ], [ -84.5462573, 38.2158694 ], [ -84.5471765, 38.2160238 ], [ -84.5475905, 38.2160042 ], [ -84.5478957, 38.2163052 ], [ -84.5482314, 38.218635 ] ] ] } },
{ "type": "Feature", "properties": { "element_type": "way", "osmid": "667564334", "barrier": "nan", "nodes": [ 6250467619, 6250467618, 6250467617, 6250467616, 6250467615, 6250467614, 6250467613, 6250467612, 6250467611, 6250467610, 6250467619 ], "alt_name": "nan", "landuse": "industrial", "name": "nan", "operator": "nan", "plant:method": "nan", "plant:output:electricity": "nan", "plant:source": "nan", "power": "nan", "ref:US:EIA": "nan", "source": "nan", "start_date": "nan", "note": "nan", "addr:city": "nan", "addr:housenumber": "nan", "addr:state": "nan", "addr:street": "nan", "industrial": "nan", "addr:postcode": "nan", "end_date": "nan", "was:power": "nan", "website": "nan", "ways": "nan", "type": "nan" }, "geometry": { "type": "Polygon", "coordinates": [ [ [ -84.4354838, 38.0149386 ], [ -84.4355375, 38.0144018 ], [ -84.4367552, 38.0145075 ], [ -84.4388098, 38.013286 ], [ -84.4377208, 38.012314 ], [ -84.4371414, 38.011625 ], [ -84.4364172, 38.0095624 ], [ -84.4322544, 38.0092708 ], [ -84.4278556, 38.0136368 ], [ -84.4284189, 38.0142539 ], [ -84.4354838, 38.0149386 ] ] ] } },
{ "type": "Feature", "properties": { "element_type": "way", "osmid": "667564335", "barrier": "nan", "nodes": [ 6250467643, 6250467642, 6250467641, 9701184493, 9701184494, 7462754065, 6250467640, 9701184495, 9701184492, 9701184490, 9701184489, 9701184488, 9701184487, 9701184486, 9701184485, 9701184484, 9701184483, 6250467639, 6250467638, 6250467637, 6250467636, 6250467635, 6250467634, 6250467633, 6250467632, 6250467631, 6250467630, 6250467629, 6250467628, 6250467627, 6250467626, 6250467625, 6250467624, 6250467623, 6250467622, 6250467621, 6250467620, 6250467643 ], "alt_name": "nan", "landuse": "industrial", "name": "nan", "operator": "nan", "plant:method": "nan", "plant:output:electricity": "nan", "plant:source": "nan", "power": "nan", "ref:US:EIA": "nan", "source": "nan", "start_date": "nan", "note": "nan", "addr:city": "nan", "addr:housenumber": "nan", "addr:state": "nan", "addr:street": "nan", "industrial": "nan", "addr:postcode": "nan", "end_date": "nan", "was:power": "nan", "website": "nan", "ways": "nan", "type": "nan" }, "geometry": { "type": "Polygon", "coordinates": [ [ [ -84.4791958, 38.0434694 ], [ -84.4789773, 38.0430809 ], [ -84.4792494, 38.0429856 ], [ -84.4792438, 38.04293 ], [ -84.4796269, 38.0429374 ], [ -84.4796235, 38.042854 ], [ -84.4796223, 38.0427988 ], [ -84.4802987, 38.0428005 ], [ -84.4805816, 38.042769 ], [ -84.4805548, 38.042578 ], [ -84.4799587, 38.0426034 ], [ -84.4799112, 38.0423578 ], [ -84.4803924, 38.0419184 ], [ -84.4801767, 38.0417969 ], [ -84.4800723, 38.0418789 ], [ -84.4799816, 38.0418206 ], [ -84.4800575, 38.0417242 ], [ -84.4797403, 38.0415365 ], [ -84.479405, 38.041433 ], [ -84.4790348, 38.0413316 ], [ -84.4785038, 38.0412514 ], [ -84.4781685, 38.041226 ], [ -84.4777957, 38.0412155 ], [ -84.4749257, 38.0414542 ], [ -84.4748747, 38.041845 ], [ -84.4747111, 38.0421977 ], [ -84.4744939, 38.042409 ], [ -84.4739038, 38.0428462 ], [ -84.4739601, 38.0429265 ], [ -84.4747165, 38.042654 ], [ -84.4748345, 38.0427374 ], [ -84.474923, 38.0432328 ], [ -84.4756418, 38.0429244 ], [ -84.4762936, 38.0428547 ], [ -84.4770741, 38.0429033 ], [ -84.4770876, 38.0430596 ], [ -84.4783777, 38.0437693 ], [ -84.4791958, 38.0434694 ] ] ] } },
{ "type": "Feature", "properties": { "element_type": "way", "osmid": "667564336", "barrier": "nan", "nodes": [ 6250467664, 6250467663, 6250467662, 6250467661, 6250467660, 6250467659, 6250467658, 6250467657, 6250467656, 6250467655, 6250467654, 6250467653, 6250467652, 6250467651, 6250467650, 6250467649, 6250467648, 6250467647, 6250467646, 6250467645, 6250467644, 6250467664 ], "alt_name": "nan", "landuse": "industrial", "name": "Trane (CLOSED)", "operator": "nan", "plant:method": "nan", "plant:output:electricity": "nan", "plant:source": "nan", "power": "nan", "ref:US:EIA": "nan", "source": "nan", "start_date": "nan", "note": "nan", "addr:city": "nan", "addr:housenumber": "nan", "addr:state": "nan", "addr:street": "nan", "industrial": "nan", "addr:postcode": "nan", "end_date": "nan", "was:power": "nan", "website": "nan", "ways": "nan", "type": "nan" }, "geometry": { "type": "Polygon", "coordinates": [ [ [ -84.5151132, 38.0779983 ], [ -84.515301, 38.0770312 ], [ -84.5154083, 38.0753463 ], [ -84.51433, 38.0752492 ], [ -84.514373, 38.0750507 ], [ -84.5100385, 38.0747298 ], [ -84.5097971, 38.0766765 ], [ -84.5090997, 38.0769679 ], [ -84.5089656, 38.0773184 ], [ -84.5093197, 38.0781313 ], [ -84.5103711, 38.0780996 ], [ -84.5104462, 38.0777364 ], [ -84.5114145, 38.0778378 ], [ -84.5115298, 38.0781482 ], [ -84.5116478, 38.0783213 ], [ -84.5119214, 38.078467 ], [ -84.5129353, 38.0788069 ], [ -84.5138016, 38.0790476 ], [ -84.5141235, 38.0790159 ], [ -84.5140618, 38.0785514 ], [ -84.5141289, 38.0779011 ], [ -84.5151132, 38.0779983 ] ] ] } },
{ "type": "Feature", "properties": { "element_type": "way", "osmid": "667564337", "barrier": "nan", "nodes": [ 6250467677, 6250467676, 6250467675, 6250467674, 6250467673, 6250467672, 6250467671, 6250467670, 6250467669, 6250467668, 6250467667, 9552339058, 9552339059, 6250467666, 6250467665, 6250467677 ], "alt_name": "nan", "landuse": "industrial", "name": "Lexmark International", "operator": "nan", "plant:method": "nan", "plant:output:electricity": "nan", "plant:source": "nan", "power": "nan", "ref:US:EIA": "nan", "source": "nan", "start_date": "nan", "note": "nan", "addr:city": "Lexington", "addr:housenumber": "nan", "addr:state": "KY", "addr:street": "nan", "industrial": "electronics", "addr:postcode": "40511", "end_date": "nan", "was:power": "nan", "website": "nan", "ways": "nan", "type": "nan" }, "geometry": { "type": "Polygon", "coordinates": [ [ [ -84.4957584, 38.0722298 ], [ -84.497695, 38.0674618 ], [ -84.4967938, 38.0672506 ], [ -84.496091, 38.0665411 ], [ -84.496268, 38.0661483 ], [ -84.4932801, 38.0639141 ], [ -84.4917297, 38.0637959 ], [ -84.4908714, 38.0640324 ], [ -84.4906622, 38.064573 ], [ -84.4894335, 38.0652781 ], [ -84.4877773, 38.0663559 ], [ -84.4877736, 38.0667873 ], [ -84.4880741, 38.0674591 ], [ -84.4869179, 38.0724325 ], [ -84.4936609, 38.073408 ], [ -84.4957584, 38.0722298 ] ] ] } },
{ "type": "Feature", "properties": { "element_type": "way", "osmid": "667568656", "barrier": "nan", "nodes": [ 6250498004, 6250498003, 6250498002, 6250498001, 6250498000, 6250497999, 6250497998, 6250497997, 6250497996, 6250497995, 6250498004 ], "alt_name": "nan", "landuse": "industrial", "name": "Georgetown Industrial Park", "operator": "nan", "plant:method": "nan", "plant:output:electricity": "nan", "plant:source": "nan", "power": "nan", "ref:US:EIA": "nan", "source": "nan", "start_date": "nan", "note": "nan", "addr:city": "nan", "addr:housenumber": "nan", "addr:state": "nan", "addr:street": "nan", "industrial": "nan", "addr:postcode": "nan", "end_date": "nan", "was:power": "nan", "website": "nan", "ways": "nan", "type": "nan" }, "geometry": { "type": "Polygon", "coordinates": [ [ [ -84.5465058, 38.2007044 ], [ -84.5392131, 38.1982531 ], [ -84.5401643, 38.1959709 ], [ -84.5412859, 38.1937897 ], [ -84.5433913, 38.189928 ], [ -84.5448888, 38.1885738 ], [ -84.5460112, 38.1910077 ], [ -84.5475297, 38.1941477 ], [ -84.5470304, 38.1970268 ], [ -84.5466641, 38.1998529 ], [ -84.5465058, 38.2007044 ] ] ] } },
{ "type": "Feature", "properties": { "element_type": "way", "osmid": "667568657", "barrier": "nan", "nodes": [ 6250498020, 6250498014, 6250498013, 6250498012, 6250498011, 6250498010, 6250498009, 6250498008, 6250498007, 6250498006, 6250498005, 6250498015, 6250498020 ], "alt_name": "nan", "landuse": "industrial", "name": "nan", "operator": "nan", "plant:method": "nan", "plant:output:electricity": "nan", "plant:source": "nan", "power": "nan", "ref:US:EIA": "nan", "source": "nan", "start_date": "nan", "note": "nan", "addr:city": "nan", "addr:housenumber": "nan", "addr:state": "nan", "addr:street": "nan", "industrial": "nan", "addr:postcode": "nan", "end_date": "nan", "was:power": "nan", "website": "nan", "ways": "nan", "type": "nan" }, "geometry": { "type": "Polygon", "coordinates": [ [ [ -84.5433033, 38.2033075 ], [ -84.5444459, 38.201556 ], [ -84.5449662, 38.2005738 ], [ -84.54009, 38.1989887 ], [ -84.5396715, 38.199718 ], [ -84.5389634, 38.1998908 ], [ -84.5386738, 38.2004304 ], [ -84.538545, 38.2011513 ], [ -84.5385155, 38.201575 ], [ -84.5397252, 38.2020745 ], [ -84.5403153, 38.2023717 ], [ -84.5409939, 38.2028354 ], [ -84.5433033, 38.2033075 ] ] ] } },
{ "type": "Feature", "properties": { "element_type": "way", "osmid": "667568658", "barrier": "nan", "nodes": [ 6250498020, 6250498015, 6250498019, 6250498018, 6250498017, 6250498016, 6250498020 ], "alt_name": "nan", "landuse": "industrial", "name": "nan", "operator": "nan", "plant:method": "nan", "plant:output:electricity": "nan", "plant:source": "nan", "power": "nan", "ref:US:EIA": "nan", "source": "nan", "start_date": "nan", "note": "nan", "addr:city": "nan", "addr:housenumber": "nan", "addr:state": "nan", "addr:street": "nan", "industrial": "nan", "addr:postcode": "nan", "end_date": "nan", "was:power": "nan", "website": "nan", "ways": "nan", "type": "nan" }, "geometry": { "type": "Polygon", "coordinates": [ [ [ -84.5433033, 38.2033075 ], [ -84.5409939, 38.2028354 ], [ -84.5394677, 38.2025003 ], [ -84.538765, 38.20363 ], [ -84.5387435, 38.2046797 ], [ -84.54171, 38.2058895 ], [ -84.5433033, 38.2033075 ] ] ] } },
{ "type": "Feature", "properties": { "element_type": "way", "osmid": "708350832", "barrier": "nan", "nodes": [ 6656220910, 6656220917, 6656220916, 6656220915, 6656220914, 9350689276, 6656220911, 6656220910 ], "alt_name": "nan", "landuse": "industrial", "name": "nan", "operator": "nan", "plant:method": "nan", "plant:output:electricity": "nan", "plant:source": "nan", "power": "nan", "ref:US:EIA": "nan", "source": "nan", "start_date": "nan", "note": "nan", "addr:city": "nan", "addr:housenumber": "nan", "addr:state": "nan", "addr:street": "nan", "industrial": "nan", "addr:postcode": "nan", "end_date": "nan", "was:power": "nan", "website": "nan", "ways": "nan", "type": "nan" }, "geometry": { "type": "Polygon", "coordinates": [ [ [ -84.2711357, 38.2199224 ], [ -84.2696536, 38.2198788 ], [ -84.2693505, 38.2201464 ], [ -84.2690501, 38.2209345 ], [ -84.2690393, 38.2212401 ], [ -84.2695939, 38.2213207 ], [ -84.2710283, 38.2214115 ], [ -84.2711357, 38.2199224 ] ] ] } },
{ "type": "Feature", "properties": { "element_type": "way", "osmid": "708350833", "barrier": "nan", "nodes": [ 6656220911, 6656220910, 6656220924, 6656220923, 6656220922, 6656220921, 6656220920, 6656220919, 6656220918, 9350689284, 9350689283, 9350689282, 9350689281, 9350689280, 9350689279, 9350689278, 9350689277, 6656220914, 9350689276, 6656220911 ], "alt_name": "nan", "landuse": "industrial", "name": "nan", "operator": "nan", "plant:method": "nan", "plant:output:electricity": "nan", "plant:source": "nan", "power": "nan", "ref:US:EIA": "nan", "source": "nan", "start_date": "nan", "note": "nan", "addr:city": "nan", "addr:housenumber": "nan", "addr:state": "nan", "addr:street": "nan", "industrial": "nan", "addr:postcode": "nan", "end_date": "nan", "was:power": "nan", "website": "nan", "ways": "nan", "type": "nan" }, "geometry": { "type": "Polygon", "coordinates": [ [ [ -84.2710283, 38.2214115 ], [ -84.2711357, 38.2199224 ], [ -84.271279, 38.2181045 ], [ -84.2761928, 38.2185807 ], [ -84.2762518, 38.2189558 ], [ -84.2759192, 38.2216194 ], [ -84.2752299, 38.2215393 ], [ -84.274967, 38.221828 ], [ -84.2746539, 38.2231405 ], [ -84.2713211, 38.2228088 ], [ -84.2712736, 38.2229174 ], [ -84.2710054, 38.223027 ], [ -84.2687577, 38.2227362 ], [ -84.2681944, 38.2230523 ], [ -84.2675293, 38.2229722 ], [ -84.2678672, 38.2214592 ], [ -84.26857, 38.2212359 ], [ -84.2690393, 38.2212401 ], [ -84.2695939, 38.2213207 ], [ -84.2710283, 38.2214115 ] ] ] } },
{ "type": "Feature", "properties": { "element_type": "way", "osmid": "723324517", "barrier": "nan", "nodes": [ 6784532611, 6784532610, 10862279784, 6784532609, 10862279783, 10862279782, 6784532608, 6784532607, 6784532606, 6784532605, 6784532604, 6784532611 ], "alt_name": "nan", "landuse": "industrial", "name": "Dale Power Station", "operator": "East Kentucky Power Coop, Inc", "plant:method": "nan", "plant:output:electricity": "nan", "plant:source": "coal", "power": "nan", "ref:US:EIA": "1385", "source": "U.S. Energy Information Administration - EIA-860 - 2021", "start_date": "1954-12", "note": "nan", "addr:city": "nan", "addr:housenumber": "nan", "addr:state": "nan", "addr:street": "nan", "industrial": "nan", "addr:postcode": "nan", "end_date": "2016-04", "was:power": "plant", "website": "nan", "ways": "nan", "type": "nan" }, "geometry": { "type": "Polygon", "coordinates": [ [ [ -84.2651635, 37.8813318 ], [ -84.2646457, 37.8796398 ], [ -84.2636452, 37.879795 ], [ -84.2626524, 37.8799018 ], [ -84.2622109, 37.8799136 ], [ -84.2617755, 37.8799082 ], [ -84.2609608, 37.8798393 ], [ -84.2611295, 37.8802225 ], [ -84.2622453, 37.8816493 ], [ -84.2631841, 37.8823056 ], [ -84.264198, 37.8819034 ], [ -84.2651635, 37.8813318 ] ] ] } },
{ "type": "Feature", "properties": { "element_type": "way", "osmid": "845261542", "barrier": "nan", "nodes": [ 7886102580, 7886102579, 7886102578, 7886102577, 7886102576, 7886102575, 7886102574, 7886102573, 7886102572, 7886102571, 7886102570, 7886102569, 7886102568, 7886102567, 7886102580 ], "alt_name": "nan", "landuse": "industrial", "name": "City of Paris Power Plant", "operator": "City of Paris", "plant:method": "combustion", "plant:output:electricity": "11.5 MW", "plant:source": "oil", "power": "plant", "ref:US:EIA": "1376", "source": "U.S. Energy Information Administration - EIA-860 - 2021", "start_date": "1934-12", "note": "nan", "addr:city": "nan", "addr:housenumber": "nan", "addr:state": "nan", "addr:street": "nan", "industrial": "nan", "addr:postcode": "nan", "end_date": "nan", "was:power": "nan", "website": "https://www.paris.ky.gov/PowerPlant.aspx", "ways": "nan", "type": "nan" }, "geometry": { "type": "Polygon", "coordinates": [ [ [ -84.2391397, 38.2045262 ], [ -84.2386521, 38.2042773 ], [ -84.2384541, 38.2045168 ], [ -84.2382998, 38.2044381 ], [ -84.2380405, 38.2047517 ], [ -84.2382073, 38.2048369 ], [ -84.2382682, 38.2047632 ], [ -84.2383265, 38.204793 ], [ -84.2383438, 38.204772 ], [ -84.2384182, 38.20481 ], [ -84.2384405, 38.204783 ], [ -84.2385463, 38.204837 ], [ -84.2386052, 38.2047658 ], [ -84.2388418, 38.2048866 ], [ -84.2391397, 38.2045262 ] ] ] } },
{ "type": "Feature", "properties": { "element_type": "way", "osmid": "891372155", "barrier": "nan", "nodes": [ 8285137957, 11172513793, 11172513794, 8285137967, 8285137966, 8285137965, 8285137964, 8285137963, 8285137962, 8285137961, 8285137960, 8285137959, 8285137958, 8285137957 ], "alt_name": "nan", "landuse": "industrial", "name": "nan", "operator": "nan", "plant:method": "nan", "plant:output:electricity": "nan", "plant:source": "nan", "power": "nan", "ref:US:EIA": "nan", "source": "nan", "start_date": "nan", "note": "nan", "addr:city": "nan", "addr:housenumber": "nan", "addr:state": "nan", "addr:street": "nan", "industrial": "nan", "addr:postcode": "nan", "end_date": "nan", "was:power": "nan", "website": "nan", "ways": "nan", "type": "nan" }, "geometry": { "type": "Polygon", "coordinates": [ [ [ -84.2741572, 38.2010861 ], [ -84.2724403, 38.2005843 ], [ -84.2717562, 38.2003844 ], [ -84.271279, 38.2002449 ], [ -84.2709357, 38.2005611 ], [ -84.2709249, 38.2017331 ], [ -84.2714721, 38.2033307 ], [ -84.2731082, 38.2040136 ], [ -84.2730492, 38.2025382 ], [ -84.2740524, 38.2024918 ], [ -84.2740095, 38.2021335 ], [ -84.274267, 38.2021209 ], [ -84.2742723, 38.201282 ], [ -84.2741572, 38.2010861 ] ] ] } },
{ "type": "Feature", "properties": { "element_type": "way", "osmid": "891372156", "barrier": "nan", "nodes": [ 8285137968, 8285137975, 8285137974, 8285137973, 8285137972, 8285137971, 8285137970, 8285137969, 8285137968 ], "alt_name": "nan", "landuse": "industrial", "name": "nan", "operator": "nan", "plant:method": "nan", "plant:output:electricity": "nan", "plant:source": "nan", "power": "nan", "ref:US:EIA": "nan", "source": "nan", "start_date": "nan", "note": "nan", "addr:city": "nan", "addr:housenumber": "nan", "addr:state": "nan", "addr:street": "nan", "industrial": "nan", "addr:postcode": "nan", "end_date": "nan", "was:power": "nan", "website": "nan", "ways": "nan", "type": "nan" }, "geometry": { "type": "Polygon", "coordinates": [ [ [ -84.286034, 38.2135698 ], [ -84.2838424, 38.2132533 ], [ -84.283306, 38.2153143 ], [ -84.2847437, 38.2153944 ], [ -84.2854732, 38.2155209 ], [ -84.2856878, 38.2146484 ], [ -84.2860687, 38.2141342 ], [ -84.2861491, 38.2137548 ], [ -84.286034, 38.2135698 ] ] ] } },
{ "type": "Feature", "properties": { "element_type": "way", "osmid": "891372158", "barrier": "nan", "nodes": [ 8285137986, 8285137991, 8285137990, 8285137985, 8285137986 ], "alt_name": "nan", "landuse": "industrial", "name": "nan", "operator": "nan", "plant:method": "nan", "plant:output:electricity": "nan", "plant:source": "nan", "power": "nan", "ref:US:EIA": "nan", "source": "nan", "start_date": "nan", "note": "nan", "addr:city": "nan", "addr:housenumber": "nan", "addr:state": "nan", "addr:street": "nan", "industrial": "nan", "addr:postcode": "nan", "end_date": "nan", "was:power": "nan", "website": "nan", "ways": "nan", "type": "nan" }, "geometry": { "type": "Polygon", "coordinates": [ [ [ -84.5403206, 38.0588922 ], [ -84.5389527, 38.0584022 ], [ -84.5380783, 38.0602565 ], [ -84.5392759, 38.0606977 ], [ -84.5403206, 38.0588922 ] ] ] } },
{ "type": "Feature", "properties": { "element_type": "way", "osmid": "891372159", "barrier": "nan", "nodes": [ 8285137985, 8285137989, 8285137988, 8285137987, 8285137986, 8285137985 ], "alt_name": "nan", "landuse": "industrial", "name": "nan", "operator": "nan", "plant:method": "nan", "plant:output:electricity": "nan", "plant:source": "nan", "power": "nan", "ref:US:EIA": "nan", "source": "nan", "start_date": "nan", "note": "nan", "addr:city": "nan", "addr:housenumber": "nan", "addr:state": "nan", "addr:street": "nan", "industrial": "nan", "addr:postcode": "nan", "end_date": "nan", "was:power": "nan", "website": "nan", "ways": "nan", "type": "nan" }, "geometry": { "type": "Polygon", "coordinates": [ [ [ -84.5392759, 38.0606977 ], [ -84.5403367, 38.0610885 ], [ -84.5420051, 38.0581826 ], [ -84.5409644, 38.0577095 ], [ -84.5403206, 38.0588922 ], [ -84.5392759, 38.0606977 ] ] ] } },
{ "type": "Feature", "properties": { "element_type": "way", "osmid": "891372160", "barrier": "nan", "nodes": [ 8285138008, 8285137998, 8285137997, 8285137996, 8285137995, 8285137994, 8285137993, 8285137992, 8285138005, 8285138006, 8285138007, 8285138008 ], "alt_name": "nan", "landuse": "industrial", "name": "nan", "operator": "nan", "plant:method": "nan", "plant:output:electricity": "nan", "plant:source": "nan", "power": "nan", "ref:US:EIA": "nan", "source": "nan", "start_date": "nan", "note": "nan", "addr:city": "nan", "addr:housenumber": "nan", "addr:state": "nan", "addr:street": "nan", "industrial": "nan", "addr:postcode": "nan", "end_date": "nan", "was:power": "nan", "website": "nan", "ways": "nan", "type": "nan" }, "geometry": { "type": "Polygon", "coordinates": [ [ [ -84.5201826, 38.0895465 ], [ -84.520188, 38.0894114 ], [ -84.5204616, 38.0894156 ], [ -84.5204455, 38.088909 ], [ -84.520011, 38.0883601 ], [ -84.5195979, 38.0881954 ], [ -84.5192921, 38.0881405 ], [ -84.517495, 38.0882376 ], [ -84.5180181, 38.0892193 ], [ -84.5182943, 38.0892045 ], [ -84.5186242, 38.0892298 ], [ -84.5201826, 38.0895465 ] ] ] } },
{ "type": "Feature", "properties": { "element_type": "way", "osmid": "891372161", "barrier": "nan", "nodes": [ 8285138008, 8285138007, 8285138006, 8285138005, 8285138004, 8285138003, 8285138002, 8285138001, 8285138000, 8285137999, 8285138008 ], "alt_name": "nan", "landuse": "industrial", "name": "nan", "operator": "nan", "plant:method": "nan", "plant:output:electricity": "nan", "plant:source": "nan", "power": "nan", "ref:US:EIA": "nan", "source": "nan", "start_date": "nan", "note": "nan", "addr:city": "nan", "addr:housenumber": "nan", "addr:state": "nan", "addr:street": "nan", "industrial": "nan", "addr:postcode": "nan", "end_date": "nan", "was:power": "nan", "website": "nan", "ways": "nan", "type": "nan" }, "geometry": { "type": "Polygon", "coordinates": [ [ [ -84.5201826, 38.0895465 ], [ -84.5186242, 38.0892298 ], [ -84.5182943, 38.0892045 ], [ -84.5180181, 38.0892193 ], [ -84.5182139, 38.0896964 ], [ -84.5182943, 38.0903191 ], [ -84.5204133, 38.0909651 ], [ -84.5207298, 38.0902178 ], [ -84.520601, 38.089804 ], [ -84.5202684, 38.0897407 ], [ -84.5201826, 38.0895465 ] ] ] } },
{ "type": "Feature", "properties": { "element_type": "way", "osmid": "891372162", "barrier": "nan", "nodes": [ 8285138012, 8285138011, 8285138010, 8285138009, 8285138012 ], "alt_name": "nan", "landuse": "industrial", "name": "nan", "operator": "nan", "plant:method": "nan", "plant:output:electricity": "nan", "plant:source": "nan", "power": "nan", "ref:US:EIA": "nan", "source": "nan", "start_date": "nan", "note": "nan", "addr:city": "nan", "addr:housenumber": "nan", "addr:state": "nan", "addr:street": "nan", "industrial": "nan", "addr:postcode": "nan", "end_date": "nan", "was:power": "nan", "website": "nan", "ways": "nan", "type": "nan" }, "geometry": { "type": "Polygon", "coordinates": [ [ [ -84.5050169, 38.0937854 ], [ -84.5057924, 38.0921996 ], [ -84.5043366, 38.0917587 ], [ -84.5035611, 38.0933445 ], [ -84.5050169, 38.0937854 ] ] ] } },
{ "type": "Feature", "properties": { "element_type": "way", "osmid": "891372163", "barrier": "nan", "nodes": [ 8285140022, 8285140021, 8285140020, 8285140019, 8285140018, 8285140017, 8285138016, 8285138015, 8285138014, 8285138013, 8285140022 ], "alt_name": "nan", "landuse": "industrial", "name": "nan", "operator": "nan", "plant:method": "nan", "plant:output:electricity": "nan", "plant:source": "nan", "power": "nan", "ref:US:EIA": "nan", "source": "nan", "start_date": "nan", "note": "nan", "addr:city": "nan", "addr:housenumber": "nan", "addr:state": "nan", "addr:street": "nan", "industrial": "nan", "addr:postcode": "nan", "end_date": "nan", "was:power": "nan", "website": "nan", "ways": "nan", "type": "nan" }, "geometry": { "type": "Polygon", "coordinates": [ [ [ -84.5067179, 38.1013968 ], [ -84.5021225, 38.099792 ], [ -84.5033392, 38.0972726 ], [ -84.5042114, 38.0975733 ], [ -84.5060849, 38.0986233 ], [ -84.5068145, 38.0989146 ], [ -84.5074314, 38.0989273 ], [ -84.507418, 38.0995088 ], [ -84.5073268, 38.1000797 ], [ -84.5072034, 38.1004977 ], [ -84.5067179, 38.1013968 ] ] ] } },
{ "type": "Feature", "properties": { "element_type": "way", "osmid": "891372164", "barrier": "nan", "nodes": [ 8285140032, 8285140031, 8285140030, 8285140029, 8285140028, 8285140027, 8285140026, 8285140025, 8285140024, 8285140023, 8285140032 ], "alt_name": "nan", "landuse": "industrial", "name": "nan", "operator": "nan", "plant:method": "nan", "plant:output:electricity": "nan", "plant:source": "nan", "power": "nan", "ref:US:EIA": "nan", "source": "nan", "start_date": "nan", "note": "nan", "addr:city": "nan", "addr:housenumber": "nan", "addr:state": "nan", "addr:street": "nan", "industrial": "nan", "addr:postcode": "nan", "end_date": "nan", "was:power": "nan", "website": "nan", "ways": "nan", "type": "nan" }, "geometry": { "type": "Polygon", "coordinates": [ [ [ -84.5198178, 38.0985516 ], [ -84.5205474, 38.0990455 ], [ -84.5216739, 38.1000249 ], [ -84.5218563, 38.1003457 ], [ -84.5224142, 38.1000671 ], [ -84.5231089, 38.0988228 ], [ -84.523015, 38.0985769 ], [ -84.5211214, 38.0979057 ], [ -84.5212394, 38.0975806 ], [ -84.5204221, 38.0973315 ], [ -84.5198178, 38.0985516 ] ] ] } },
{ "type": "Feature", "properties": { "element_type": "way", "osmid": "891372165", "barrier": "nan", "nodes": [ 8285140037, 8285140036, 8285140035, 8285140034, 8285140033, 8285140032, 8285140023, 8285140037 ], "alt_name": "nan", "landuse": "industrial", "name": "nan", "operator": "nan", "plant:method": "nan", "plant:output:electricity": "nan", "plant:source": "nan", "power": "nan", "ref:US:EIA": "nan", "source": "nan", "start_date": "nan", "note": "nan", "addr:city": "nan", "addr:housenumber": "nan", "addr:state": "nan", "addr:street": "nan", "industrial": "nan", "addr:postcode": "nan", "end_date": "nan", "was:power": "nan", "website": "nan", "ways": "nan", "type": "nan" }, "geometry": { "type": "Polygon", "coordinates": [ [ [ -84.5204723, 38.0972302 ], [ -84.5181817, 38.0969263 ], [ -84.5183158, 38.0976313 ], [ -84.5182514, 38.0980323 ], [ -84.5189703, 38.0982223 ], [ -84.5198178, 38.0985516 ], [ -84.5204221, 38.0973315 ], [ -84.5204723, 38.0972302 ] ] ] } },
{ "type": "Feature", "properties": { "element_type": "way", "osmid": "891372166", "barrier": "nan", "nodes": [ 8285140043, 8285140042, 8285140041, 8285140040, 8285140039, 8285140038, 8285140043 ], "alt_name": "nan", "landuse": "industrial", "name": "nan", "operator": "nan", "plant:method": "nan", "plant:output:electricity": "nan", "plant:source": "nan", "power": "nan", "ref:US:EIA": "nan", "source": "nan", "start_date": "nan", "note": "nan", "addr:city": "nan", "addr:housenumber": "nan", "addr:state": "nan", "addr:street": "nan", "industrial": "nan", "addr:postcode": "nan", "end_date": "nan", "was:power": "nan", "website": "nan", "ways": "nan", "type": "nan" }, "geometry": { "type": "Polygon", "coordinates": [ [ [ -84.5179188, 38.0979605 ], [ -84.5170873, 38.0979014 ], [ -84.5158482, 38.0979732 ], [ -84.5145822, 38.0980956 ], [ -84.5143086, 38.0963901 ], [ -84.5175862, 38.0961115 ], [ -84.5179188, 38.0979605 ] ] ] } },
{ "type": "Feature", "properties": { "element_type": "way", "osmid": "891372168", "barrier": "nan", "nodes": [ 8285140052, 8285140062, 8285140061, 8285140060, 8285140059, 8285140058, 8285140057, 8285140056, 8285140055, 8285140054, 8285140053, 8285140052 ], "alt_name": "nan", "landuse": "industrial", "name": "nan", "operator": "nan", "plant:method": "nan", "plant:output:electricity": "nan", "plant:source": "nan", "power": "nan", "ref:US:EIA": "nan", "source": "nan", "start_date": "nan", "note": "nan", "addr:city": "nan", "addr:housenumber": "nan", "addr:state": "nan", "addr:street": "nan", "industrial": "nan", "addr:postcode": "nan", "end_date": "nan", "was:power": "nan", "website": "nan", "ways": "nan", "type": "nan" }, "geometry": { "type": "Polygon", "coordinates": [ [ [ -84.5036475, 38.0783985 ], [ -84.5029628, 38.0760685 ], [ -84.5029387, 38.0752978 ], [ -84.5033035, 38.075302 ], [ -84.5037273, 38.0753991 ], [ -84.5044595, 38.0755913 ], [ -84.5047921, 38.0756377 ], [ -84.5060688, 38.0762162 ], [ -84.5063907, 38.0771685 ], [ -84.506219, 38.0772276 ], [ -84.5063156, 38.0777006 ], [ -84.5036475, 38.0783985 ] ] ] } },
{ "type": "Feature", "properties": { "element_type": "way", "osmid": "891372169", "barrier": "nan", "nodes": [ 8285140063, 8285140068, 8285140067, 8285140066, 8285140065, 8285140064, 8285140063 ], "alt_name": "nan", "landuse": "industrial", "name": "nan", "operator": "nan", "plant:method": "nan", "plant:output:electricity": "nan", "plant:source": "nan", "power": "nan", "ref:US:EIA": "nan", "source": "nan", "start_date": "nan", "note": "nan", "addr:city": "nan", "addr:housenumber": "nan", "addr:state": "nan", "addr:street": "nan", "industrial": "nan", "addr:postcode": "nan", "end_date": "nan", "was:power": "nan", "website": "nan", "ways": "nan", "type": "nan" }, "geometry": { "type": "Polygon", "coordinates": [ [ [ -84.5344717, 38.0851314 ], [ -84.5352041, 38.0838898 ], [ -84.5337659, 38.0833641 ], [ -84.5328099, 38.0849847 ], [ -84.5338297, 38.0852863 ], [ -84.5342159, 38.0851639 ], [ -84.5344717, 38.0851314 ] ] ] } },
{ "type": "Feature", "properties": { "element_type": "way", "osmid": "891372170", "barrier": "nan", "nodes": [ 8285140074, 8285140073, 8285140072, 8285140071, 8285140070, 8285140069, 8285140074 ], "alt_name": "nan", "landuse": "industrial", "name": "nan", "operator": "nan", "plant:method": "nan", "plant:output:electricity": "nan", "plant:source": "nan", "power": "nan", "ref:US:EIA": "nan", "source": "nan", "start_date": "nan", "note": "nan", "addr:city": "nan", "addr:housenumber": "nan", "addr:state": "nan", "addr:street": "nan", "industrial": "nan", "addr:postcode": "nan", "end_date": "nan", "was:power": "nan", "website": "nan", "ways": "nan", "type": "nan" }, "geometry": { "type": "Polygon", "coordinates": [ [ [ -84.5387176, 38.0788673 ], [ -84.5379324, 38.078332 ], [ -84.5378889, 38.0783715 ], [ -84.5369, 38.0776975 ], [ -84.5381641, 38.0756631 ], [ -84.5404601, 38.0771833 ], [ -84.5387176, 38.0788673 ] ] ] } },
{ "type": "Feature", "properties": { "element_type": "way", "osmid": "891372171", "barrier": "nan", "nodes": [ 8285140086, 8285140085, 8285140084, 8285140083, 8285140082, 8285140081, 8285140080, 8285140079, 8285140078, 8285140077, 8285140076, 8285140075, 8285140086 ], "alt_name": "nan", "landuse": "industrial", "name": "nan", "operator": "nan", "plant:method": "nan", "plant:output:electricity": "nan", "plant:source": "nan", "power": "nan", "ref:US:EIA": "nan", "source": "nan", "start_date": "nan", "note": "nan", "addr:city": "nan", "addr:housenumber": "nan", "addr:state": "nan", "addr:street": "nan", "industrial": "nan", "addr:postcode": "nan", "end_date": "nan", "was:power": "nan", "website": "nan", "ways": "nan", "type": "nan" }, "geometry": { "type": "Polygon", "coordinates": [ [ [ -84.5265663, 38.0817564 ], [ -84.5264375, 38.0815495 ], [ -84.5266628, 38.0803883 ], [ -84.5269203, 38.0800631 ], [ -84.5280898, 38.076685 ], [ -84.5261264, 38.075984 ], [ -84.5251608, 38.0758066 ], [ -84.5242757, 38.0804347 ], [ -84.5239806, 38.0804305 ], [ -84.5238143, 38.0815748 ], [ -84.5257133, 38.0818324 ], [ -84.5259118, 38.0819971 ], [ -84.5265663, 38.0817564 ] ] ] } },
{ "type": "Feature", "properties": { "element_type": "way", "osmid": "891372172", "barrier": "nan", "nodes": [ 8285140092, 8285140091, 8285140090, 8285140089, 8285140088, 8285140087, 8285140092 ], "alt_name": "nan", "landuse": "industrial", "name": "nan", "operator": "nan", "plant:method": "nan", "plant:output:electricity": "nan", "plant:source": "nan", "power": "nan", "ref:US:EIA": "nan", "source": "nan", "start_date": "nan", "note": "nan", "addr:city": "nan", "addr:housenumber": "nan", "addr:state": "nan", "addr:street": "nan", "industrial": "nan", "addr:postcode": "nan", "end_date": "nan", "was:power": "nan", "website": "nan", "ways": "nan", "type": "nan" }, "geometry": { "type": "Polygon", "coordinates": [ [ [ -84.5220924, 38.0756715 ], [ -84.5214164, 38.0793917 ], [ -84.524045, 38.0801011 ], [ -84.5242167, 38.080042 ], [ -84.5250052, 38.0759291 ], [ -84.522146, 38.0756124 ], [ -84.5220924, 38.0756715 ] ] ] } },
{ "type": "Feature", "properties": { "element_type": "way", "osmid": "891372173", "barrier": "nan", "nodes": [ 8285140096, 8285140095, 8285140094, 8285140093, 9469530075, 8285140096 ], "alt_name": "nan", "landuse": "industrial", "name": "nan", "operator": "nan", "plant:method": "nan", "plant:output:electricity": "nan", "plant:source": "nan", "power": "nan", "ref:US:EIA": "nan", "source": "nan", "start_date": "nan", "note": "nan", "addr:city": "nan", "addr:housenumber": "nan", "addr:state": "nan", "addr:street": "nan", "industrial": "nan", "addr:postcode": "nan", "end_date": "nan", "was:power": "nan", "website": "nan", "ways": "nan", "type": "nan" }, "geometry": { "type": "Polygon", "coordinates": [ [ [ -84.5145178, 38.0874312 ], [ -84.5147538, 38.0862448 ], [ -84.5131445, 38.0861054 ], [ -84.5129299, 38.0873383 ], [ -84.513484, 38.0873707 ], [ -84.5145178, 38.0874312 ] ] ] } },
{ "type": "Feature", "properties": { "element_type": "way", "osmid": "891372174", "barrier": "nan", "nodes": [ 8285140101, 8285140105, 8285140097, 8285140098, 8285140099, 8285140100, 8285140102, 8285140101 ], "alt_name": "nan", "landuse": "industrial", "name": "nan", "operator": "nan", "plant:method": "nan", "plant:output:electricity": "nan", "plant:source": "nan", "power": "nan", "ref:US:EIA": "nan", "source": "nan", "start_date": "nan", "note": "nan", "addr:city": "nan", "addr:housenumber": "nan", "addr:state": "nan", "addr:street": "nan", "industrial": "nan", "addr:postcode": "nan", "end_date": "nan", "was:power": "nan", "website": "nan", "ways": "nan", "type": "nan" }, "geometry": { "type": "Polygon", "coordinates": [ [ [ -84.5178079, 38.0985532 ], [ -84.5181622, 38.098264 ], [ -84.5177096, 38.0981716 ], [ -84.5169532, 38.0981336 ], [ -84.5152335, 38.0982472 ], [ -84.5146375, 38.0995134 ], [ -84.517028, 38.1002101 ], [ -84.5178079, 38.0985532 ] ] ] } },
{ "type": "Feature", "properties": { "element_type": "way", "osmid": "891372175", "barrier": "nan", "nodes": [ 8285140107, 8285140106, 8285140105, 8285140104, 8285140103, 8285140107 ], "alt_name": "nan", "landuse": "industrial", "name": "nan", "operator": "nan", "plant:method": "nan", "plant:output:electricity": "nan", "plant:source": "nan", "power": "nan", "ref:US:EIA": "nan", "source": "nan", "start_date": "nan", "note": "nan", "addr:city": "nan", "addr:housenumber": "nan", "addr:state": "nan", "addr:street": "nan", "industrial": "nan", "addr:postcode": "nan", "end_date": "nan", "was:power": "nan", "website": "nan", "ways": "nan", "type": "nan" }, "geometry": { "type": "Polygon", "coordinates": [ [ [ -84.5190455, 38.1006394 ], [ -84.5172732, 38.1001112 ], [ -84.5181622, 38.098264 ], [ -84.519426, 38.0986407 ], [ -84.5198607, 38.0988724 ], [ -84.5190455, 38.1006394 ] ] ] } },
{ "type": "Feature", "properties": { "element_type": "way", "osmid": "891372176", "barrier": "nan", "nodes": [ 8285140115, 8285140114, 8285140113, 8285140112, 8285140111, 8285140110, 8285140109, 8285140108, 8285140115 ], "alt_name": "nan", "landuse": "industrial", "name": "nan", "operator": "nan", "plant:method": "nan", "plant:output:electricity": "nan", "plant:source": "nan", "power": "nan", "ref:US:EIA": "nan", "source": "nan", "start_date": "nan", "note": "nan", "addr:city": "nan", "addr:housenumber": "nan", "addr:state": "nan", "addr:street": "nan", "industrial": "nan", "addr:postcode": "nan", "end_date": "nan", "was:power": "nan", "website": "nan", "ways": "nan", "type": "nan" }, "geometry": { "type": "Polygon", "coordinates": [ [ [ -84.5208469, 38.1029168 ], [ -84.5193982, 38.1024547 ], [ -84.5205009, 38.1002085 ], [ -84.5209926, 38.0997885 ], [ -84.5215237, 38.1002444 ], [ -84.521749, 38.1006623 ], [ -84.5217544, 38.1010633 ], [ -84.5217007, 38.1012913 ], [ -84.5208469, 38.1029168 ] ] ] } },
{ "type": "Feature", "properties": { "element_type": "way", "osmid": "891372177", "barrier": "nan", "nodes": [ 8285140122, 8285140121, 8285140120, 8285140119, 8285140118, 8285140117, 8285140116, 8285140122 ], "alt_name": "nan", "landuse": "industrial", "name": "nan", "operator": "nan", "plant:method": "nan", "plant:output:electricity": "nan", "plant:source": "nan", "power": "nan", "ref:US:EIA": "nan", "source": "nan", "start_date": "nan", "note": "nan", "addr:city": "nan", "addr:housenumber": "nan", "addr:state": "nan", "addr:street": "nan", "industrial": "nan", "addr:postcode": "nan", "end_date": "nan", "was:power": "nan", "website": "nan", "ways": "nan", "type": "nan" }, "geometry": { "type": "Polygon", "coordinates": [ [ [ -84.5219609, 38.1048407 ], [ -84.5203937, 38.1043587 ], [ -84.5221951, 38.1007319 ], [ -84.5223606, 38.1007383 ], [ -84.5226234, 38.1001642 ], [ -84.523868, 38.1005146 ], [ -84.524104, 38.100848 ], [ -84.5219609, 38.1048407 ] ] ] } },
{ "type": "Feature", "properties": { "element_type": "way", "osmid": "891372179", "barrier": "nan", "nodes": [ 8285140148, 8285140147, 8285140146, 8285140145, 8285140144, 8285140143, 8285140142, 8285140141, 8285140148 ], "alt_name": "nan", "landuse": "industrial", "name": "nan", "operator": "nan", "plant:method": "nan", "plant:output:electricity": "nan", "plant:source": "nan", "power": "nan", "ref:US:EIA": "nan", "source": "nan", "start_date": "nan", "note": "nan", "addr:city": "nan", "addr:housenumber": "nan", "addr:state": "nan", "addr:street": "nan", "industrial": "nan", "addr:postcode": "nan", "end_date": "nan", "was:power": "nan", "website": "nan", "ways": "nan", "type": "nan" }, "geometry": { "type": "Polygon", "coordinates": [ [ [ -84.3730366, 37.9637691 ], [ -84.3737179, 37.9634054 ], [ -84.3746889, 37.9620224 ], [ -84.3735838, 37.9612399 ], [ -84.3732029, 37.9616248 ], [ -84.3728811, 37.9621535 ], [ -84.3727255, 37.9626949 ], [ -84.3728274, 37.9632997 ], [ -84.3730366, 37.9637691 ] ] ] } },
{ "type": "Feature", "properties": { "element_type": "way", "osmid": "891378035", "barrier": "nan", "nodes": [ 8285167181, 8285167180, 8285167179, 8285167178, 8285167181 ], "alt_name": "nan", "landuse": "industrial", "name": "nan", "operator": "nan", "plant:method": "nan", "plant:output:electricity": "nan", "plant:source": "nan", "power": "nan", "ref:US:EIA": "nan", "source": "nan", "start_date": "nan", "note": "nan", "addr:city": "nan", "addr:housenumber": "nan", "addr:state": "nan", "addr:street": "nan", "industrial": "nan", "addr:postcode": "nan", "end_date": "nan", "was:power": "nan", "website": "nan", "ways": "nan", "type": "nan" }, "geometry": { "type": "Polygon", "coordinates": [ [ [ -84.5704351, 37.8632223 ], [ -84.5707346, 37.8606974 ], [ -84.5679193, 37.8604892 ], [ -84.5676197, 37.8630141 ], [ -84.5704351, 37.8632223 ] ] ] } },
{ "type": "Feature", "properties": { "element_type": "way", "osmid": "891378036", "barrier": "nan", "nodes": [ 8285167182, 8285167189, 8285167188, 8285167187, 8285167186, 8285167185, 8285167184, 8285167183, 8285167182 ], "alt_name": "nan", "landuse": "industrial", "name": "nan", "operator": "nan", "plant:method": "nan", "plant:output:electricity": "nan", "plant:source": "nan", "power": "nan", "ref:US:EIA": "nan", "source": "nan", "start_date": "nan", "note": "nan", "addr:city": "nan", "addr:housenumber": "nan", "addr:state": "nan", "addr:street": "nan", "industrial": "nan", "addr:postcode": "nan", "end_date": "nan", "was:power": "nan", "website": "nan", "ways": "nan", "type": "nan" }, "geometry": { "type": "Polygon", "coordinates": [ [ [ -84.5782657, 37.8789675 ], [ -84.5791617, 37.8791872 ], [ -84.5790356, 37.8805358 ], [ -84.5779923, 37.8804955 ], [ -84.5776704, 37.8804066 ], [ -84.5778045, 37.8801081 ], [ -84.5780593, 37.8800192 ], [ -84.5780996, 37.8793079 ], [ -84.5782657, 37.8789675 ] ] ] } },
{ "type": "Feature", "properties": { "element_type": "way", "osmid": "891378037", "barrier": "nan", "nodes": [ 8285167200, 8285167199, 8285167198, 8285167197, 8285167196, 8285167195, 8285167194, 8285167193, 8285167192, 8285202086, 8285167191, 8285167190, 8285167200 ], "alt_name": "nan", "landuse": "industrial", "name": "nan", "operator": "nan", "plant:method": "nan", "plant:output:electricity": "nan", "plant:source": "nan", "power": "nan", "ref:US:EIA": "nan", "source": "nan", "start_date": "nan", "note": "nan", "addr:city": "nan", "addr:housenumber": "nan", "addr:state": "nan", "addr:street": "nan", "industrial": "nan", "addr:postcode": "nan", "end_date": "nan", "was:power": "nan", "website": "nan", "ways": "nan", "type": "nan" }, "geometry": { "type": "Polygon", "coordinates": [ [ [ -84.5853308, 37.885028 ], [ -84.5842874, 37.8847274 ], [ -84.5827425, 37.8841876 ], [ -84.5828444, 37.8832413 ], [ -84.5829973, 37.8829089 ], [ -84.5832118, 37.8826443 ], [ -84.5835954, 37.8823585 ], [ -84.5840138, 37.882259 ], [ -84.5846209, 37.8822481 ], [ -84.5844966, 37.8833387 ], [ -84.5843813, 37.8841156 ], [ -84.5855802, 37.8844056 ], [ -84.5853308, 37.885028 ] ] ] } },
{ "type": "Feature", "properties": { "element_type": "way", "osmid": "891378038", "barrier": "nan", "nodes": [ 8285167210, 8285167209, 8285167208, 8285167207, 8285167206, 8285167205, 8285167204, 8285167203, 8285167202, 8285167201, 8285167210 ], "alt_name": "nan", "landuse": "industrial", "name": "nan", "operator": "nan", "plant:method": "nan", "plant:output:electricity": "nan", "plant:source": "nan", "power": "nan", "ref:US:EIA": "nan", "source": "nan", "start_date": "nan", "note": "nan", "addr:city": "nan", "addr:housenumber": "nan", "addr:state": "nan", "addr:street": "nan", "industrial": "nan", "addr:postcode": "nan", "end_date": "nan", "was:power": "nan", "website": "nan", "ways": "nan", "type": "nan" }, "geometry": { "type": "Polygon", "coordinates": [ [ [ -84.5824045, 37.887962 ], [ -84.5825172, 37.886912 ], [ -84.5825762, 37.8859637 ], [ -84.5837081, 37.8853371 ], [ -84.5844859, 37.8856292 ], [ -84.584958, 37.8859595 ], [ -84.585253, 37.8864506 ], [ -84.5851135, 37.8874868 ], [ -84.5846522, 37.8882351 ], [ -84.5828444, 37.8880551 ], [ -84.5824045, 37.887962 ] ] ] } },
{ "type": "Feature", "properties": { "element_type": "way", "osmid": "891378039", "barrier": "nan", "nodes": [ 8285167215, 8285167214, 8285167213, 8285167212, 8285167211, 8285167215 ], "alt_name": "nan", "landuse": "industrial", "name": "nan", "operator": "nan", "plant:method": "nan", "plant:output:electricity": "nan", "plant:source": "nan", "power": "nan", "ref:US:EIA": "nan", "source": "nan", "start_date": "nan", "note": "nan", "addr:city": "nan", "addr:housenumber": "nan", "addr:state": "nan", "addr:street": "nan", "industrial": "nan", "addr:postcode": "nan", "end_date": "nan", "was:power": "nan", "website": "nan", "ways": "nan", "type": "nan" }, "geometry": { "type": "Polygon", "coordinates": [ [ [ -84.5876831, 37.8886436 ], [ -84.584958, 37.8884192 ], [ -84.5844215, 37.8926655 ], [ -84.5851779, 37.8928433 ], [ -84.5871091, 37.8935926 ], [ -84.5876831, 37.8886436 ] ] ] } },
{ "type": "Feature", "properties": { "element_type": "way", "osmid": "891378040", "barrier": "nan", "nodes": [ 8285202029, 8285202028, 8285202027, 8285202026, 8285202025, 8285202024, 8285202023, 8285202022, 8285202021, 8285202020, 8285202019, 8285202018, 8285202017, 8285167216, 8285202029 ], "alt_name": "nan", "landuse": "industrial", "name": "nan", "operator": "nan", "plant:method": "nan", "plant:output:electricity": "nan", "plant:source": "nan", "power": "nan", "ref:US:EIA": "nan", "source": "nan", "start_date": "nan", "note": "nan", "addr:city": "nan", "addr:housenumber": "nan", "addr:state": "nan", "addr:street": "nan", "industrial": "nan", "addr:postcode": "nan", "end_date": "nan", "was:power": "nan", "website": "nan", "ways": "nan", "type": "nan" }, "geometry": { "type": "Polygon", "coordinates": [ [ [ -84.6283346, 37.8641311 ], [ -84.6248478, 37.864004 ], [ -84.6256256, 37.8620304 ], [ -84.625749, 37.8619225 ], [ -84.6256256, 37.8618356 ], [ -84.6264947, 37.8608954 ], [ -84.6270579, 37.8605185 ], [ -84.6275514, 37.860294 ], [ -84.6283937, 37.8602178 ], [ -84.6290749, 37.8603237 ], [ -84.6282274, 37.8628605 ], [ -84.6280557, 37.8628267 ], [ -84.6280396, 37.8630384 ], [ -84.6284205, 37.8630596 ], [ -84.6283346, 37.8641311 ] ] ] } },
{ "type": "Feature", "properties": { "element_type": "way", "osmid": "891378041", "barrier": "nan", "nodes": [ 8285202032, 8285202031, 8285202030, 4439083952, 4439083953, 4439083954, 4439083956, 4439083961, 4439083964, 4439083969, 4439083971, 4439083972, 4439083970, 8285202032 ], "alt_name": "nan", "landuse": "industrial", "name": "nan", "operator": "nan", "plant:method": "nan", "plant:output:electricity": "nan", "plant:source": "nan", "power": "nan", "ref:US:EIA": "nan", "source": "nan", "start_date": "nan", "note": "nan", "addr:city": "nan", "addr:housenumber": "nan", "addr:state": "nan", "addr:street": "nan", "industrial": "nan", "addr:postcode": "nan", "end_date": "nan", "was:power": "nan", "website": "nan", "ways": "nan", "type": "nan" }, "geometry": { "type": "Polygon", "coordinates": [ [ [ -84.6004655, 37.8749724 ], [ -84.6019448, 37.8729548 ], [ -84.6059142, 37.8747683 ], [ -84.6061182, 37.8750215 ], [ -84.6053739, 37.8751633 ], [ -84.6050306, 37.8752374 ], [ -84.6046913, 37.8753189 ], [ -84.6043305, 37.8754206 ], [ -84.6040087, 37.8755222 ], [ -84.6031122, 37.875826 ], [ -84.6027048, 37.8759062 ], [ -84.6026746, 37.8759067 ], [ -84.6026404, 37.875902 ], [ -84.6004655, 37.8749724 ] ] ] } },
{ "type": "Feature", "properties": { "element_type": "way", "osmid": "891378042", "barrier": "nan", "nodes": [ 8285202039, 8285202038, 8285202037, 8285202036, 8285202035, 8285202034, 8285202033, 8285202039 ], "alt_name": "nan", "landuse": "industrial", "name": "nan", "operator": "nan", "plant:method": "nan", "plant:output:electricity": "nan", "plant:source": "nan", "power": "nan", "ref:US:EIA": "nan", "source": "nan", "start_date": "nan", "note": "nan", "addr:city": "nan", "addr:housenumber": "nan", "addr:state": "nan", "addr:street": "nan", "industrial": "nan", "addr:postcode": "nan", "end_date": "nan", "was:power": "nan", "website": "nan", "ways": "nan", "type": "nan" }, "geometry": { "type": "Polygon", "coordinates": [ [ [ -84.5691222, 37.8561645 ], [ -84.5688647, 37.8552242 ], [ -84.5684195, 37.8547499 ], [ -84.5685321, 37.8546143 ], [ -84.5692027, 37.854699 ], [ -84.5701522, 37.8549743 ], [ -84.5704794, 37.8559231 ], [ -84.5691222, 37.8561645 ] ] ] } },
{ "type": "Feature", "properties": { "element_type": "way", "osmid": "891378043", "barrier": "nan", "nodes": [ 8285202054, 8285202046, 8285202045, 8285202044, 8285202040, 8285202041, 8285202043, 8285202042, 8285202054 ], "alt_name": "nan", "landuse": "industrial", "name": "nan", "operator": "nan", "plant:method": "nan", "plant:output:electricity": "nan", "plant:source": "nan", "power": "nan", "ref:US:EIA": "nan", "source": "nan", "start_date": "nan", "note": "nan", "addr:city": "nan", "addr:housenumber": "nan", "addr:state": "nan", "addr:street": "nan", "industrial": "nan", "addr:postcode": "nan", "end_date": "nan", "was:power": "nan", "website": "nan", "ways": "nan", "type": "nan" }, "geometry": { "type": "Polygon", "coordinates": [ [ [ -84.5764366, 37.8616408 ], [ -84.5780432, 37.8617425 ], [ -84.5781022, 37.8609505 ], [ -84.5782417, 37.8607091 ], [ -84.578298, 37.860239 ], [ -84.5782149, 37.8602008 ], [ -84.5782739, 37.8596672 ], [ -84.5766924, 37.8595398 ], [ -84.5764366, 37.8616408 ] ] ] } },
{ "type": "Feature", "properties": { "element_type": "way", "osmid": "891378044", "barrier": "nan", "nodes": [ 8285202054, 8285202042, 8285202053, 8285202052, 8285202051, 8285202050, 8285202049, 8285202048, 8285202047, 8285202054 ], "alt_name": "nan", "landuse": "industrial", "name": "nan", "operator": "nan", "plant:method": "nan", "plant:output:electricity": "nan", "plant:source": "nan", "power": "nan", "ref:US:EIA": "nan", "source": "nan", "start_date": "nan", "note": "nan", "addr:city": "nan", "addr:housenumber": "nan", "addr:state": "nan", "addr:street": "nan", "industrial": "nan", "addr:postcode": "nan", "end_date": "nan", "was:power": "nan", "website": "nan", "ways": "nan", "type": "nan" }, "geometry": { "type": "Polygon", "coordinates": [ [ [ -84.5764366, 37.8616408 ], [ -84.5766924, 37.8595398 ], [ -84.5767021, 37.8594597 ], [ -84.5752055, 37.8593623 ], [ -84.5749211, 37.859646 ], [ -84.5747066, 37.8600611 ], [ -84.5744383, 37.8602262 ], [ -84.5739555, 37.8609971 ], [ -84.573741, 37.8614629 ], [ -84.5764366, 37.8616408 ] ] ] } },
{ "type": "Feature", "properties": { "element_type": "way", "osmid": "891378045", "barrier": "nan", "nodes": [ 8285202060, 8285202059, 8285202058, 8285202057, 8285202056, 8285202055, 8285202075, 8285202076, 8285202067, 8285202066, 8285202065, 8285202064, 8285202063, 8285202062, 8285202061, 8285202060 ], "alt_name": "nan", "landuse": "industrial", "name": "nan", "operator": "nan", "plant:method": "nan", "plant:output:electricity": "nan", "plant:source": "nan", "power": "nan", "ref:US:EIA": "nan", "source": "nan", "start_date": "nan", "note": "nan", "addr:city": "nan", "addr:housenumber": "nan", "addr:state": "nan", "addr:street": "nan", "industrial": "nan", "addr:postcode": "nan", "end_date": "nan", "was:power": "nan", "website": "nan", "ways": "nan", "type": "nan" }, "geometry": { "type": "Polygon", "coordinates": [ [ [ -84.580995, 37.8875387 ], [ -84.581083, 37.8866844 ], [ -84.5811921, 37.8866914 ], [ -84.5812961, 37.8856822 ], [ -84.5823383, 37.8857491 ], [ -84.582362, 37.8855192 ], [ -84.5822918, 37.8853413 ], [ -84.5797116, 37.8852651 ], [ -84.5795399, 37.8852651 ], [ -84.579218, 37.8875344 ], [ -84.5791537, 37.8878773 ], [ -84.5794541, 37.8878435 ], [ -84.5799261, 37.8876148 ], [ -84.5802856, 37.8875344 ], [ -84.5806289, 37.8875217 ], [ -84.580995, 37.8875387 ] ] ] } },
{ "type": "Feature", "properties": { "element_type": "way", "osmid": "891378046", "barrier": "nan", "nodes": [ 8285202082, 8285202081, 8285202080, 8285202079, 8285202078, 8285202077, 8285202076, 8285202075, 8285202074, 8285202073, 8285202072, 8285202071, 8285202070, 8285202069, 8285202068, 8285202082 ], "alt_name": "nan", "landuse": "industrial", "name": "nan", "operator": "nan", "plant:method": "nan", "plant:output:electricity": "nan", "plant:source": "nan", "power": "nan", "ref:US:EIA": "nan", "source": "nan", "start_date": "nan", "note": "nan", "addr:city": "nan", "addr:housenumber": "nan", "addr:state": "nan", "addr:street": "nan", "industrial": "nan", "addr:postcode": "nan", "end_date": "nan", "was:power": "nan", "website": "nan", "ways": "nan", "type": "nan" }, "geometry": { "type": "Polygon", "coordinates": [ [ [ -84.5834398, 37.8821532 ], [ -84.582206, 37.8824284 ], [ -84.580999, 37.8828857 ], [ -84.5802802, 37.8832455 ], [ -84.5799905, 37.8836351 ], [ -84.5798779, 37.8839441 ], [ -84.5797116, 37.8852651 ], [ -84.5822918, 37.8853413 ], [ -84.5827371, 37.8852397 ], [ -84.5825601, 37.8848163 ], [ -84.5825332, 37.884304 ], [ -84.5827639, 37.883055 ], [ -84.5829839, 37.8826994 ], [ -84.5832628, 37.8824072 ], [ -84.5835203, 37.8822633 ], [ -84.5834398, 37.8821532 ] ] ] } },
{ "type": "Feature", "properties": { "element_type": "way", "osmid": "891378047", "barrier": "nan", "nodes": [ 8285202092, 8285202091, 8285202090, 8285202089, 8285202088, 8285202087, 8285167192, 8285202086, 8285202085, 8285202084, 8285202083, 8285202092 ], "alt_name": "nan", "landuse": "industrial", "name": "nan", "operator": "nan", "plant:method": "nan", "plant:output:electricity": "nan", "plant:source": "nan", "power": "nan", "ref:US:EIA": "nan", "source": "nan", "start_date": "nan", "note": "nan", "addr:city": "nan", "addr:housenumber": "nan", "addr:state": "nan", "addr:street": "nan", "industrial": "nan", "addr:postcode": "nan", "end_date": "nan", "was:power": "nan", "website": "nan", "ways": "nan", "type": "nan" }, "geometry": { "type": "Polygon", "coordinates": [ [ [ -84.5874846, 37.8827671 ], [ -84.5866531, 37.8826147 ], [ -84.5859236, 37.8823861 ], [ -84.5854676, 37.882204 ], [ -84.5849741, 37.8821786 ], [ -84.5846307, 37.8821616 ], [ -84.5846209, 37.8822481 ], [ -84.5844966, 37.8833387 ], [ -84.5854408, 37.8837028 ], [ -84.5865566, 37.8840542 ], [ -84.5871413, 37.8830889 ], [ -84.5874846, 37.8827671 ] ] ] } },
{ "type": "Feature", "properties": { "element_type": "way", "osmid": "902879843", "barrier": "fence", "nodes": [ 8385821471, 8385821472, 8385821473, 8385821474, 8385821471 ], "alt_name": "nan", "landuse": "industrial", "name": "nan", "operator": "nan", "plant:method": "nan", "plant:output:electricity": "nan", "plant:source": "nan", "power": "nan", "ref:US:EIA": "nan", "source": "nan", "start_date": "nan", "note": "nan", "addr:city": "nan", "addr:housenumber": "nan", "addr:state": "nan", "addr:street": "nan", "industrial": "nan", "addr:postcode": "nan", "end_date": "nan", "was:power": "nan", "website": "nan", "ways": "nan", "type": "nan" }, "geometry": { "type": "Polygon", "coordinates": [ [ [ -84.5442615, 38.0773223 ], [ -84.5440958, 38.0771998 ], [ -84.5442528, 38.0770681 ], [ -84.5444185, 38.0771906 ], [ -84.5442615, 38.0773223 ] ] ] } },
{ "type": "Feature", "properties": { "element_type": "way", "osmid": "903205774", "barrier": "fence", "nodes": [ 8388878113, 8388878114, 8388878115, 8388878116, 8388878113 ], "alt_name": "nan", "landuse": "industrial", "name": "nan", "operator": "nan", "plant:method": "nan", "plant:output:electricity": "nan", "plant:source": "nan", "power": "nan", "ref:US:EIA": "nan", "source": "nan", "start_date": "nan", "note": "nan", "addr:city": "nan", "addr:housenumber": "nan", "addr:state": "nan", "addr:street": "nan", "industrial": "nan", "addr:postcode": "nan", "end_date": "nan", "was:power": "nan", "website": "nan", "ways": "nan", "type": "nan" }, "geometry": { "type": "Polygon", "coordinates": [ [ [ -84.4970109, 38.0729575 ], [ -84.4968626, 38.0730519 ], [ -84.4966613, 38.0728558 ], [ -84.4968097, 38.0727615 ], [ -84.4970109, 38.0729575 ] ] ] } },
{ "type": "Feature", "properties": { "element_type": "way", "osmid": "912560366", "barrier": "fence", "nodes": [ 8477247426, 8477247442, 8477247443, 8477247444, 8477247445, 8477247426 ], "alt_name": "nan", "landuse": "industrial", "name": "nan", "operator": "nan", "plant:method": "nan", "plant:output:electricity": "nan", "plant:source": "nan", "power": "nan", "ref:US:EIA": "nan", "source": "nan", "start_date": "nan", "note": "nan", "addr:city": "nan", "addr:housenumber": "nan", "addr:state": "nan", "addr:street": "nan", "industrial": "nan", "addr:postcode": "nan", "end_date": "nan", "was:power": "nan", "website": "nan", "ways": "nan", "type": "nan" }, "geometry": { "type": "Polygon", "coordinates": [ [ [ -84.5419009, 37.9722076 ], [ -84.541885, 37.9722315 ], [ -84.5416518, 37.9721357 ], [ -84.5417485, 37.9719894 ], [ -84.5419817, 37.9720853 ], [ -84.5419009, 37.9722076 ] ] ] } },
{ "type": "Feature", "properties": { "element_type": "way", "osmid": "914759614", "barrier": "fence", "nodes": [ 8497479421, 8497479422, 164749415, 8497479423, 8497479424, 8497479421 ], "alt_name": "nan", "landuse": "industrial", "name": "nan", "operator": "nan", "plant:method": "nan", "plant:output:electricity": "nan", "plant:source": "nan", "power": "nan", "ref:US:EIA": "nan", "source": "nan", "start_date": "nan", "note": "nan", "addr:city": "nan", "addr:housenumber": "nan", "addr:state": "nan", "addr:street": "nan", "industrial": "nan", "addr:postcode": "nan", "end_date": "nan", "was:power": "nan", "website": "nan", "ways": "nan", "type": "nan" }, "geometry": { "type": "Polygon", "coordinates": [ [ [ -84.5299933, 37.8830641 ], [ -84.5297812, 37.8832108 ], [ -84.5297015, 37.8831391 ], [ -84.5296116, 37.8830581 ], [ -84.5298236, 37.8829114 ], [ -84.5299933, 37.8830641 ] ] ] } },
{ "type": "Feature", "properties": { "element_type": "way", "osmid": "966525619", "barrier": "nan", "nodes": [ 8942086616, 8942088817, 8942086610, 8942086609, 8942086608, 8920994287, 8920994291, 8920994288, 8942088818, 8942088819, 8942088820, 8942088821, 8942088822, 9015506522, 8942088823, 8942086616 ], "alt_name": "nan", "landuse": "industrial", "name": "Airfield Maintenance", "operator": "nan", "plant:method": "nan", "plant:output:electricity": "nan", "plant:source": "nan", "power": "nan", "ref:US:EIA": "nan", "source": "nan", "start_date": "nan", "note": "nan", "addr:city": "nan", "addr:housenumber": "nan", "addr:state": "nan", "addr:street": "nan", "industrial": "nan", "addr:postcode": "nan", "end_date": "nan", "was:power": "nan", "website": "nan", "ways": "nan", "type": "nan" }, "geometry": { "type": "Polygon", "coordinates": [ [ [ -84.6089492, 38.0292331 ], [ -84.6080701, 38.0286382 ], [ -84.6079535, 38.0287268 ], [ -84.6068, 38.0296802 ], [ -84.606199, 38.0301558 ], [ -84.6059781, 38.0303428 ], [ -84.6056883, 38.0306289 ], [ -84.6056312, 38.0306852 ], [ -84.6059774, 38.0309372 ], [ -84.6064762, 38.0313124 ], [ -84.6068518, 38.0309935 ], [ -84.6070951, 38.0310357 ], [ -84.6080558, 38.0300771 ], [ -84.608269, 38.0299998 ], [ -84.6086862, 38.0295626 ], [ -84.6089492, 38.0292331 ] ] ] } },
{ "type": "Feature", "properties": { "element_type": "way", "osmid": "993351877", "barrier": "nan", "nodes": [ 9177158000, 9177158001, 9177158002, 9177158003, 9177158004, 9177158005, 9177158006, 9177158007, 9177158008, 9177158000 ], "alt_name": "nan", "landuse": "industrial", "name": "Woodford Reserve Storage Facility", "operator": "nan", "plant:method": "nan", "plant:output:electricity": "nan", "plant:source": "nan", "power": "nan", "ref:US:EIA": "nan", "source": "nan", "start_date": "nan", "note": "nan", "addr:city": "nan", "addr:housenumber": "nan", "addr:state": "nan", "addr:street": "nan", "industrial": "nan", "addr:postcode": "nan", "end_date": "nan", "was:power": "nan", "website": "nan", "ways": "nan", "type": "nan" }, "geometry": { "type": "Polygon", "coordinates": [ [ [ -84.663915, 38.171787 ], [ -84.6624194, 38.1721805 ], [ -84.6562826, 38.1697963 ], [ -84.6575941, 38.1676115 ], [ -84.6568812, 38.1660628 ], [ -84.6576876, 38.164671 ], [ -84.6657191, 38.1674448 ], [ -84.6644519, 38.1696355 ], [ -84.6650193, 38.1698262 ], [ -84.663915, 38.171787 ] ] ] } },
{ "type": "Feature", "properties": { "element_type": "way", "osmid": "1013509827", "barrier": "nan", "nodes": [ 9350668826, 9350668825, 9350668824, 9350668823, 9350668822, 9350668821, 9350668820, 9350668819, 9350668818, 9350668817, 9350644216, 9350644215, 9350644214, 9350644213, 9350644212, 9350644211, 9350644210, 9350644209, 9350668826 ], "alt_name": "nan", "landuse": "industrial", "name": "nan", "operator": "nan", "plant:method": "nan", "plant:output:electricity": "nan", "plant:source": "nan", "power": "nan", "ref:US:EIA": "nan", "source": "nan", "start_date": "nan", "note": "nan", "addr:city": "nan", "addr:housenumber": "nan", "addr:state": "nan", "addr:street": "nan", "industrial": "nan", "addr:postcode": "nan", "end_date": "nan", "was:power": "nan", "website": "nan", "ways": "nan", "type": "nan" }, "geometry": { "type": "Polygon", "coordinates": [ [ [ -84.3221417, 38.0706567 ], [ -84.3211278, 38.0708277 ], [ -84.3211252, 38.0713683 ], [ -84.3208301, 38.0721474 ], [ -84.3254167, 38.0732792 ], [ -84.3255508, 38.0732138 ], [ -84.3263367, 38.0733827 ], [ -84.3269911, 38.0735579 ], [ -84.3277046, 38.0736572 ], [ -84.3278468, 38.0735622 ], [ -84.3275115, 38.0725951 ], [ -84.3272392, 38.0720598 ], [ -84.3268999, 38.0717315 ], [ -84.3249151, 38.0712606 ], [ -84.3246603, 38.0712923 ], [ -84.3226929, 38.0711476 ], [ -84.3224381, 38.0707538 ], [ -84.3223429, 38.0707633 ], [ -84.3221417, 38.0706567 ] ] ] } },
{ "type": "Feature", "properties": { "element_type": "way", "osmid": "1013509830", "barrier": "nan", "nodes": [ 9350668835, 9350668834, 9350668833, 9350668832, 9350668831, 9350668830, 9350668829, 9350668828, 9350668827, 9350668835 ], "alt_name": "nan", "landuse": "industrial", "name": "nan", "operator": "nan", "plant:method": "nan", "plant:output:electricity": "nan", "plant:source": "nan", "power": "nan", "ref:US:EIA": "nan", "source": "nan", "start_date": "nan", "note": "nan", "addr:city": "nan", "addr:housenumber": "nan", "addr:state": "nan", "addr:street": "nan", "industrial": "nan", "addr:postcode": "nan", "end_date": "nan", "was:power": "nan", "website": "nan", "ways": "nan", "type": "nan" }, "geometry": { "type": "Polygon", "coordinates": [ [ [ -84.4902867, 38.0638212 ], [ -84.4901955, 38.0631729 ], [ -84.4887525, 38.0633967 ], [ -84.4882804, 38.0634115 ], [ -84.4877413, 38.0633376 ], [ -84.4877064, 38.0635974 ], [ -84.4879103, 38.0642182 ], [ -84.4883046, 38.0643175 ], [ -84.4895652, 38.0640514 ], [ -84.4902867, 38.0638212 ] ] ] } },
{ "type": "Feature", "properties": { "element_type": "way", "osmid": "1013509835", "barrier": "nan", "nodes": [ 9350668861, 9350668855, 9350668856, 9350668857, 9350668858, 9350668859, 9350668860, 9350668862, 9350668861 ], "alt_name": "nan", "landuse": "industrial", "name": "nan", "operator": "nan", "plant:method": "nan", "plant:output:electricity": "nan", "plant:source": "nan", "power": "nan", "ref:US:EIA": "nan", "source": "nan", "start_date": "nan", "note": "nan", "addr:city": "nan", "addr:housenumber": "nan", "addr:state": "nan", "addr:street": "nan", "industrial": "nan", "addr:postcode": "nan", "end_date": "nan", "was:power": "nan", "website": "nan", "ways": "nan", "type": "nan" }, "geometry": { "type": "Polygon", "coordinates": [ [ [ -84.2341814, 38.0260837 ], [ -84.2345542, 38.0257657 ], [ -84.2331595, 38.022021 ], [ -84.2336617, 38.0214404 ], [ -84.2384752, 38.0240246 ], [ -84.2382534, 38.024281 ], [ -84.2383014, 38.0243067 ], [ -84.2359451, 38.0270304 ], [ -84.2341814, 38.0260837 ] ] ] } },
{ "type": "Feature", "properties": { "element_type": "way", "osmid": "1013509836", "barrier": "nan", "nodes": [ 9350668867, 9350668866, 9350668865, 9350668864, 9350668863, 9350668867 ], "alt_name": "nan", "landuse": "industrial", "name": "nan", "operator": "nan", "plant:method": "nan", "plant:output:electricity": "nan", "plant:source": "nan", "power": "nan", "ref:US:EIA": "nan", "source": "nan", "start_date": "nan", "note": "nan", "addr:city": "nan", "addr:housenumber": "nan", "addr:state": "nan", "addr:street": "nan", "industrial": "nan", "addr:postcode": "nan", "end_date": "nan", "was:power": "nan", "website": "nan", "ways": "nan", "type": "nan" }, "geometry": { "type": "Polygon", "coordinates": [ [ [ -84.2408664, 38.0300303 ], [ -84.2388835, 38.0289796 ], [ -84.2398905, 38.0278117 ], [ -84.2410746, 38.0284004 ], [ -84.2411819, 38.0286074 ], [ -84.2408664, 38.0300303 ] ] ] } },
{ "type": "Feature", "properties": { "element_type": "way", "osmid": "1013509837", "barrier": "nan", "nodes": [ 9350668874, 9350668873, 9350668872, 9350668871, 9350668870, 9350668869, 9350668868, 9350668874 ], "alt_name": "nan", "landuse": "industrial", "name": "nan", "operator": "nan", "plant:method": "nan", "plant:output:electricity": "nan", "plant:source": "nan", "power": "nan", "ref:US:EIA": "nan", "source": "nan", "start_date": "nan", "note": "nan", "addr:city": "nan", "addr:housenumber": "nan", "addr:state": "nan", "addr:street": "nan", "industrial": "nan", "addr:postcode": "nan", "end_date": "nan", "was:power": "nan", "website": "nan", "ways": "nan", "type": "nan" }, "geometry": { "type": "Polygon", "coordinates": [ [ [ -84.2371184, 38.0309547 ], [ -84.2366543, 38.0307772 ], [ -84.2360804, 38.0303695 ], [ -84.236775, 38.029142 ], [ -84.2374617, 38.0277602 ], [ -84.2381162, 38.0271602 ], [ -84.238615, 38.0293237 ], [ -84.2371184, 38.0309547 ] ] ] } },
{ "type": "Feature", "properties": { "element_type": "way", "osmid": "1013512392", "barrier": "nan", "nodes": [ 9350689285, 9350689292, 9350689291, 9350689290, 9350689289, 9350689288, 9350689287, 9350689286, 9350689285 ], "alt_name": "nan", "landuse": "industrial", "name": "nan", "operator": "nan", "plant:method": "nan", "plant:output:electricity": "nan", "plant:source": "nan", "power": "nan", "ref:US:EIA": "nan", "source": "nan", "start_date": "nan", "note": "nan", "addr:city": "nan", "addr:housenumber": "nan", "addr:state": "nan", "addr:street": "nan", "industrial": "nan", "addr:postcode": "nan", "end_date": "nan", "was:power": "nan", "website": "nan", "ways": "nan", "type": "nan" }, "geometry": { "type": "Polygon", "coordinates": [ [ [ -84.2974517, 38.2094896 ], [ -84.296385, 38.2090038 ], [ -84.2971321, 38.2079909 ], [ -84.2973554, 38.2079802 ], [ -84.2981815, 38.2083976 ], [ -84.2982888, 38.2086842 ], [ -84.2977899, 38.209308 ], [ -84.2975432, 38.2093923 ], [ -84.2974517, 38.2094896 ] ] ] } },
{ "type": "Feature", "properties": { "element_type": "way", "osmid": "1013512393", "barrier": "nan", "nodes": [ 9350689298, 9350689293, 9350689294, 9350689295, 9350689296, 9350689297, 9350689299, 9350689298 ], "alt_name": "nan", "landuse": "industrial", "name": "nan", "operator": "nan", "plant:method": "nan", "plant:output:electricity": "nan", "plant:source": "nan", "power": "nan", "ref:US:EIA": "nan", "source": "nan", "start_date": "nan", "note": "nan", "addr:city": "nan", "addr:housenumber": "nan", "addr:state": "nan", "addr:street": "nan", "industrial": "nan", "addr:postcode": "nan", "end_date": "nan", "was:power": "nan", "website": "nan", "ways": "nan", "type": "nan" }, "geometry": { "type": "Polygon", "coordinates": [ [ [ -84.2965763, 38.210423 ], [ -84.2957515, 38.2106821 ], [ -84.2951024, 38.2107749 ], [ -84.294287, 38.2107749 ], [ -84.2941958, 38.2112596 ], [ -84.2946114, 38.2121859 ], [ -84.2969678, 38.21176 ], [ -84.2965763, 38.210423 ] ] ] } },
{ "type": "Feature", "properties": { "element_type": "way", "osmid": "1013512394", "barrier": "nan", "nodes": [ 9350689306, 9350689305, 9350689304, 9350689303, 9350689302, 9350689301, 9350689300, 9350689306 ], "alt_name": "nan", "landuse": "industrial", "name": "nan", "operator": "nan", "plant:method": "nan", "plant:output:electricity": "nan", "plant:source": "nan", "power": "nan", "ref:US:EIA": "nan", "source": "nan", "start_date": "nan", "note": "nan", "addr:city": "nan", "addr:housenumber": "nan", "addr:state": "nan", "addr:street": "nan", "industrial": "nan", "addr:postcode": "nan", "end_date": "nan", "was:power": "nan", "website": "nan", "ways": "nan", "type": "nan" }, "geometry": { "type": "Polygon", "coordinates": [ [ [ -84.2490703, 38.2266217 ], [ -84.2483407, 38.2266723 ], [ -84.2471096, 38.2265564 ], [ -84.2469192, 38.2256714 ], [ -84.2471579, 38.2251931 ], [ -84.2485204, 38.2250224 ], [ -84.2491347, 38.2263288 ], [ -84.2490703, 38.2266217 ] ] ] } },
{ "type": "Feature", "properties": { "element_type": "way", "osmid": "1013602814", "barrier": "fence", "nodes": [ 9351485676, 9351485671, 9351485677, 9351485678, 9351485679, 9351485676 ], "alt_name": "nan", "landuse": "industrial", "name": "nan", "operator": "nan", "plant:method": "nan", "plant:output:electricity": "nan", "plant:source": "nan", "power": "nan", "ref:US:EIA": "nan", "source": "nan", "start_date": "nan", "note": "nan", "addr:city": "nan", "addr:housenumber": "nan", "addr:state": "nan", "addr:street": "nan", "industrial": "nan", "addr:postcode": "nan", "end_date": "nan", "was:power": "nan", "website": "nan", "ways": "nan", "type": "nan" }, "geometry": { "type": "Polygon", "coordinates": [ [ [ -84.6076243, 37.9787747 ], [ -84.6075731, 37.9787597 ], [ -84.6072932, 37.9786778 ], [ -84.6071699, 37.9789397 ], [ -84.6075011, 37.9790366 ], [ -84.6076243, 37.9787747 ] ] ] } },
{ "type": "Feature", "properties": { "element_type": "way", "osmid": "1015124017", "barrier": "fence", "nodes": [ 9364364491, 9364364492, 9364364493, 9364364494, 9364364491 ], "alt_name": "nan", "landuse": "industrial", "name": "nan", "operator": "nan", "plant:method": "nan", "plant:output:electricity": "nan", "plant:source": "nan", "power": "nan", "ref:US:EIA": "nan", "source": "nan", "start_date": "nan", "note": "nan", "addr:city": "nan", "addr:housenumber": "nan", "addr:state": "nan", "addr:street": "nan", "industrial": "nan", "addr:postcode": "nan", "end_date": "nan", "was:power": "nan", "website": "nan", "ways": "nan", "type": "nan" }, "geometry": { "type": "Polygon", "coordinates": [ [ [ -84.498702, 37.9463166 ], [ -84.4985112, 37.9461618 ], [ -84.4986639, 37.9460448 ], [ -84.4988547, 37.9461997 ], [ -84.498702, 37.9463166 ] ] ] } },
{ "type": "Feature", "properties": { "element_type": "way", "osmid": "1025992221", "barrier": "fence", "nodes": [ 9459414635, 9459414636, 9459414637, 9459414638, 9459414635 ], "alt_name": "nan", "landuse": "industrial", "name": "nan", "operator": "nan", "plant:method": "nan", "plant:output:electricity": "nan", "plant:source": "nan", "power": "nan", "ref:US:EIA": "nan", "source": "nan", "start_date": "nan", "note": "nan", "addr:city": "nan", "addr:housenumber": "nan", "addr:state": "nan", "addr:street": "nan", "industrial": "nan", "addr:postcode": "nan", "end_date": "nan", "was:power": "nan", "website": "nan", "ways": "nan", "type": "nan" }, "geometry": { "type": "Polygon", "coordinates": [ [ [ -84.4704111, 37.9815331 ], [ -84.470271, 37.9814682 ], [ -84.470362, 37.9813461 ], [ -84.4705021, 37.9814111 ], [ -84.4704111, 37.9815331 ] ] ] } },
{ "type": "Feature", "properties": { "element_type": "way", "osmid": "1025995187", "barrier": "fence", "nodes": [ 9459414467, 9459414468, 9459414469, 9459414470, 9459414471, 9459414472, 9459414467 ], "alt_name": "nan", "landuse": "industrial", "name": "nan", "operator": "nan", "plant:method": "nan", "plant:output:electricity": "nan", "plant:source": "nan", "power": "nan", "ref:US:EIA": "nan", "source": "nan", "start_date": "nan", "note": "nan", "addr:city": "nan", "addr:housenumber": "nan", "addr:state": "nan", "addr:street": "nan", "industrial": "nan", "addr:postcode": "nan", "end_date": "nan", "was:power": "nan", "website": "nan", "ways": "nan", "type": "nan" }, "geometry": { "type": "Polygon", "coordinates": [ [ [ -84.5449399, 37.960644 ], [ -84.5448102, 37.9606392 ], [ -84.5448447, 37.9604748 ], [ -84.545041, 37.9604792 ], [ -84.5450411, 37.9605801 ], [ -84.5449486, 37.9605811 ], [ -84.5449399, 37.960644 ] ] ] } },
{ "type": "Feature", "properties": { "element_type": "way", "osmid": "1027121287", "barrier": "fence", "nodes": [ 9469497560, 9469497561, 9469497562, 9469497563, 9469497560 ], "alt_name": "nan", "landuse": "industrial", "name": "nan", "operator": "nan", "plant:method": "nan", "plant:output:electricity": "nan", "plant:source": "nan", "power": "nan", "ref:US:EIA": "nan", "source": "nan", "start_date": "nan", "note": "nan", "addr:city": "nan", "addr:housenumber": "nan", "addr:state": "nan", "addr:street": "nan", "industrial": "nan", "addr:postcode": "nan", "end_date": "nan", "was:power": "nan", "website": "nan", "ways": "nan", "type": "nan" }, "geometry": { "type": "Polygon", "coordinates": [ [ [ -84.5262068, 38.075317 ], [ -84.5255337, 38.075097 ], [ -84.525257, 38.075707 ], [ -84.525938, 38.0758262 ], [ -84.5262068, 38.075317 ] ] ] } },
{ "type": "Feature", "properties": { "element_type": "way", "osmid": "1028520974", "barrier": "fence", "nodes": [ 9482342575, 9482342576, 9482342577, 9482342578, 9482342579, 9482342580, 9482342581, 9482342582, 9482342575 ], "alt_name": "nan", "landuse": "industrial", "name": "nan", "operator": "nan", "plant:method": "nan", "plant:output:electricity": "nan", "plant:source": "nan", "power": "nan", "ref:US:EIA": "nan", "source": "nan", "start_date": "nan", "note": "nan", "addr:city": "nan", "addr:housenumber": "nan", "addr:state": "nan", "addr:street": "nan", "industrial": "nan", "addr:postcode": "nan", "end_date": "nan", "was:power": "nan", "website": "nan", "ways": "nan", "type": "nan" }, "geometry": { "type": "Polygon", "coordinates": [ [ [ -84.4307928, 38.0585641 ], [ -84.4314474, 38.058227 ], [ -84.4314639, 38.0579405 ], [ -84.4307286, 38.0575552 ], [ -84.4303761, 38.0574857 ], [ -84.4301059, 38.0577848 ], [ -84.4304711, 38.0582841 ], [ -84.4306097, 38.058405 ], [ -84.4307928, 38.0585641 ] ] ] } },
{ "type": "Feature", "properties": { "element_type": "way", "osmid": "1033377211", "barrier": "fence", "nodes": [ 9520806347, 3575327612, 9520806348, 9520806349, 9520806350, 3575327607, 9520806351, 9520806352, 9520806353, 9520806357, 9520806356, 9520806355, 9520806354, 9520806347 ], "alt_name": "nan", "landuse": "industrial", "name": "nan", "operator": "nan", "plant:method": "nan", "plant:output:electricity": "nan", "plant:source": "nan", "power": "nan", "ref:US:EIA": "nan", "source": "nan", "start_date": "nan", "note": "nan", "addr:city": "nan", "addr:housenumber": "nan", "addr:state": "nan", "addr:street": "nan", "industrial": "nan", "addr:postcode": "nan", "end_date": "nan", "was:power": "nan", "website": "nan", "ways": "nan", "type": "nan" }, "geometry": { "type": "Polygon", "coordinates": [ [ [ -84.542994, 38.2095231 ], [ -84.5426373, 38.2095567 ], [ -84.5422843, 38.20959 ], [ -84.5418734, 38.209279 ], [ -84.5421364, 38.2086139 ], [ -84.5421859, 38.2085935 ], [ -84.542233, 38.2085742 ], [ -84.5422144, 38.2084545 ], [ -84.542353, 38.2081725 ], [ -84.542882, 38.2080827 ], [ -84.5430968, 38.2082597 ], [ -84.542904, 38.2086612 ], [ -84.5430177, 38.2089646 ], [ -84.542994, 38.2095231 ] ] ] } },
{ "type": "Feature", "properties": { "element_type": "way", "osmid": "1060406061", "barrier": "nan", "nodes": [ 9742561708, 9742561709, 9742561710, 9742561711, 7816435324, 7816421227, 9742561712, 9742561713, 9742561714, 9742581118, 9742561716, 9742581117, 9742561715, 9742561708 ], "alt_name": "nan", "landuse": "industrial", "name": "GMWSS  Distribution", "operator": "nan", "plant:method": "nan", "plant:output:electricity": "nan", "plant:source": "nan", "power": "nan", "ref:US:EIA": "nan", "source": "nan", "start_date": "nan", "note": "nan", "addr:city": "Georgetown", "addr:housenumber": "1010", "addr:state": "KY", "addr:street": "West Main Street", "industrial": "nan", "addr:postcode": "40324", "end_date": "nan", "was:power": "nan", "website": "nan", "ways": "nan", "type": "nan" }, "geometry": { "type": "Polygon", "coordinates": [ [ [ -84.5743021, 38.2093719 ], [ -84.5741577, 38.2091515 ], [ -84.5741194, 38.2090379 ], [ -84.5741237, 38.208881 ], [ -84.5745679, 38.2088739 ], [ -84.5750228, 38.2088564 ], [ -84.5750501, 38.2091314 ], [ -84.5748206, 38.2091348 ], [ -84.5747162, 38.2091356 ], [ -84.574712, 38.2091591 ], [ -84.5747367, 38.2091941 ], [ -84.5747047, 38.2092422 ], [ -84.5746655, 38.2092734 ], [ -84.5743021, 38.2093719 ] ] ] } },
{ "type": "Feature", "properties": { "element_type": "way", "osmid": "1060406062", "barrier": "nan", "nodes": [ 168198946, 9742581119, 9742581120, 9742581121, 168198946 ], "alt_name": "nan", "landuse": "industrial", "name": "City of Georgetown Snow Removal", "operator": "nan", "plant:method": "nan", "plant:output:electricity": "nan", "plant:source": "nan", "power": "nan", "ref:US:EIA": "nan", "source": "nan", "start_date": "nan", "note": "nan", "addr:city": "Georgetown", "addr:housenumber": "806-808", "addr:state": "KY", "addr:street": "E Jackson Street", "industrial": "nan", "addr:postcode": "40324", "end_date": "nan", "was:power": "nan", "website": "nan", "ways": "nan", "type": "nan" }, "geometry": { "type": "Polygon", "coordinates": [ [ [ -84.5482246, 38.2061093 ], [ -84.5482902, 38.2054275 ], [ -84.5486283, 38.2054674 ], [ -84.5485586, 38.206128 ], [ -84.5482246, 38.2061093 ] ] ] } },
{ "type": "Feature", "properties": { "element_type": "way", "osmid": "1136050371", "barrier": "nan", "nodes": [ 10590110246, 10590110247, 10590110248, 10590110249, 8337456251, 10590110246 ], "alt_name": "nan", "landuse": "industrial", "name": "nan", "operator": "nan", "plant:method": "nan", "plant:output:electricity": "nan", "plant:source": "nan", "power": "nan", "ref:US:EIA": "nan", "source": "nan", "start_date": "nan", "note": "nan", "addr:city": "nan", "addr:housenumber": "nan", "addr:state": "nan", "addr:street": "nan", "industrial": "nan", "addr:postcode": "nan", "end_date": "nan", "was:power": "nan", "website": "nan", "ways": "nan", "type": "nan" }, "geometry": { "type": "Polygon", "coordinates": [ [ [ -84.32155, 37.8813832 ], [ -84.3211215, 37.8815019 ], [ -84.3208349, 37.8807399 ], [ -84.3213542, 37.8807186 ], [ -84.3213992, 37.8808714 ], [ -84.32155, 37.8813832 ] ] ] } },
{ "type": "Feature", "properties": { "element_type": "way", "osmid": "1136050372", "barrier": "fence", "nodes": [ 10590110250, 7183752142, 10590110251, 10590110252, 10590110253, 10590110250 ], "alt_name": "nan", "landuse": "industrial", "name": "nan", "operator": "nan", "plant:method": "nan", "plant:output:electricity": "nan", "plant:source": "nan", "power": "nan", "ref:US:EIA": "nan", "source": "nan", "start_date": "nan", "note": "nan", "addr:city": "nan", "addr:housenumber": "nan", "addr:state": "nan", "addr:street": "nan", "industrial": "nan", "addr:postcode": "nan", "end_date": "nan", "was:power": "nan", "website": "nan", "ways": "nan", "type": "nan" }, "geometry": { "type": "Polygon", "coordinates": [ [ [ -84.3260048, 37.8790249 ], [ -84.3260125, 37.8790666 ], [ -84.3261028, 37.8795558 ], [ -84.3254348, 37.8796833 ], [ -84.325328, 37.8791437 ], [ -84.3260048, 37.8790249 ] ] ] } },
{ "type": "Feature", "properties": { "element_type": "way", "osmid": "1155106199", "barrier": "nan", "nodes": [ 10742259374, 10742259375, 10742259376, 10742259377, 10742259378, 10742259379, 10742259380, 10742259374 ], "alt_name": "nan", "landuse": "industrial", "name": "nan", "operator": "nan", "plant:method": "nan", "plant:output:electricity": "nan", "plant:source": "nan", "power": "nan", "ref:US:EIA": "nan", "source": "nan", "start_date": "nan", "note": "nan", "addr:city": "nan", "addr:housenumber": "nan", "addr:state": "nan", "addr:street": "nan", "industrial": "nan", "addr:postcode": "nan", "end_date": "nan", "was:power": "nan", "website": "nan", "ways": "nan", "type": "nan" }, "geometry": { "type": "Polygon", "coordinates": [ [ [ -84.5278403, 38.1196567 ], [ -84.5276634, 38.119936 ], [ -84.5274109, 38.120114 ], [ -84.5281301, 38.1241579 ], [ -84.5292728, 38.123749 ], [ -84.5288814, 38.121233 ], [ -84.5286733, 38.1199406 ], [ -84.5278403, 38.1196567 ] ] ] } },
{ "type": "Feature", "properties": { "element_type": "way", "osmid": "1155921723", "barrier": "nan", "nodes": [ 10749638877, 10749638878, 10749638879, 10749638880, 10749638881, 10749638882, 10749638883, 10749638877 ], "alt_name": "nan", "landuse": "industrial", "name": "nan", "operator": "nan", "plant:method": "nan", "plant:output:electricity": "nan", "plant:source": "nan", "power": "nan", "ref:US:EIA": "nan", "source": "nan", "start_date": "nan", "note": "nan", "addr:city": "nan", "addr:housenumber": "nan", "addr:state": "nan", "addr:street": "nan", "industrial": "nan", "addr:postcode": "nan", "end_date": "nan", "was:power": "nan", "website": "nan", "ways": "nan", "type": "nan" }, "geometry": { "type": "Polygon", "coordinates": [ [ [ -84.5707721, 37.9755961 ], [ -84.570474, 37.9761105 ], [ -84.5685108, 37.975591 ], [ -84.5680469, 37.9754111 ], [ -84.5681673, 37.9752515 ], [ -84.5682378, 37.9752832 ], [ -84.5687988, 37.9745908 ], [ -84.5707721, 37.9755961 ] ] ] } },
{ "type": "Feature", "properties": { "element_type": "way", "osmid": "1156173386", "barrier": "fence", "nodes": [ 10751891480, 8337366313, 10751891481, 10751891482, 10751891483, 10751891484, 10751891485, 10751891486, 10751891487, 10751891488, 10751891489, 10751891490, 10751891491, 10751891492, 10751891493, 10751891494, 10751891495, 10751891496, 10751891497, 10751891498, 10751891499, 10751891500, 10751891501, 10751891502, 10751891503, 10751891504, 10751925505, 10751891480 ], "alt_name": "nan", "landuse": "industrial", "name": "nan", "operator": "nan", "plant:method": "nan", "plant:output:electricity": "nan", "plant:source": "nan", "power": "nan", "ref:US:EIA": "nan", "source": "nan", "start_date": "nan", "note": "nan", "addr:city": "nan", "addr:housenumber": "nan", "addr:state": "nan", "addr:street": "nan", "industrial": "nan", "addr:postcode": "nan", "end_date": "nan", "was:power": "nan", "website": "nan", "ways": "nan", "type": "nan" }, "geometry": { "type": "Polygon", "coordinates": [ [ [ -84.4164483, 38.0415037 ], [ -84.4164689, 38.0415434 ], [ -84.4164988, 38.0416092 ], [ -84.4166808, 38.0416934 ], [ -84.4170419, 38.0425343 ], [ -84.4170317, 38.0425744 ], [ -84.4169982, 38.0426072 ], [ -84.4169569, 38.0426166 ], [ -84.4158963, 38.0427965 ], [ -84.4158556, 38.0425992 ], [ -84.4155639, 38.042039 ], [ -84.4153632, 38.0421024 ], [ -84.4151305, 38.0421437 ], [ -84.4149434, 38.0420713 ], [ -84.4148594, 38.0419906 ], [ -84.4148136, 38.041884 ], [ -84.4148346, 38.041791 ], [ -84.4148727, 38.0417132 ], [ -84.4149169, 38.0416727 ], [ -84.4151485, 38.041573 ], [ -84.4152123, 38.0414297 ], [ -84.4153068, 38.0413116 ], [ -84.4155156, 38.0412521 ], [ -84.415606, 38.0412875 ], [ -84.4159827, 38.0412083 ], [ -84.4164925, 38.0412627 ], [ -84.4165589, 38.04142 ], [ -84.4164483, 38.0415037 ] ] ] } },
{ "type": "Feature", "properties": { "element_type": "way", "osmid": "1159054530", "barrier": "fence", "nodes": [ 10778692899, 10778692900, 10778692901, 10778692902, 10778692903, 10778692899 ], "alt_name": "nan", "landuse": "industrial", "name": "nan", "operator": "nan", "plant:method": "nan", "plant:output:electricity": "nan", "plant:source": "nan", "power": "nan", "ref:US:EIA": "nan", "source": "nan", "start_date": "nan", "note": "nan", "addr:city": "nan", "addr:housenumber": "nan", "addr:state": "nan", "addr:street": "nan", "industrial": "nan", "addr:postcode": "nan", "end_date": "nan", "was:power": "nan", "website": "nan", "ways": "nan", "type": "nan" }, "geometry": { "type": "Polygon", "coordinates": [ [ [ -84.2510672, 37.9018406 ], [ -84.2509582, 37.9017666 ], [ -84.2509902, 37.9017297 ], [ -84.2510509, 37.90169 ], [ -84.2511613, 37.9017668 ], [ -84.2510672, 37.9018406 ] ] ] } },
{ "type": "Feature", "properties": { "element_type": "way", "osmid": "1207911105", "barrier": "nan", "nodes": [ 11191941987, 11191941988, 11191941989, 11191941990, 11191941991, 11191941992, 11191941987 ], "alt_name": "nan", "landuse": "industrial", "name": "nan", "operator": "nan", "plant:method": "nan", "plant:output:electricity": "nan", "plant:source": "nan", "power": "nan", "ref:US:EIA": "nan", "source": "nan", "start_date": "nan", "note": "nan", "addr:city": "nan", "addr:housenumber": "nan", "addr:state": "nan", "addr:street": "nan", "industrial": "scrap_yard", "addr:postcode": "nan", "end_date": "nan", "was:power": "nan", "website": "nan", "ways": "nan", "type": "nan" }, "geometry": { "type": "Polygon", "coordinates": [ [ [ -84.5121765, 38.0545952 ], [ -84.5123907, 38.054275 ], [ -84.5121303, 38.0541713 ], [ -84.5122402, 38.053996 ], [ -84.5111224, 38.0535426 ], [ -84.5107881, 38.0540473 ], [ -84.5121765, 38.0545952 ] ] ] } },
{ "type": "Feature", "properties": { "element_type": "relation", "osmid": "13779636", "barrier": "nan", "nodes": [ [ [ 3394737639, 9492862467, 9492862468, 3216905664, 1583255599, 1583255799, 1583255696, 3216905663, 3216905662, 3216905661, 3394737641, 3394737642, 3394737643, 3394737644, 3394737645, 3394737646, 3394737647, 3394737648, 3394737649, 3394737650, 3394737651, 3394737652, 3394737653, 3394737654, 3394737655, 3394737656, 3394737657, 3394737620, 3394737658, 3394737637, 3394737638, 3394737639 ] ] ], "alt_name": "nan", "landuse": "industrial", "name": "nan", "operator": "nan", "plant:method": "nan", "plant:output:electricity": "nan", "plant:source": "nan", "power": "nan", "ref:US:EIA": "nan", "source": "nan", "start_date": "nan", "note": "nan", "addr:city": "nan", "addr:housenumber": "nan", "addr:state": "nan", "addr:street": "nan", "industrial": "nan", "addr:postcode": "nan", "end_date": "nan", "was:power": "nan", "website": "nan", "ways": [ 332358284 ], "type": "multipolygon" }, "geometry": { "type": "Polygon", "coordinates": [ [ [ -84.5295276, 38.0603695 ], [ -84.5291378, 38.0613567 ], [ -84.5287974, 38.0612546 ], [ -84.5287779, 38.061389 ], [ -84.5260251, 38.0605758 ], [ -84.5255067, 38.0616638 ], [ -84.5282597, 38.0624767 ], [ -84.528156, 38.0626892 ], [ -84.5293208, 38.0629833 ], [ -84.5295139, 38.0628481 ], [ -84.5304151, 38.06367 ], [ -84.5287224, 38.0653075 ], [ -84.5274993, 38.0645231 ], [ -84.5264695, 38.0640018 ], [ -84.5260014, 38.063886 ], [ -84.5258676, 38.0641598 ], [ -84.5257606, 38.0641229 ], [ -84.5256536, 38.0644336 ], [ -84.5253393, 38.0643388 ], [ -84.5250183, 38.0644178 ], [ -84.5244299, 38.0642756 ], [ -84.5239283, 38.064939 ], [ -84.5229587, 38.0644546 ], [ -84.5222565, 38.064165 ], [ -84.5211665, 38.063349 ], [ -84.5204616, 38.0629209 ], [ -84.5213862, 38.0610961 ], [ -84.5217951, 38.0603057 ], [ -84.5221562, 38.0591315 ], [ -84.5223434, 38.0583101 ], [ -84.5231727, 38.058626 ], [ -84.5295276, 38.0603695 ] ] ] } }
]
}
