{
"type": "FeatureCollection",
"crs": { "type": "name", "properties": { "name": "urn:ogc:def:crs:OGC:1.3:CRS84" } },
"features": [
{ "type": "Feature", "properties": { "element_type": "node", "osmid": "1897477441", "leisure": "sports_centre", "name": "Kenpo Karate, LLC", "wheelchair": "yes", "addr:city": "nan", "addr:housenumber": "nan", "addr:postcode": "nan", "addr:state": "nan", "addr:street": "nan", "website": "nan", "barrier": "nan", "nodes": "nan", "surface": "nan", "building": "nan", "building:levels": "nan", "sport": "nan", "wikidata": "nan", "brand": "nan", "brand:wikidata": "nan", "brand:wikipedia": "nan", "operator": "nan", "access": "nan", "hoops": "nan", "area": "nan", "lit": "nan", "operator:type": "nan", "ways": "nan", "type": "nan" }, "geometry": { "type": "Point", "coordinates": [ -84.5171446, 38.0038997 ] } },
{ "type": "Feature", "properties": { "element_type": "node", "osmid": "2496135616", "leisure": "sports_centre", "name": "Fitness 19", "wheelchair": "nan", "addr:city": "nan", "addr:housenumber": "nan", "addr:postcode": "nan", "addr:state": "nan", "addr:street": "nan", "website": "nan", "barrier": "nan", "nodes": "nan", "surface": "nan", "building": "nan", "building:levels": "nan", "sport": "nan", "wikidata": "nan", "brand": "nan", "brand:wikidata": "nan", "brand:wikipedia": "nan", "operator": "nan", "access": "nan", "hoops": "nan", "area": "nan", "lit": "nan", "operator:type": "nan", "ways": "nan", "type": "nan" }, "geometry": { "type": "Point", "coordinates": [ -84.5488414, 37.979466 ] } },
{ "type": "Feature", "properties": { "element_type": "node", "osmid": "2508534832", "leisure": "sports_centre", "name": "Southland Bowling Lanes", "wheelchair": "nan", "addr:city": "Lexington", "addr:housenumber": "205", "addr:postcode": "40503", "addr:state": "KY", "addr:street": "Southland Drive", "website": "https://www.collinsbowling.com/", "barrier": "nan", "nodes": "nan", "surface": "nan", "building": "nan", "building:levels": "nan", "sport": "nan", "wikidata": "nan", "brand": "nan", "brand:wikidata": "nan", "brand:wikipedia": "nan", "operator": "nan", "access": "nan", "hoops": "nan", "area": "nan", "lit": "nan", "operator:type": "nan", "ways": "nan", "type": "nan" }, "geometry": { "type": "Point", "coordinates": [ -84.5189839, 38.0133955 ] } },
{ "type": "Feature", "properties": { "element_type": "node", "osmid": "2767004370", "leisure": "sports_centre", "name": "Wildcat Fitness", "wheelchair": "nan", "addr:city": "nan", "addr:housenumber": "nan", "addr:postcode": "nan", "addr:state": "nan", "addr:street": "nan", "website": "nan", "barrier": "nan", "nodes": "nan", "surface": "nan", "building": "nan", "building:levels": "nan", "sport": "nan", "wikidata": "nan", "brand": "nan", "brand:wikidata": "nan", "brand:wikipedia": "nan", "operator": "nan", "access": "nan", "hoops": "nan", "area": "nan", "lit": "nan", "operator:type": "nan", "ways": "nan", "type": "nan" }, "geometry": { "type": "Point", "coordinates": [ -84.4801548, 37.9615943 ] } },
{ "type": "Feature", "properties": { "element_type": "node", "osmid": "3158021991", "leisure": "sports_centre", "name": "West Jessamine Ball Fields", "wheelchair": "nan", "addr:city": "nan", "addr:housenumber": "nan", "addr:postcode": "nan", "addr:state": "nan", "addr:street": "nan", "website": "nan", "barrier": "nan", "nodes": "nan", "surface": "nan", "building": "nan", "building:levels": "nan", "sport": "nan", "wikidata": "nan", "brand": "nan", "brand:wikidata": "nan", "brand:wikipedia": "nan", "operator": "nan", "access": "nan", "hoops": "nan", "area": "nan", "lit": "nan", "operator:type": "nan", "ways": "nan", "type": "nan" }, "geometry": { "type": "Point", "coordinates": [ -84.6179766, 37.887062 ] } },
{ "type": "Feature", "properties": { "element_type": "node", "osmid": "3158022008", "leisure": "sports_centre", "name": "West Jessamine Tennis Courts", "wheelchair": "nan", "addr:city": "nan", "addr:housenumber": "nan", "addr:postcode": "nan", "addr:state": "nan", "addr:street": "nan", "website": "nan", "barrier": "nan", "nodes": "nan", "surface": "nan", "building": "nan", "building:levels": "nan", "sport": "nan", "wikidata": "nan", "brand": "nan", "brand:wikidata": "nan", "brand:wikipedia": "nan", "operator": "nan", "access": "nan", "hoops": "nan", "area": "nan", "lit": "nan", "operator:type": "nan", "ways": "nan", "type": "nan" }, "geometry": { "type": "Point", "coordinates": [ -84.6168877, 37.8880569 ] } },
{ "type": "Feature", "properties": { "element_type": "node", "osmid": "3167887385", "leisure": "sports_centre", "name": "Bodyfit PUNCH", "wheelchair": "nan", "addr:city": "nan", "addr:housenumber": "nan", "addr:postcode": "nan", "addr:state": "nan", "addr:street": "nan", "website": "nan", "barrier": "nan", "nodes": "nan", "surface": "nan", "building": "nan", "building:levels": "nan", "sport": "nan", "wikidata": "nan", "brand": "nan", "brand:wikidata": "nan", "brand:wikipedia": "nan", "operator": "nan", "access": "nan", "hoops": "nan", "area": "nan", "lit": "nan", "operator:type": "nan", "ways": "nan", "type": "nan" }, "geometry": { "type": "Point", "coordinates": [ -84.5138772, 38.0379967 ] } },
{ "type": "Feature", "properties": { "element_type": "node", "osmid": "3201982863", "leisure": "sports_centre", "name": "nan", "wheelchair": "nan", "addr:city": "nan", "addr:housenumber": "nan", "addr:postcode": "nan", "addr:state": "nan", "addr:street": "nan", "website": "nan", "barrier": "nan", "nodes": "nan", "surface": "nan", "building": "nan", "building:levels": "nan", "sport": "nan", "wikidata": "nan", "brand": "nan", "brand:wikidata": "nan", "brand:wikipedia": "nan", "operator": "nan", "access": "nan", "hoops": "nan", "area": "nan", "lit": "nan", "operator:type": "nan", "ways": "nan", "type": "nan" }, "geometry": { "type": "Point", "coordinates": [ -84.4917662, 38.0423163 ] } },
{ "type": "Feature", "properties": { "element_type": "node", "osmid": "4058885978", "leisure": "sports_centre", "name": "Proof Fitness", "wheelchair": "nan", "addr:city": "nan", "addr:housenumber": "nan", "addr:postcode": "nan", "addr:state": "nan", "addr:street": "nan", "website": "nan", "barrier": "nan", "nodes": "nan", "surface": "nan", "building": "nan", "building:levels": "nan", "sport": "nan", "wikidata": "nan", "brand": "nan", "brand:wikidata": "nan", "brand:wikipedia": "nan", "operator": "nan", "access": "nan", "hoops": "nan", "area": "nan", "lit": "nan", "operator:type": "nan", "ways": "nan", "type": "nan" }, "geometry": { "type": "Point", "coordinates": [ -84.4986874, 38.0471329 ] } },
{ "type": "Feature", "properties": { "element_type": "node", "osmid": "8783673132", "leisure": "sports_centre", "name": "Battle Axes", "wheelchair": "nan", "addr:city": "nan", "addr:housenumber": "nan", "addr:postcode": "nan", "addr:state": "nan", "addr:street": "nan", "website": "nan", "barrier": "nan", "nodes": "nan", "surface": "nan", "building": "nan", "building:levels": "nan", "sport": "nan", "wikidata": "nan", "brand": "nan", "brand:wikidata": "nan", "brand:wikipedia": "nan", "operator": "nan", "access": "nan", "hoops": "nan", "area": "nan", "lit": "nan", "operator:type": "nan", "ways": "nan", "type": "nan" }, "geometry": { "type": "Point", "coordinates": [ -84.5176479, 38.0553697 ] } },
{ "type": "Feature", "properties": { "element_type": "way", "osmid": "28788458", "leisure": "sports_centre", "name": "nan", "wheelchair": "nan", "addr:city": "nan", "addr:housenumber": "nan", "addr:postcode": "nan", "addr:state": "nan", "addr:street": "nan", "website": "nan", "barrier": "fence", "nodes": [ 316545950, 316545951, 316545952, 316545953, 316545950 ], "surface": "nan", "building": "nan", "building:levels": "nan", "sport": "nan", "wikidata": "nan", "brand": "nan", "brand:wikidata": "nan", "brand:wikipedia": "nan", "operator": "nan", "access": "nan", "hoops": "nan", "area": "nan", "lit": "nan", "operator:type": "nan", "ways": "nan", "type": "nan" }, "geometry": { "type": "Polygon", "coordinates": [ [ [ -84.5358588, 37.9847402 ], [ -84.5360202, 37.9844402 ], [ -84.5347618, 37.9840196 ], [ -84.5346004, 37.9843197 ], [ -84.5358588, 37.9847402 ] ] ] } },
{ "type": "Feature", "properties": { "element_type": "way", "osmid": "28788459", "leisure": "sports_centre", "name": "nan", "wheelchair": "nan", "addr:city": "nan", "addr:housenumber": "nan", "addr:postcode": "nan", "addr:state": "nan", "addr:street": "nan", "website": "nan", "barrier": "fence", "nodes": [ 316545954, 316545955, 316545956, 316545957, 316545954 ], "surface": "nan", "building": "nan", "building:levels": "nan", "sport": "nan", "wikidata": "nan", "brand": "nan", "brand:wikidata": "nan", "brand:wikipedia": "nan", "operator": "nan", "access": "nan", "hoops": "nan", "area": "nan", "lit": "nan", "operator:type": "nan", "ways": "nan", "type": "nan" }, "geometry": { "type": "Polygon", "coordinates": [ [ [ -84.5355098, 37.9851541 ], [ -84.5356747, 37.984852 ], [ -84.5353271, 37.9847341 ], [ -84.5351622, 37.9850363 ], [ -84.5355098, 37.9851541 ] ] ] } },
{ "type": "Feature", "properties": { "element_type": "way", "osmid": "28788461", "leisure": "sports_centre", "name": "nan", "wheelchair": "nan", "addr:city": "nan", "addr:housenumber": "nan", "addr:postcode": "nan", "addr:state": "nan", "addr:street": "nan", "website": "nan", "barrier": "fence", "nodes": [ 316545961, 9535020717, 316545962, 9535020728, 9534954473, 316545963, 9535020721, 316545964, 316545961 ], "surface": "nan", "building": "nan", "building:levels": "nan", "sport": "nan", "wikidata": "nan", "brand": "nan", "brand:wikidata": "nan", "brand:wikipedia": "nan", "operator": "nan", "access": "nan", "hoops": "nan", "area": "nan", "lit": "nan", "operator:type": "nan", "ways": "nan", "type": "nan" }, "geometry": { "type": "Polygon", "coordinates": [ [ [ -84.5350816, 37.9849984 ], [ -84.5351021, 37.9849886 ], [ -84.5352494, 37.9847168 ], [ -84.5352354, 37.9846907 ], [ -84.5350877, 37.9846384 ], [ -84.5350563, 37.984644 ], [ -84.5349056, 37.9849167 ], [ -84.5349133, 37.9849435 ], [ -84.5350816, 37.9849984 ] ] ] } },
{ "type": "Feature", "properties": { "element_type": "way", "osmid": "28788462", "leisure": "sports_centre", "name": "nan", "wheelchair": "nan", "addr:city": "nan", "addr:housenumber": "nan", "addr:postcode": "nan", "addr:state": "nan", "addr:street": "nan", "website": "nan", "barrier": "fence", "nodes": [ 316545965, 316545966, 316545967, 316545968, 316545965 ], "surface": "nan", "building": "nan", "building:levels": "nan", "sport": "nan", "wikidata": "nan", "brand": "nan", "brand:wikidata": "nan", "brand:wikipedia": "nan", "operator": "nan", "access": "nan", "hoops": "nan", "area": "nan", "lit": "nan", "operator:type": "nan", "ways": "nan", "type": "nan" }, "geometry": { "type": "Polygon", "coordinates": [ [ [ -84.5348167, 37.9849181 ], [ -84.5349811, 37.9846177 ], [ -84.5346451, 37.9845035 ], [ -84.5344807, 37.9848039 ], [ -84.5348167, 37.9849181 ] ] ] } },
{ "type": "Feature", "properties": { "element_type": "way", "osmid": "28788463", "leisure": "sports_centre", "name": "Shillito Basketball Courts", "wheelchair": "nan", "addr:city": "nan", "addr:housenumber": "nan", "addr:postcode": "nan", "addr:state": "nan", "addr:street": "nan", "website": "nan", "barrier": "nan", "nodes": [ 316545969, 316545970, 316545971, 2508530938, 316545969 ], "surface": "paved", "building": "nan", "building:levels": "nan", "sport": "nan", "wikidata": "nan", "brand": "nan", "brand:wikidata": "nan", "brand:wikipedia": "nan", "operator": "nan", "access": "nan", "hoops": "nan", "area": "nan", "lit": "nan", "operator:type": "nan", "ways": "nan", "type": "nan" }, "geometry": { "type": "Polygon", "coordinates": [ [ [ -84.5364563, 37.9848489 ], [ -84.5365892, 37.9846176 ], [ -84.5361933, 37.9844764 ], [ -84.5360605, 37.9847076 ], [ -84.5364563, 37.9848489 ] ] ] } },
{ "type": "Feature", "properties": { "element_type": "way", "osmid": "59854582", "leisure": "sports_centre", "name": "Keeneland", "wheelchair": "nan", "addr:city": "nan", "addr:housenumber": "nan", "addr:postcode": "nan", "addr:state": "nan", "addr:street": "nan", "website": "nan", "barrier": "nan", "nodes": [ 743079379, 743079383, 743079385, 743079387, 743079389, 743079394, 743079401, 743079406, 743079411, 743079416, 743079433, 743079437, 743079440, 743079443, 743079466, 743079510, 743079521, 743079528, 743079535, 743079543, 743079548, 743079554, 743079561, 9395341894, 9395341895, 743079571, 743079580, 743079588, 743079627, 743079635, 743079644, 743079647, 743079650, 743079654, 743079662, 743079673, 743079681, 743079687, 743079697, 743079705, 743079716, 743079723, 743079730, 743079735, 743079738, 743079742, 743079379 ], "surface": "nan", "building": "nan", "building:levels": "nan", "sport": "nan", "wikidata": "nan", "brand": "nan", "brand:wikidata": "nan", "brand:wikipedia": "nan", "operator": "nan", "access": "nan", "hoops": "nan", "area": "nan", "lit": "nan", "operator:type": "nan", "ways": "nan", "type": "nan" }, "geometry": { "type": "Polygon", "coordinates": [ [ [ -84.6150017, 38.0432781 ], [ -84.6134444, 38.04647 ], [ -84.6134015, 38.0470952 ], [ -84.6135303, 38.0477036 ], [ -84.6137234, 38.0483457 ], [ -84.6137449, 38.0487005 ], [ -84.6136376, 38.0491399 ], [ -84.6133586, 38.0495961 ], [ -84.6119424, 38.0512436 ], [ -84.6110626, 38.0523081 ], [ -84.6098509, 38.0545767 ], [ -84.6092495, 38.0557296 ], [ -84.6089841, 38.0560506 ], [ -84.6076798, 38.0569577 ], [ -84.5941093, 38.0555502 ], [ -84.5931879, 38.0570884 ], [ -84.5911567, 38.0563871 ], [ -84.5863434, 38.0549439 ], [ -84.5851203, 38.0545384 ], [ -84.5849696, 38.0544351 ], [ -84.5848281, 38.0543474 ], [ -84.5848307, 38.0541977 ], [ -84.5853732, 38.0532608 ], [ -84.5865297, 38.0511248 ], [ -84.5871158, 38.0500487 ], [ -84.5876785, 38.0489911 ], [ -84.590011, 38.0447693 ], [ -84.590213, 38.044706 ], [ -84.5914847, 38.0446167 ], [ -84.5923358, 38.0445839 ], [ -84.5931361, 38.0445505 ], [ -84.593902, 38.0444466 ], [ -84.5980674, 38.0439307 ], [ -84.6009939, 38.0435783 ], [ -84.6032062, 38.0433025 ], [ -84.6051846, 38.0430071 ], [ -84.6071802, 38.0427634 ], [ -84.6083434, 38.0426668 ], [ -84.608785, 38.042705 ], [ -84.6099249, 38.0426951 ], [ -84.6108971, 38.0427391 ], [ -84.611837, 38.0427888 ], [ -84.6128654, 38.0428203 ], [ -84.6138123, 38.0428524 ], [ -84.6142592, 38.04288 ], [ -84.6149468, 38.0429296 ], [ -84.6150017, 38.0432781 ] ] ] } },
{ "type": "Feature", "properties": { "element_type": "way", "osmid": "143800792", "leisure": "sports_centre", "name": "Keeneland", "wheelchair": "nan", "addr:city": "nan", "addr:housenumber": "nan", "addr:postcode": "nan", "addr:state": "nan", "addr:street": "nan", "website": "nan", "barrier": "nan", "nodes": [ 1573607411, 1573607438, 1573607465, 1573607457, 1573607409, 1573607444, 1573607430, 1573607440, 1573607467, 1573607432, 1573607459, 1573607447, 1573607470, 1573607442, 1573607411 ], "surface": "nan", "building": "nan", "building:levels": "nan", "sport": "nan", "wikidata": "nan", "brand": "nan", "brand:wikidata": "nan", "brand:wikipedia": "nan", "operator": "nan", "access": "nan", "hoops": "nan", "area": "nan", "lit": "nan", "operator:type": "nan", "ways": "nan", "type": "nan" }, "geometry": { "type": "Polygon", "coordinates": [ [ [ -84.6156685, 38.0430892 ], [ -84.6212003, 38.0433613 ], [ -84.6197025, 38.0471449 ], [ -84.621505, 38.0477194 ], [ -84.6192305, 38.0522479 ], [ -84.6133253, 38.0500724 ], [ -84.6137931, 38.0496491 ], [ -84.6140559, 38.049192 ], [ -84.61413, 38.0487519 ], [ -84.6140999, 38.0483159 ], [ -84.6139701, 38.0477743 ], [ -84.6138285, 38.0473206 ], [ -84.6137598, 38.0468432 ], [ -84.6138392, 38.0463701 ], [ -84.6156685, 38.0430892 ] ] ] } },
{ "type": "Feature", "properties": { "element_type": "way", "osmid": "161734367", "leisure": "sports_centre", "name": "Johnson Center", "wheelchair": "nan", "addr:city": "nan", "addr:housenumber": "nan", "addr:postcode": "nan", "addr:state": "nan", "addr:street": "nan", "website": "nan", "barrier": "nan", "nodes": [ 1736942706, 1736942477, 1736942530, 1736942135, 1736942728, 1736942528, 1736942765, 1736942330, 1736942293, 1736942301, 1736941838, 4054008502, 1736942670, 1736942502, 1736942685, 1736942826, 4054008501, 1736941967, 1736942682, 4054010834, 1736942420, 3159507729, 1736942077, 1736942481, 1736942396, 1736941972, 1736941938, 1736942706 ], "surface": "nan", "building": "yes", "building:levels": "2", "sport": "nan", "wikidata": "nan", "brand": "nan", "brand:wikidata": "nan", "brand:wikipedia": "nan", "operator": "nan", "access": "nan", "hoops": "nan", "area": "nan", "lit": "nan", "operator:type": "nan", "ways": "nan", "type": "nan" }, "geometry": { "type": "Polygon", "coordinates": [ [ [ -84.5032445, 38.0276376 ], [ -84.5033829, 38.0273018 ], [ -84.5042687, 38.0275284 ], [ -84.5043496, 38.0275508 ], [ -84.5044516, 38.0275807 ], [ -84.5044806, 38.0276097 ], [ -84.5045649, 38.0275574 ], [ -84.5046011, 38.0275936 ], [ -84.5045401, 38.0276314 ], [ -84.5047171, 38.0277412 ], [ -84.504838, 38.027866 ], [ -84.5047444, 38.0279094 ], [ -84.5046413, 38.0279598 ], [ -84.5044888, 38.0277664 ], [ -84.5042262, 38.0278948 ], [ -84.5043212, 38.0280154 ], [ -84.5041646, 38.028092 ], [ -84.5041047, 38.0281217 ], [ -84.5039324, 38.0279207 ], [ -84.5038308, 38.0279693 ], [ -84.5037247, 38.0280201 ], [ -84.5037157, 38.0279813 ], [ -84.5037086, 38.0279504 ], [ -84.5037784, 38.0279103 ], [ -84.5037676, 38.0278913 ], [ -84.5033803, 38.0277923 ], [ -84.503425, 38.0276837 ], [ -84.5032445, 38.0276376 ] ] ] } },
{ "type": "Feature", "properties": { "element_type": "way", "osmid": "161734394", "leisure": "sports_centre", "name": "Lancaster Acquatic Center", "wheelchair": "nan", "addr:city": "nan", "addr:housenumber": "nan", "addr:postcode": "nan", "addr:state": "nan", "addr:street": "nan", "website": "nan", "barrier": "nan", "nodes": [ 1736942709, 1736942366, 1736941877, 1736941840, 4054010835, 1736942739, 1736942709 ], "surface": "nan", "building": "yes", "building:levels": "3", "sport": "swimming", "wikidata": "nan", "brand": "nan", "brand:wikidata": "nan", "brand:wikipedia": "nan", "operator": "nan", "access": "nan", "hoops": "nan", "area": "nan", "lit": "nan", "operator:type": "nan", "ways": "nan", "type": "nan" }, "geometry": { "type": "Polygon", "coordinates": [ [ [ -84.5040022, 38.0289432 ], [ -84.5043552, 38.02877 ], [ -84.5044114, 38.0287424 ], [ -84.5040057, 38.0282213 ], [ -84.5038784, 38.0282832 ], [ -84.5036125, 38.0284123 ], [ -84.5040022, 38.0289432 ] ] ] } },
{ "type": "Feature", "properties": { "element_type": "way", "osmid": "166758646", "leisure": "sports_centre", "name": "High Street YMCA", "wheelchair": "nan", "addr:city": "Lexington", "addr:housenumber": "239", "addr:postcode": "40507", "addr:state": "KY", "addr:street": "East High Street", "website": "nan", "barrier": "nan", "nodes": [ 1782018619, 4034883031, 1782018561, 1782018571, 1782018560, 3202191919, 3763013260, 3763013259, 3763013258, 10997436717, 3763013257, 2645934752, 1782018619 ], "surface": "nan", "building": "yes", "building:levels": "nan", "sport": "nan", "wikidata": "nan", "brand": "nan", "brand:wikidata": "nan", "brand:wikipedia": "nan", "operator": "nan", "access": "nan", "hoops": "nan", "area": "nan", "lit": "nan", "operator:type": "nan", "ways": "nan", "type": "nan" }, "geometry": { "type": "Polygon", "coordinates": [ [ [ -84.4957198, 38.0425282 ], [ -84.4956902, 38.0425014 ], [ -84.4955079, 38.0423369 ], [ -84.4950713, 38.0426421 ], [ -84.4952935, 38.0428212 ], [ -84.495499, 38.0426708 ], [ -84.4955074, 38.0426835 ], [ -84.4954126, 38.0427588 ], [ -84.4955552, 38.0428902 ], [ -84.4956103, 38.0428507 ], [ -84.4956814, 38.0427997 ], [ -84.4955211, 38.042655 ], [ -84.4957198, 38.0425282 ] ] ] } },
{ "type": "Feature", "properties": { "element_type": "way", "osmid": "224742018", "leisure": "sports_centre", "name": "Tennis Courts", "wheelchair": "nan", "addr:city": "nan", "addr:housenumber": "nan", "addr:postcode": "nan", "addr:state": "nan", "addr:street": "nan", "website": "nan", "barrier": "nan", "nodes": [ 2335346746, 2335346780, 2335346730, 2335346711, 2335346709, 2335346700, 2335346746 ], "surface": "nan", "building": "nan", "building:levels": "nan", "sport": "nan", "wikidata": "nan", "brand": "nan", "brand:wikidata": "nan", "brand:wikipedia": "nan", "operator": "nan", "access": "nan", "hoops": "nan", "area": "nan", "lit": "nan", "operator:type": "nan", "ways": "nan", "type": "nan" }, "geometry": { "type": "Polygon", "coordinates": [ [ [ -84.5242163, 38.0245967 ], [ -84.5240052, 38.0248728 ], [ -84.5231275, 38.0244563 ], [ -84.5232301, 38.0243221 ], [ -84.5232012, 38.0243084 ], [ -84.5233098, 38.0241665 ], [ -84.5242163, 38.0245967 ] ] ] } },
{ "type": "Feature", "properties": { "element_type": "way", "osmid": "235890896", "leisure": "sports_centre", "name": "Memorial Coliseum", "wheelchair": "nan", "addr:city": "nan", "addr:housenumber": "nan", "addr:postcode": "nan", "addr:state": "nan", "addr:street": "nan", "website": "nan", "barrier": "nan", "nodes": [ 2439694786, 4054939511, 2439694787, 2439694788, 2439694789, 2439694790, 2439694791, 4059100588, 2439694792, 2439694793, 2439694794, 2439694795, 2439694796, 2439694797, 2439694798, 2439694799, 2439694800, 4054939512, 2439694801, 2439694802, 2439694803, 2439694804, 2439694805, 2439694806, 2439694807, 2439694808, 2439694809, 4010026466, 2439694810, 2439694811, 4054939509, 2439694812, 2439694813, 2439694814, 2439694815, 2439694816, 4054939502, 2439694817, 2439694818, 2439694819, 2439694820, 4028328103, 4028328105, 2439694821, 2439694822, 2439694823, 2439694824, 4054939507, 2439694825, 4054939505, 2439694826, 2439694827, 2439694786 ], "surface": "nan", "building": "yes", "building:levels": "nan", "sport": "basketball;volleyball;gymnastics", "wikidata": "Q6815373", "brand": "nan", "brand:wikidata": "nan", "brand:wikipedia": "nan", "operator": "nan", "access": "nan", "hoops": "nan", "area": "nan", "lit": "nan", "operator:type": "nan", "ways": "nan", "type": "nan" }, "geometry": { "type": "Polygon", "coordinates": [ [ [ -84.499988, 38.0388036 ], [ -84.5000948, 38.038941 ], [ -84.5001489, 38.0390106 ], [ -84.5000269, 38.0390962 ], [ -84.4999209, 38.0392018 ], [ -84.4998539, 38.0392874 ], [ -84.4997976, 38.0392377 ], [ -84.4997296, 38.0392833 ], [ -84.4996527, 38.0393349 ], [ -84.4997868, 38.0394564 ], [ -84.4997734, 38.0394669 ], [ -84.4996755, 38.0393803 ], [ -84.4994207, 38.0395556 ], [ -84.4996862, 38.0397943 ], [ -84.4997023, 38.0397848 ], [ -84.4998297, 38.0398947 ], [ -84.4998432, 38.0398862 ], [ -84.4998679, 38.0399079 ], [ -84.4998914, 38.0399285 ], [ -84.499878, 38.0399359 ], [ -84.4999987, 38.0400489 ], [ -84.499984, 38.0400616 ], [ -84.5002455, 38.0402961 ], [ -84.5005003, 38.0401218 ], [ -84.5004104, 38.0400394 ], [ -84.5004225, 38.0400257 ], [ -84.5005566, 38.040145 ], [ -84.5006358, 38.0400879 ], [ -84.5007015, 38.0400404 ], [ -84.5006492, 38.0399876 ], [ -84.5007679, 38.0399429 ], [ -84.5008034, 38.0399295 ], [ -84.5009844, 38.0398292 ], [ -84.5010823, 38.0397574 ], [ -84.5011561, 38.0396877 ], [ -84.5012942, 38.0395144 ], [ -84.5012002, 38.0394529 ], [ -84.5010716, 38.0393687 ], [ -84.5010931, 38.0393444 ], [ -84.501026, 38.0392757 ], [ -84.5009978, 38.0392884 ], [ -84.5009271, 38.0392242 ], [ -84.5008415, 38.0391466 ], [ -84.5007766, 38.0390877 ], [ -84.5007967, 38.039074 ], [ -84.5007028, 38.0389874 ], [ -84.5006746, 38.0390064 ], [ -84.5005908, 38.038899 ], [ -84.5005419, 38.0388363 ], [ -84.5005357, 38.0388385 ], [ -84.5004708, 38.0388617 ], [ -84.5003005, 38.0386483 ], [ -84.499988, 38.0388036 ] ] ] } },
{ "type": "Feature", "properties": { "element_type": "way", "osmid": "241988731", "leisure": "sports_centre", "name": "North Lexington YMCA", "wheelchair": "nan", "addr:city": "Lexington", "addr:housenumber": "381", "addr:postcode": "nan", "addr:state": "KY", "addr:street": "West Loudon Avenue", "website": "nan", "barrier": "nan", "nodes": [ 2495613814, 2495613815, 2495613816, 2495613817, 2495613818, 2495613819, 2495613820, 2495613821, 2495613822, 2495613823, 2495613824, 2495613825, 2495613826, 2495613827, 2495613828, 2495613829, 2495613830, 2495613831, 2495613832, 2495613833, 2495613834, 2495613835, 2495613836, 2495613837, 2495613838, 2495613839, 2495613814 ], "surface": "nan", "building": "yes", "building:levels": "nan", "sport": "nan", "wikidata": "nan", "brand": "nan", "brand:wikidata": "nan", "brand:wikipedia": "nan", "operator": "nan", "access": "nan", "hoops": "nan", "area": "nan", "lit": "nan", "operator:type": "nan", "ways": "nan", "type": "nan" }, "geometry": { "type": "Polygon", "coordinates": [ [ [ -84.4962648, 38.0642097 ], [ -84.4962833, 38.064178 ], [ -84.4962356, 38.0641608 ], [ -84.4962768, 38.0640901 ], [ -84.4960055, 38.063992 ], [ -84.4960185, 38.0639698 ], [ -84.4958878, 38.0639225 ], [ -84.4959091, 38.063886 ], [ -84.4958192, 38.0638535 ], [ -84.4957983, 38.0638892 ], [ -84.495713, 38.0638583 ], [ -84.4956872, 38.0639025 ], [ -84.4956099, 38.0638745 ], [ -84.4955414, 38.0639919 ], [ -84.4954497, 38.0639587 ], [ -84.4952945, 38.0642248 ], [ -84.4954061, 38.0642652 ], [ -84.4953365, 38.0643844 ], [ -84.4955312, 38.0644548 ], [ -84.495599, 38.0643386 ], [ -84.4957646, 38.0643985 ], [ -84.4957836, 38.0643658 ], [ -84.4959797, 38.0644368 ], [ -84.4961232, 38.0641909 ], [ -84.4961555, 38.0642026 ], [ -84.4961712, 38.0641758 ], [ -84.4962648, 38.0642097 ] ] ] } },
{ "type": "Feature", "properties": { "element_type": "way", "osmid": "242059778", "leisure": "sports_centre", "name": "YMCA", "wheelchair": "nan", "addr:city": "Lexington", "addr:housenumber": "3251", "addr:postcode": "nan", "addr:state": "KY", "addr:street": "Beaumont Centre Circle", "website": "nan", "barrier": "nan", "nodes": [ 2496182559, 4173245548, 4173245539, 4173245536, 4173245544, 2509030327, 2509030326, 2496182557, 2496182554, 2496182573, 2496182571, 4173245556, 4173245557, 4173245558, 2509030329, 2509030328, 4173245562, 4173245560, 2496182568, 2496182565, 4173245565, 4173245563, 2496182562, 2496182559 ], "surface": "nan", "building": "yes", "building:levels": "nan", "sport": "nan", "wikidata": "nan", "brand": "YMCA", "brand:wikidata": "Q157169", "brand:wikipedia": "en:YMCA", "operator": "nan", "access": "nan", "hoops": "nan", "area": "nan", "lit": "nan", "operator:type": "nan", "ways": "nan", "type": "nan" }, "geometry": { "type": "Polygon", "coordinates": [ [ [ -84.5617741, 38.0168705 ], [ -84.5620703, 38.0166866 ], [ -84.5620082, 38.016624 ], [ -84.5620697, 38.0165858 ], [ -84.5621314, 38.016648 ], [ -84.5622052, 38.0166021 ], [ -84.5621902, 38.0165871 ], [ -84.562591, 38.0163382 ], [ -84.5628558, 38.0166051 ], [ -84.5626652, 38.0167235 ], [ -84.562822, 38.0168817 ], [ -84.5627357, 38.016935 ], [ -84.562751, 38.0169505 ], [ -84.5627334, 38.016974 ], [ -84.5627215, 38.0169846 ], [ -84.5626891, 38.0170042 ], [ -84.5626393, 38.01702 ], [ -84.5626293, 38.0170098 ], [ -84.5625338, 38.0170693 ], [ -84.5624996, 38.0170348 ], [ -84.5624681, 38.0170544 ], [ -84.5624399, 38.017026 ], [ -84.5621234, 38.0172226 ], [ -84.5617741, 38.0168705 ] ] ] } },
{ "type": "Feature", "properties": { "element_type": "way", "osmid": "242105822", "leisure": "sports_centre", "name": "south eastern baseball fields", "wheelchair": "nan", "addr:city": "nan", "addr:housenumber": "nan", "addr:postcode": "nan", "addr:state": "nan", "addr:street": "nan", "website": "nan", "barrier": "nan", "nodes": [ 2685271065, 2685271066, 2685276145, 2685271067, 9535340976, 2685271068, 9535340969, 2685271069, 2685271070, 2685271071, 9534902593, 2685271072, 9534902588, 2496553992, 9534902591, 2496553994, 9534902592, 2685271058, 9535340972, 2685271059, 9535340968, 2685271060, 9535340970, 2685271061, 2685271062, 2685271063, 2685276147, 2685271064, 9535340974, 2496553995, 9535340977, 2496553997, 9535340978, 2685271065 ], "surface": "nan", "building": "nan", "building:levels": "nan", "sport": "baseball", "wikidata": "nan", "brand": "nan", "brand:wikidata": "nan", "brand:wikipedia": "nan", "operator": "nan", "access": "nan", "hoops": "nan", "area": "nan", "lit": "nan", "operator:type": "nan", "ways": "nan", "type": "nan" }, "geometry": { "type": "Polygon", "coordinates": [ [ [ -84.5040585, 37.9573258 ], [ -84.5042406, 37.9575209 ], [ -84.5043919, 37.9576325 ], [ -84.504586, 37.9577085 ], [ -84.5047422, 37.9577373 ], [ -84.5049058, 37.9577373 ], [ -84.5050657, 37.9577097 ], [ -84.5052099, 37.9576596 ], [ -84.5054326, 37.9575066 ], [ -84.5054734, 37.9573234 ], [ -84.5056118, 37.957189 ], [ -84.5056868, 37.9570667 ], [ -84.5057123, 37.9569705 ], [ -84.505719, 37.9568383 ], [ -84.5056883, 37.9567239 ], [ -84.5056251, 37.9566141 ], [ -84.5055377, 37.9565227 ], [ -84.5054507, 37.9564513 ], [ -84.505226, 37.9563573 ], [ -84.5051553, 37.9563175 ], [ -84.5049178, 37.9562184 ], [ -84.504789, 37.9561764 ], [ -84.5045958, 37.9561227 ], [ -84.5045335, 37.9561185 ], [ -84.504166, 37.9563316 ], [ -84.5040412, 37.9566637 ], [ -84.5039575, 37.9567231 ], [ -84.5038859, 37.9568088 ], [ -84.503841, 37.9569107 ], [ -84.5038348, 37.9570109 ], [ -84.5038546, 37.9571056 ], [ -84.5039082, 37.957203 ], [ -84.5039822, 37.9572756 ], [ -84.5040585, 37.9573258 ] ] ] } },
{ "type": "Feature", "properties": { "element_type": "way", "osmid": "243999052", "leisure": "sports_centre", "name": "Kentucky Indoor Soccer and Sports", "wheelchair": "nan", "addr:city": "Lexington", "addr:housenumber": "404", "addr:postcode": "40503", "addr:state": "nan", "addr:street": "Sporting Court", "website": "nan", "barrier": "nan", "nodes": [ 2513546863, 2513546864, 2513546865, 2513546866, 2513546863 ], "surface": "nan", "building": "yes", "building:levels": "nan", "sport": "nan", "wikidata": "nan", "brand": "nan", "brand:wikidata": "nan", "brand:wikipedia": "nan", "operator": "nan", "access": "nan", "hoops": "nan", "area": "nan", "lit": "nan", "operator:type": "nan", "ways": "nan", "type": "nan" }, "geometry": { "type": "Polygon", "coordinates": [ [ [ -84.5350529, 37.9977927 ], [ -84.5353408, 37.9972782 ], [ -84.5346663, 37.9970437 ], [ -84.5343783, 37.9975582 ], [ -84.5350529, 37.9977927 ] ] ] } },
{ "type": "Feature", "properties": { "element_type": "way", "osmid": "258717023", "leisure": "sports_centre", "name": "nan", "wheelchair": "nan", "addr:city": "nan", "addr:housenumber": "nan", "addr:postcode": "nan", "addr:state": "nan", "addr:street": "nan", "website": "nan", "barrier": "nan", "nodes": [ 2640483429, 2640483427, 2640483426, 2640483428, 2640483429 ], "surface": "nan", "building": "nan", "building:levels": "nan", "sport": "tennis", "wikidata": "nan", "brand": "nan", "brand:wikidata": "nan", "brand:wikipedia": "nan", "operator": "nan", "access": "nan", "hoops": "nan", "area": "nan", "lit": "nan", "operator:type": "nan", "ways": "nan", "type": "nan" }, "geometry": { "type": "Polygon", "coordinates": [ [ [ -84.6754435, 38.1458744 ], [ -84.6744251, 38.1455083 ], [ -84.6746094, 38.1452016 ], [ -84.6756239, 38.1455586 ], [ -84.6754435, 38.1458744 ] ] ] } },
{ "type": "Feature", "properties": { "element_type": "way", "osmid": "262876503", "leisure": "sports_centre", "name": "Boone Tennis Center", "wheelchair": "nan", "addr:city": "nan", "addr:housenumber": "nan", "addr:postcode": "nan", "addr:state": "nan", "addr:street": "nan", "website": "nan", "barrier": "nan", "nodes": [ 2685354975, 2685354977, 2685354979, 2685354980, 2685354982, 3757660619, 3757660618, 2685354984, 2685354985, 2685354987, 2685354975 ], "surface": "nan", "building": "yes", "building:levels": "nan", "sport": "tennis", "wikidata": "nan", "brand": "nan", "brand:wikidata": "nan", "brand:wikipedia": "nan", "operator": "University of Kentucky", "access": "nan", "hoops": "nan", "area": "nan", "lit": "nan", "operator:type": "nan", "ways": "nan", "type": "nan" }, "geometry": { "type": "Polygon", "coordinates": [ [ [ -84.5032679, 38.0264412 ], [ -84.5028282, 38.0263344 ], [ -84.5025731, 38.0270001 ], [ -84.5027112, 38.0270349 ], [ -84.5026823, 38.0271058 ], [ -84.5027715, 38.0271286 ], [ -84.5028228, 38.0271424 ], [ -84.5028772, 38.0271538 ], [ -84.5029055, 38.0270825 ], [ -84.5030121, 38.0271077 ], [ -84.5032679, 38.0264412 ] ] ] } },
{ "type": "Feature", "properties": { "element_type": "way", "osmid": "262899214", "leisure": "sports_centre", "name": "nan", "wheelchair": "nan", "addr:city": "nan", "addr:housenumber": "nan", "addr:postcode": "nan", "addr:state": "nan", "addr:street": "nan", "website": "nan", "barrier": "nan", "nodes": [ 2685514059, 2685514062, 2685514065, 2685514068, 2685514059 ], "surface": "nan", "building": "nan", "building:levels": "nan", "sport": "tennis", "wikidata": "nan", "brand": "nan", "brand:wikidata": "nan", "brand:wikipedia": "nan", "operator": "nan", "access": "nan", "hoops": "nan", "area": "nan", "lit": "nan", "operator:type": "nan", "ways": "nan", "type": "nan" }, "geometry": { "type": "Polygon", "coordinates": [ [ [ -84.494618, 38.0552789 ], [ -84.4941838, 38.0549079 ], [ -84.4938748, 38.055132 ], [ -84.494309, 38.0555031 ], [ -84.494618, 38.0552789 ] ] ] } },
{ "type": "Feature", "properties": { "element_type": "way", "osmid": "271771898", "leisure": "sports_centre", "name": "Woodforrd County Soccer Complex", "wheelchair": "nan", "addr:city": "nan", "addr:housenumber": "nan", "addr:postcode": "nan", "addr:state": "nan", "addr:street": "nan", "website": "nan", "barrier": "nan", "nodes": [ 2767117701, 2767117703, 2767117704, 2767117705, 5595321555, 5595321556, 5595321554, 5595321553, 2767117701 ], "surface": "grass", "building": "nan", "building:levels": "nan", "sport": "nan", "wikidata": "nan", "brand": "nan", "brand:wikidata": "nan", "brand:wikipedia": "nan", "operator": "nan", "access": "yes", "hoops": "nan", "area": "nan", "lit": "nan", "operator:type": "nan", "ways": "nan", "type": "nan" }, "geometry": { "type": "Polygon", "coordinates": [ [ [ -84.723635, 38.0676977 ], [ -84.7229757, 38.0686138 ], [ -84.7131617, 38.0653875 ], [ -84.713739, 38.0644336 ], [ -84.7150613, 38.0632784 ], [ -84.7158638, 38.063891 ], [ -84.7166233, 38.0645036 ], [ -84.7162796, 38.0652652 ], [ -84.723635, 38.0676977 ] ] ] } },
{ "type": "Feature", "properties": { "element_type": "way", "osmid": "278989600", "leisure": "sports_centre", "name": "nan", "wheelchair": "nan", "addr:city": "nan", "addr:housenumber": "nan", "addr:postcode": "nan", "addr:state": "nan", "addr:street": "nan", "website": "nan", "barrier": "nan", "nodes": [ 2832633517, 2832633518, 2832633519, 2832633520, 2832633517 ], "surface": "nan", "building": "nan", "building:levels": "nan", "sport": "tennis", "wikidata": "nan", "brand": "nan", "brand:wikidata": "nan", "brand:wikipedia": "nan", "operator": "nan", "access": "nan", "hoops": "nan", "area": "nan", "lit": "nan", "operator:type": "nan", "ways": "nan", "type": "nan" }, "geometry": { "type": "Polygon", "coordinates": [ [ [ -84.5008171, 38.0713707 ], [ -84.5006532, 38.0710683 ], [ -84.5003075, 38.0711844 ], [ -84.5004714, 38.0714868 ], [ -84.5008171, 38.0713707 ] ] ] } },
{ "type": "Feature", "properties": { "element_type": "way", "osmid": "288216866", "leisure": "sports_centre", "name": "Johnson Center Outdoor Blue Courts", "wheelchair": "nan", "addr:city": "nan", "addr:housenumber": "nan", "addr:postcode": "nan", "addr:state": "nan", "addr:street": "nan", "website": "nan", "barrier": "nan", "nodes": [ 2917698975, 2917698976, 2917698977, 2917698978, 2917698975 ], "surface": "asphalt", "building": "nan", "building:levels": "nan", "sport": "nan", "wikidata": "nan", "brand": "nan", "brand:wikidata": "nan", "brand:wikipedia": "nan", "operator": "nan", "access": "nan", "hoops": "8", "area": "nan", "lit": "nan", "operator:type": "nan", "ways": "nan", "type": "nan" }, "geometry": { "type": "Polygon", "coordinates": [ [ [ -84.5033375, 38.027186 ], [ -84.5035956, 38.0265241 ], [ -84.5032765, 38.0264468 ], [ -84.5030183, 38.0271087 ], [ -84.5033375, 38.027186 ] ] ] } },
{ "type": "Feature", "properties": { "element_type": "way", "osmid": "300725547", "leisure": "sports_centre", "name": "nan", "wheelchair": "nan", "addr:city": "nan", "addr:housenumber": "nan", "addr:postcode": "nan", "addr:state": "nan", "addr:street": "nan", "website": "nan", "barrier": "fence", "nodes": [ 3048333367, 9533293852, 9533293846, 9533293844, 3048333368, 3048333369, 3048333449, 3048333370, 3048333371, 3048333372, 3048333367 ], "surface": "nan", "building": "nan", "building:levels": "nan", "sport": "nan", "wikidata": "nan", "brand": "nan", "brand:wikidata": "nan", "brand:wikipedia": "nan", "operator": "nan", "access": "nan", "hoops": "nan", "area": "nan", "lit": "nan", "operator:type": "nan", "ways": "nan", "type": "nan" }, "geometry": { "type": "Polygon", "coordinates": [ [ [ -84.5288056, 38.0445465 ], [ -84.5287647, 38.0445418 ], [ -84.5286417, 38.0445276 ], [ -84.5286034, 38.0445232 ], [ -84.5282487, 38.0444823 ], [ -84.5283095, 38.044155 ], [ -84.5284751, 38.044174 ], [ -84.528663, 38.0441957 ], [ -84.5286325, 38.04436 ], [ -84.5288359, 38.0443834 ], [ -84.5288056, 38.0445465 ] ] ] } },
{ "type": "Feature", "properties": { "element_type": "way", "osmid": "311048882", "leisure": "sports_centre", "name": "Fit Lexington", "wheelchair": "nan", "addr:city": "Lexington", "addr:housenumber": "342", "addr:postcode": "nan", "addr:state": "KY", "addr:street": "Romany Road", "website": "nan", "barrier": "nan", "nodes": [ 3165863988, 3165863989, 3165863990, 3165863991, 3165863988 ], "surface": "nan", "building": "yes", "building:levels": "nan", "sport": "nan", "wikidata": "nan", "brand": "nan", "brand:wikidata": "nan", "brand:wikipedia": "nan", "operator": "nan", "access": "nan", "hoops": "nan", "area": "nan", "lit": "nan", "operator:type": "nan", "ways": "nan", "type": "nan" }, "geometry": { "type": "Polygon", "coordinates": [ [ [ -84.4864378, 38.0195679 ], [ -84.4865094, 38.0194401 ], [ -84.486321, 38.0193746 ], [ -84.4862493, 38.0195024 ], [ -84.4864378, 38.0195679 ] ] ] } },
{ "type": "Feature", "properties": { "element_type": "way", "osmid": "314495048", "leisure": "sports_centre", "name": "LPD Shooting Range", "wheelchair": "nan", "addr:city": "nan", "addr:housenumber": "nan", "addr:postcode": "nan", "addr:state": "nan", "addr:street": "nan", "website": "nan", "barrier": "nan", "nodes": [ 3205439286, 3205439287, 3205439288, 3205439289, 3205439286 ], "surface": "nan", "building": "nan", "building:levels": "nan", "sport": "shooting", "wikidata": "nan", "brand": "nan", "brand:wikidata": "nan", "brand:wikipedia": "nan", "operator": "nan", "access": "nan", "hoops": "nan", "area": "yes", "lit": "nan", "operator:type": "nan", "ways": "nan", "type": "nan" }, "geometry": { "type": "Polygon", "coordinates": [ [ [ -84.602362, 38.0281883 ], [ -84.6018524, 38.0281925 ], [ -84.6018417, 38.0276305 ], [ -84.6023835, 38.027622 ], [ -84.602362, 38.0281883 ] ] ] } },
{ "type": "Feature", "properties": { "element_type": "way", "osmid": "316623041", "leisure": "sports_centre", "name": "nan", "wheelchair": "nan", "addr:city": "nan", "addr:housenumber": "nan", "addr:postcode": "nan", "addr:state": "nan", "addr:street": "nan", "website": "nan", "barrier": "fence", "nodes": [ 3227581259, 3227581260, 9536951381, 3227588261, 3227588262, 3227588263, 3227588264, 3227581259 ], "surface": "nan", "building": "nan", "building:levels": "nan", "sport": "tennis", "wikidata": "nan", "brand": "nan", "brand:wikidata": "nan", "brand:wikipedia": "nan", "operator": "nan", "access": "nan", "hoops": "nan", "area": "nan", "lit": "nan", "operator:type": "nan", "ways": "nan", "type": "nan" }, "geometry": { "type": "Polygon", "coordinates": [ [ [ -84.4791558, 37.9877633 ], [ -84.4786433, 37.9876463 ], [ -84.4787597, 37.9873295 ], [ -84.4788734, 37.9870199 ], [ -84.4792349, 37.9871024 ], [ -84.47912, 37.9874151 ], [ -84.4792711, 37.9874496 ], [ -84.4791558, 37.9877633 ] ] ] } },
{ "type": "Feature", "properties": { "element_type": "way", "osmid": "316623050", "leisure": "sports_centre", "name": "nan", "wheelchair": "nan", "addr:city": "nan", "addr:housenumber": "nan", "addr:postcode": "nan", "addr:state": "nan", "addr:street": "nan", "website": "nan", "barrier": "nan", "nodes": [ 3227588334, 3227588335, 3227588336, 3227588337, 3227588334 ], "surface": "nan", "building": "nan", "building:levels": "nan", "sport": "tennis", "wikidata": "nan", "brand": "nan", "brand:wikidata": "nan", "brand:wikipedia": "nan", "operator": "nan", "access": "nan", "hoops": "nan", "area": "nan", "lit": "nan", "operator:type": "nan", "ways": "nan", "type": "nan" }, "geometry": { "type": "Polygon", "coordinates": [ [ [ -84.5647069, 38.0159299 ], [ -84.5643421, 38.0159429 ], [ -84.5643224, 38.0156017 ], [ -84.5646873, 38.0155886 ], [ -84.5647069, 38.0159299 ] ] ] } },
{ "type": "Feature", "properties": { "element_type": "way", "osmid": "318762672", "leisure": "sports_centre", "name": "nan", "wheelchair": "nan", "addr:city": "nan", "addr:housenumber": "nan", "addr:postcode": "nan", "addr:state": "nan", "addr:street": "nan", "website": "nan", "barrier": "fence", "nodes": [ 3251322324, 3251322325, 3251322326, 3251322327, 3251322328, 3251322329, 3251322324 ], "surface": "nan", "building": "nan", "building:levels": "nan", "sport": "tennis", "wikidata": "nan", "brand": "nan", "brand:wikidata": "nan", "brand:wikipedia": "nan", "operator": "nan", "access": "nan", "hoops": "nan", "area": "nan", "lit": "nan", "operator:type": "nan", "ways": "nan", "type": "nan" }, "geometry": { "type": "Polygon", "coordinates": [ [ [ -84.5034053, 38.0064065 ], [ -84.5032256, 38.0066665 ], [ -84.5031733, 38.0066802 ], [ -84.5029252, 38.0065693 ], [ -84.5029144, 38.0065319 ], [ -84.5030983, 38.0062679 ], [ -84.5034053, 38.0064065 ] ] ] } },
{ "type": "Feature", "properties": { "element_type": "way", "osmid": "318762673", "leisure": "sports_centre", "name": "nan", "wheelchair": "nan", "addr:city": "nan", "addr:housenumber": "nan", "addr:postcode": "nan", "addr:state": "nan", "addr:street": "nan", "website": "nan", "barrier": "fence", "nodes": [ 3251322330, 3251322331, 3251322332, 3251322333, 3251322334, 3251322335, 3251322330 ], "surface": "nan", "building": "nan", "building:levels": "nan", "sport": "tennis", "wikidata": "nan", "brand": "nan", "brand:wikidata": "nan", "brand:wikipedia": "nan", "operator": "nan", "access": "nan", "hoops": "nan", "area": "nan", "lit": "nan", "operator:type": "nan", "ways": "nan", "type": "nan" }, "geometry": { "type": "Polygon", "coordinates": [ [ [ -84.5035257, 38.0060275 ], [ -84.5035364, 38.0060751 ], [ -84.503354, 38.0063266 ], [ -84.5030402, 38.0061881 ], [ -84.5032226, 38.0059282 ], [ -84.5032762, 38.0059197 ], [ -84.5035257, 38.0060275 ] ] ] } },
{ "type": "Feature", "properties": { "element_type": "way", "osmid": "332483266", "leisure": "sports_centre", "name": "Red Mile", "wheelchair": "nan", "addr:city": "nan", "addr:housenumber": "nan", "addr:postcode": "nan", "addr:state": "nan", "addr:street": "nan", "website": "nan", "barrier": "nan", "nodes": [ 3237310734, 3396241801, 3396241855, 3396241856, 3394737390, 3165566801, 9416871657, 3165566800, 3165566799, 3396241857, 3165566797, 3394737391, 3394737392, 3396241858, 3396241859, 3396241860, 8792542143, 4132080251, 3165566793, 3165566792, 3165566810, 6712515508, 3165566811, 6712515507, 6712515521, 9137735299, 3165566812, 3165566813, 3165566818, 163432254, 163432257, 163432261, 163432265, 163432268, 163432271, 163432273, 163432283, 163432288, 10021744652, 163432290, 163432304, 4053971087, 163432116, 163432312, 163432323, 163432329, 163432338, 163432342, 4053617415, 163432344, 3237310734 ], "surface": "nan", "building": "nan", "building:levels": "nan", "sport": "horse_racing", "wikidata": "nan", "brand": "nan", "brand:wikidata": "nan", "brand:wikipedia": "nan", "operator": "nan", "access": "nan", "hoops": "nan", "area": "nan", "lit": "nan", "operator:type": "nan", "ways": "nan", "type": "nan" }, "geometry": { "type": "Polygon", "coordinates": [ [ [ -84.523518, 38.046005 ], [ -84.5222621, 38.0458443 ], [ -84.5222126, 38.0470748 ], [ -84.5209527, 38.0469921 ], [ -84.5209691, 38.0468229 ], [ -84.5205649, 38.046918 ], [ -84.5201887, 38.0469738 ], [ -84.5198426, 38.0470095 ], [ -84.5192613, 38.0468285 ], [ -84.5187659, 38.0465283 ], [ -84.5182813, 38.0461419 ], [ -84.5181472, 38.0460317 ], [ -84.5172223, 38.0461574 ], [ -84.5168207, 38.045124 ], [ -84.5154303, 38.0438511 ], [ -84.5155897, 38.0437988 ], [ -84.5150694, 38.0432111 ], [ -84.5149766, 38.0431063 ], [ -84.5145892, 38.0427995 ], [ -84.5147721, 38.0427029 ], [ -84.5151804, 38.0425875 ], [ -84.51525, 38.042354 ], [ -84.5153726, 38.0421272 ], [ -84.5155317, 38.0419358 ], [ -84.5157177, 38.0417522 ], [ -84.5157939, 38.0416839 ], [ -84.5158526, 38.0416312 ], [ -84.5169137, 38.0409019 ], [ -84.5173543, 38.0404081 ], [ -84.517725, 38.040459 ], [ -84.517881, 38.04046 ], [ -84.518066, 38.040453 ], [ -84.518243, 38.040426 ], [ -84.518502, 38.040371 ], [ -84.520532, 38.03991 ], [ -84.520672, 38.039882 ], [ -84.521697, 38.039862 ], [ -84.522188, 38.039968 ], [ -84.5223525, 38.0400198 ], [ -84.5224276, 38.040023 ], [ -84.5230754, 38.0403304 ], [ -84.5232122, 38.0404286 ], [ -84.523295, 38.040496 ], [ -84.523711, 38.040998 ], [ -84.523882, 38.041321 ], [ -84.523984, 38.041701 ], [ -84.524019, 38.042041 ], [ -84.524015, 38.042217 ], [ -84.5240047, 38.0423454 ], [ -84.523996, 38.042454 ], [ -84.523518, 38.046005 ] ] ] } },
{ "type": "Feature", "properties": { "element_type": "way", "osmid": "366337918", "leisure": "sports_centre", "name": "Football Training Facility", "wheelchair": "nan", "addr:city": "nan", "addr:housenumber": "nan", "addr:postcode": "nan", "addr:state": "nan", "addr:street": "nan", "website": "nan", "barrier": "nan", "nodes": [ 1729693652, 3703163477, 3703163478, 3703163479, 3703163480, 8080016805, 8080016638, 8080016278, 8080016672, 3703163481, 3703163482, 3703163483, 3703163484, 3703163485, 1729693651, 8555465126, 1729693652 ], "surface": "nan", "building": "nan", "building:levels": "nan", "sport": "american_football", "wikidata": "nan", "brand": "nan", "brand:wikidata": "nan", "brand:wikipedia": "nan", "operator": "nan", "access": "nan", "hoops": "nan", "area": "nan", "lit": "nan", "operator:type": "nan", "ways": "nan", "type": "nan" }, "geometry": { "type": "Polygon", "coordinates": [ [ [ -84.5042413, 38.0215766 ], [ -84.5044694, 38.0212855 ], [ -84.5049754, 38.0211541 ], [ -84.5059938, 38.0198382 ], [ -84.5047897, 38.0192584 ], [ -84.503912, 38.0196896 ], [ -84.5036635, 38.0200214 ], [ -84.5036815, 38.0203099 ], [ -84.5036475, 38.0204267 ], [ -84.5037745, 38.0208012 ], [ -84.5038614, 38.0208749 ], [ -84.5037946, 38.0209118 ], [ -84.5039082, 38.0211276 ], [ -84.5037421, 38.0211662 ], [ -84.5038583, 38.0213867 ], [ -84.5042158, 38.0215641 ], [ -84.5042413, 38.0215766 ] ] ] } },
{ "type": "Feature", "properties": { "element_type": "way", "osmid": "404843207", "leisure": "sports_centre", "name": "Urban Active", "wheelchair": "nan", "addr:city": "Lexington", "addr:housenumber": "2495", "addr:postcode": "nan", "addr:state": "KY", "addr:street": "Palumbo Drive", "website": "nan", "barrier": "nan", "nodes": [ 4070981413, 4070981404, 4070981253, 2767108606, 4070981221, 4070981232, 4070981201, 4070981217, 4070981212, 4070981238, 4070981244, 4070981278, 4070981269, 4070981391, 4070981401, 4070981416, 4070981469, 4070981467, 4070981683, 4070981435, 4070981413 ], "surface": "nan", "building": "yes", "building:levels": "nan", "sport": "nan", "wikidata": "nan", "brand": "nan", "brand:wikidata": "nan", "brand:wikipedia": "nan", "operator": "nan", "access": "nan", "hoops": "nan", "area": "nan", "lit": "nan", "operator:type": "nan", "ways": "nan", "type": "nan" }, "geometry": { "type": "Polygon", "coordinates": [ [ [ -84.4431056, 38.0170264 ], [ -84.4430853, 38.0170118 ], [ -84.4431888, 38.0169215 ], [ -84.4432239, 38.0169467 ], [ -84.4433154, 38.0168668 ], [ -84.4433342, 38.0168804 ], [ -84.4433909, 38.0168309 ], [ -84.4434315, 38.01686 ], [ -84.4434431, 38.0168498 ], [ -84.4434984, 38.0168895 ], [ -84.4434879, 38.0168987 ], [ -84.4435817, 38.0169659 ], [ -84.4435948, 38.0169544 ], [ -84.4436453, 38.0169906 ], [ -84.4436286, 38.0170052 ], [ -84.4436677, 38.0170332 ], [ -84.4435386, 38.0171458 ], [ -84.4435334, 38.0171421 ], [ -84.4433681, 38.0172864 ], [ -84.4430605, 38.0170657 ], [ -84.4431056, 38.0170264 ] ] ] } },
{ "type": "Feature", "properties": { "element_type": "way", "osmid": "405585013", "leisure": "sports_centre", "name": "nan", "wheelchair": "nan", "addr:city": "nan", "addr:housenumber": "nan", "addr:postcode": "nan", "addr:state": "nan", "addr:street": "nan", "website": "nan", "barrier": "fence", "nodes": [ 4077575655, 4077575657, 4077575659, 4077575658, 4077575625, 4077575622, 4077575619, 4077575621, 4077575655 ], "surface": "nan", "building": "nan", "building:levels": "nan", "sport": "tennis", "wikidata": "nan", "brand": "nan", "brand:wikidata": "nan", "brand:wikipedia": "nan", "operator": "nan", "access": "nan", "hoops": "nan", "area": "nan", "lit": "nan", "operator:type": "nan", "ways": "nan", "type": "nan" }, "geometry": { "type": "Polygon", "coordinates": [ [ [ -84.5604734, 38.0060933 ], [ -84.5604426, 38.0061176 ], [ -84.5601408, 38.0061567 ], [ -84.5600966, 38.0061398 ], [ -84.5600362, 38.0058619 ], [ -84.5600684, 38.0058313 ], [ -84.5603742, 38.0057932 ], [ -84.5604117, 38.0058154 ], [ -84.5604734, 38.0060933 ] ] ] } },
{ "type": "Feature", "properties": { "element_type": "way", "osmid": "405595761", "leisure": "sports_centre", "name": "nan", "wheelchair": "nan", "addr:city": "nan", "addr:housenumber": "nan", "addr:postcode": "nan", "addr:state": "nan", "addr:street": "nan", "website": "nan", "barrier": "nan", "nodes": [ 4077663946, 4077663954, 4077663956, 4077663948, 4077663946 ], "surface": "nan", "building": "nan", "building:levels": "nan", "sport": "tennis", "wikidata": "nan", "brand": "nan", "brand:wikidata": "nan", "brand:wikipedia": "nan", "operator": "nan", "access": "nan", "hoops": "nan", "area": "nan", "lit": "nan", "operator:type": "nan", "ways": "nan", "type": "nan" }, "geometry": { "type": "Polygon", "coordinates": [ [ [ -84.5041033, 37.9848632 ], [ -84.5041153, 37.9850832 ], [ -84.5036932, 37.9850975 ], [ -84.5036812, 37.9848775 ], [ -84.5041033, 37.9848632 ] ] ] } },
{ "type": "Feature", "properties": { "element_type": "way", "osmid": "405595770", "leisure": "sports_centre", "name": "nan", "wheelchair": "nan", "addr:city": "nan", "addr:housenumber": "nan", "addr:postcode": "nan", "addr:state": "nan", "addr:street": "nan", "website": "nan", "barrier": "fence", "nodes": [ 4077663961, 4077663981, 4077663982, 4077663962, 4077663961 ], "surface": "nan", "building": "nan", "building:levels": "nan", "sport": "pickleball", "wikidata": "nan", "brand": "nan", "brand:wikidata": "nan", "brand:wikipedia": "nan", "operator": "nan", "access": "nan", "hoops": "nan", "area": "nan", "lit": "nan", "operator:type": "nan", "ways": "nan", "type": "nan" }, "geometry": { "type": "Polygon", "coordinates": [ [ [ -84.5039788, 37.9852314 ], [ -84.5040006, 37.9855616 ], [ -84.5033351, 37.985589 ], [ -84.5033133, 37.9852587 ], [ -84.5039788, 37.9852314 ] ] ] } },
{ "type": "Feature", "properties": { "element_type": "way", "osmid": "406113284", "leisure": "sports_centre", "name": "nan", "wheelchair": "nan", "addr:city": "nan", "addr:housenumber": "nan", "addr:postcode": "nan", "addr:state": "nan", "addr:street": "nan", "website": "nan", "barrier": "fence", "nodes": [ 4082239119, 4082239114, 4082239090, 4082239094, 4082239119 ], "surface": "nan", "building": "nan", "building:levels": "nan", "sport": "nan", "wikidata": "nan", "brand": "nan", "brand:wikidata": "nan", "brand:wikipedia": "nan", "operator": "nan", "access": "nan", "hoops": "nan", "area": "nan", "lit": "nan", "operator:type": "nan", "ways": "nan", "type": "nan" }, "geometry": { "type": "Polygon", "coordinates": [ [ [ -84.4768321, 37.9514285 ], [ -84.4763066, 37.9513247 ], [ -84.4764096, 37.9510009 ], [ -84.4769351, 37.9511047 ], [ -84.4768321, 37.9514285 ] ] ] } },
{ "type": "Feature", "properties": { "element_type": "way", "osmid": "406113285", "leisure": "sports_centre", "name": "nan", "wheelchair": "nan", "addr:city": "nan", "addr:housenumber": "nan", "addr:postcode": "nan", "addr:state": "nan", "addr:street": "nan", "website": "nan", "barrier": "fence", "nodes": [ 4082239128, 4082239123, 4082239096, 4082239103, 4082239128 ], "surface": "nan", "building": "nan", "building:levels": "nan", "sport": "nan", "wikidata": "nan", "brand": "nan", "brand:wikidata": "nan", "brand:wikipedia": "nan", "operator": "nan", "access": "nan", "hoops": "nan", "area": "nan", "lit": "nan", "operator:type": "nan", "ways": "nan", "type": "nan" }, "geometry": { "type": "Polygon", "coordinates": [ [ [ -84.4774701, 37.9515557 ], [ -84.4769447, 37.9514518 ], [ -84.4770476, 37.951128 ], [ -84.4775731, 37.9512319 ], [ -84.4774701, 37.9515557 ] ] ] } },
{ "type": "Feature", "properties": { "element_type": "way", "osmid": "604060118", "leisure": "sports_centre", "name": "Suffoletta Family Aquatic Center", "wheelchair": "nan", "addr:city": "Georgetown", "addr:housenumber": "200", "addr:postcode": "40324", "addr:state": "KY", "addr:street": "Jacobs Drive", "website": "nan", "barrier": "nan", "nodes": [ 5732703754, 5787669308, 5732703756, 5732703753, 5732703758, 5787669291, 5732703755, 391815570, 5732703757, 5732703754 ], "surface": "nan", "building": "nan", "building:levels": "nan", "sport": "swimming", "wikidata": "nan", "brand": "nan", "brand:wikidata": "nan", "brand:wikipedia": "nan", "operator": "nan", "access": "nan", "hoops": "nan", "area": "nan", "lit": "nan", "operator:type": "nan", "ways": "nan", "type": "nan" }, "geometry": { "type": "Polygon", "coordinates": [ [ [ -84.5673852, 38.1871769 ], [ -84.566831, 38.185562 ], [ -84.5668706, 38.1851952 ], [ -84.5651068, 38.1850351 ], [ -84.5643894, 38.1852038 ], [ -84.5645256, 38.1857249 ], [ -84.5647972, 38.1867645 ], [ -84.5658373, 38.1867661 ], [ -84.5658744, 38.1876559 ], [ -84.5673852, 38.1871769 ] ] ] } },
{ "type": "Feature", "properties": { "element_type": "way", "osmid": "610609863", "leisure": "sports_centre", "name": "nan", "wheelchair": "nan", "addr:city": "nan", "addr:housenumber": "nan", "addr:postcode": "nan", "addr:state": "nan", "addr:street": "nan", "website": "nan", "barrier": "fence", "nodes": [ 5782546578, 5782546557, 5782546574, 5782544138, 5782546578 ], "surface": "nan", "building": "nan", "building:levels": "nan", "sport": "nan", "wikidata": "nan", "brand": "nan", "brand:wikidata": "nan", "brand:wikipedia": "nan", "operator": "nan", "access": "nan", "hoops": "nan", "area": "nan", "lit": "yes", "operator:type": "nan", "ways": "nan", "type": "nan" }, "geometry": { "type": "Polygon", "coordinates": [ [ [ -84.5396543, 38.1889323 ], [ -84.5385946, 38.1886232 ], [ -84.5387389, 38.1883044 ], [ -84.5398019, 38.1886243 ], [ -84.5396543, 38.1889323 ] ] ] } },
{ "type": "Feature", "properties": { "element_type": "way", "osmid": "807784838", "leisure": "sports_centre", "name": "nan", "wheelchair": "nan", "addr:city": "nan", "addr:housenumber": "nan", "addr:postcode": "nan", "addr:state": "nan", "addr:street": "nan", "website": "nan", "barrier": "nan", "nodes": [ 7553927450, 7553927454, 7553927455, 7553927453, 7553927450 ], "surface": "nan", "building": "nan", "building:levels": "nan", "sport": "tennis", "wikidata": "nan", "brand": "nan", "brand:wikidata": "nan", "brand:wikipedia": "nan", "operator": "nan", "access": "yes", "hoops": "nan", "area": "nan", "lit": "nan", "operator:type": "nan", "ways": "nan", "type": "nan" }, "geometry": { "type": "Polygon", "coordinates": [ [ [ -84.6029924, 38.2178956 ], [ -84.6027964, 38.2178689 ], [ -84.6028678, 38.2175451 ], [ -84.6030638, 38.2175717 ], [ -84.6029924, 38.2178956 ] ] ] } },
{ "type": "Feature", "properties": { "element_type": "way", "osmid": "807784839", "leisure": "sports_centre", "name": "nan", "wheelchair": "nan", "addr:city": "nan", "addr:housenumber": "nan", "addr:postcode": "nan", "addr:state": "nan", "addr:street": "nan", "website": "nan", "barrier": "nan", "nodes": [ 7553927454, 7553927455, 7553927456, 7553927457, 7553927454 ], "surface": "nan", "building": "nan", "building:levels": "nan", "sport": "nan", "wikidata": "nan", "brand": "nan", "brand:wikidata": "nan", "brand:wikipedia": "nan", "operator": "nan", "access": "nan", "hoops": "nan", "area": "nan", "lit": "nan", "operator:type": "nan", "ways": "nan", "type": "nan" }, "geometry": { "type": "Polygon", "coordinates": [ [ [ -84.6027964, 38.2178689 ], [ -84.6028678, 38.2175451 ], [ -84.6026501, 38.2175149 ], [ -84.6025778, 38.2178397 ], [ -84.6027964, 38.2178689 ] ] ] } },
{ "type": "Feature", "properties": { "element_type": "way", "osmid": "807784840", "leisure": "sports_centre", "name": "nan", "wheelchair": "nan", "addr:city": "nan", "addr:housenumber": "nan", "addr:postcode": "nan", "addr:state": "nan", "addr:street": "nan", "website": "nan", "barrier": "nan", "nodes": [ 7553927458, 7553927459, 7553927463, 7553927462, 7553927458 ], "surface": "nan", "building": "nan", "building:levels": "nan", "sport": "nan", "wikidata": "nan", "brand": "nan", "brand:wikidata": "nan", "brand:wikipedia": "nan", "operator": "nan", "access": "nan", "hoops": "nan", "area": "nan", "lit": "nan", "operator:type": "nan", "ways": "nan", "type": "nan" }, "geometry": { "type": "Polygon", "coordinates": [ [ [ -84.6025105, 38.2178327 ], [ -84.6025852, 38.2175059 ], [ -84.6023681, 38.2174751 ], [ -84.6022924, 38.2178013 ], [ -84.6025105, 38.2178327 ] ] ] } },
{ "type": "Feature", "properties": { "element_type": "way", "osmid": "807784841", "leisure": "sports_centre", "name": "nan", "wheelchair": "nan", "addr:city": "nan", "addr:housenumber": "nan", "addr:postcode": "nan", "addr:state": "nan", "addr:street": "nan", "website": "nan", "barrier": "nan", "nodes": [ 7553927462, 7553927463, 7553927464, 7553927465, 7553927462 ], "surface": "nan", "building": "nan", "building:levels": "nan", "sport": "nan", "wikidata": "nan", "brand": "nan", "brand:wikidata": "nan", "brand:wikipedia": "nan", "operator": "nan", "access": "nan", "hoops": "nan", "area": "nan", "lit": "nan", "operator:type": "nan", "ways": "nan", "type": "nan" }, "geometry": { "type": "Polygon", "coordinates": [ [ [ -84.6022924, 38.2178013 ], [ -84.6023681, 38.2174751 ], [ -84.6021529, 38.2174442 ], [ -84.6020772, 38.2177704 ], [ -84.6022924, 38.2178013 ] ] ] } },
{ "type": "Feature", "properties": { "element_type": "way", "osmid": "891372180", "leisure": "sports_centre", "name": "Department of Criminal Justice Training Boonesborough Range", "wheelchair": "nan", "addr:city": "nan", "addr:housenumber": "nan", "addr:postcode": "nan", "addr:state": "nan", "addr:street": "nan", "website": "nan", "barrier": "nan", "nodes": [ 8285140152, 8285140151, 8285140150, 8285140149, 8285140152 ], "surface": "nan", "building": "nan", "building:levels": "nan", "sport": "shooting", "wikidata": "nan", "brand": "nan", "brand:wikidata": "nan", "brand:wikipedia": "nan", "operator": "Department of Criminal Justice Training", "access": "nan", "hoops": "nan", "area": "nan", "lit": "nan", "operator:type": "government", "ways": "nan", "type": "nan" }, "geometry": { "type": "Polygon", "coordinates": [ [ [ -84.288944, 37.9098149 ], [ -84.2884501, 37.9093553 ], [ -84.2875158, 37.9099804 ], [ -84.2880097, 37.9104399 ], [ -84.288944, 37.9098149 ] ] ] } },
{ "type": "Feature", "properties": { "element_type": "way", "osmid": "985514371", "leisure": "sports_centre", "name": "LEF Climbing", "wheelchair": "nan", "addr:city": "nan", "addr:housenumber": "nan", "addr:postcode": "nan", "addr:state": "nan", "addr:street": "nan", "website": "nan", "barrier": "nan", "nodes": [ 9110956313, 9110956314, 9110956315, 9110956316, 9110956313 ], "surface": "nan", "building": "yes", "building:levels": "nan", "sport": "climbing", "wikidata": "nan", "brand": "nan", "brand:wikidata": "nan", "brand:wikipedia": "nan", "operator": "nan", "access": "nan", "hoops": "nan", "area": "nan", "lit": "nan", "operator:type": "nan", "ways": "nan", "type": "nan" }, "geometry": { "type": "Polygon", "coordinates": [ [ [ -84.4804772, 38.0607161 ], [ -84.4809431, 38.0603906 ], [ -84.4806178, 38.060102 ], [ -84.480152, 38.0604275 ], [ -84.4804772, 38.0607161 ] ] ] } },
{ "type": "Feature", "properties": { "element_type": "way", "osmid": "1000069680", "leisure": "sports_centre", "name": "nan", "wheelchair": "nan", "addr:city": "Lexington", "addr:housenumber": "495", "addr:postcode": "40505", "addr:state": "KY", "addr:street": "Haggard Lane", "website": "nan", "barrier": "nan", "nodes": [ 9231348097, 9244865261, 4045099945, 9231348100, 9231398822, 9231398825, 9231398824, 9231398823, 9231348101, 9231348102, 9231348103, 9231348104, 9231348105, 9231348106, 9231348107, 9269048836, 9231348108, 9231348109, 9231348110, 9231348111, 9231348112, 9269048835, 9231348113, 9269048842, 9231348114, 9231348115, 9231348116, 9231398817, 9231398818, 9231398819, 9231398820, 4045099896, 9231348097 ], "surface": "nan", "building": "nan", "building:levels": "nan", "sport": "soccer;baseball", "wikidata": "nan", "brand": "nan", "brand:wikidata": "nan", "brand:wikipedia": "nan", "operator": "Transylvania University", "access": "nan", "hoops": "nan", "area": "nan", "lit": "nan", "operator:type": "nan", "ways": "nan", "type": "nan" }, "geometry": { "type": "Polygon", "coordinates": [ [ [ -84.4613565, 38.0762105 ], [ -84.4606855, 38.076609 ], [ -84.4612752, 38.0772433 ], [ -84.4598586, 38.0780954 ], [ -84.4604035, 38.0786423 ], [ -84.4605146, 38.0788651 ], [ -84.4606153, 38.0792218 ], [ -84.4606553, 38.0793947 ], [ -84.4611624, 38.0794452 ], [ -84.4612259, 38.0793415 ], [ -84.4613674, 38.0791715 ], [ -84.4614997, 38.0790417 ], [ -84.4615512, 38.07898 ], [ -84.4621472, 38.0786095 ], [ -84.4622748, 38.0785122 ], [ -84.4624834, 38.0782825 ], [ -84.462514, 38.0782876 ], [ -84.4625376, 38.07828 ], [ -84.4625541, 38.0782665 ], [ -84.4625618, 38.0782487 ], [ -84.4625588, 38.0782313 ], [ -84.4625474, 38.0782176 ], [ -84.4625319, 38.0782094 ], [ -84.4626321, 38.0780477 ], [ -84.4627731, 38.0778859 ], [ -84.4629481, 38.0777251 ], [ -84.4629538, 38.0776733 ], [ -84.4624765, 38.0772148 ], [ -84.4624003, 38.0772084 ], [ -84.462335, 38.0771527 ], [ -84.4623459, 38.0770927 ], [ -84.4620178, 38.0768002 ], [ -84.4613565, 38.0762105 ] ] ] } },
{ "type": "Feature", "properties": { "element_type": "way", "osmid": "1033840265", "leisure": "sports_centre", "name": "nan", "wheelchair": "nan", "addr:city": "nan", "addr:housenumber": "nan", "addr:postcode": "nan", "addr:state": "nan", "addr:street": "nan", "website": "nan", "barrier": "nan", "nodes": [ 9524392595, 9524392580, 9524392582, 9524392594, 9524392593, 9524392578, 9524392579, 9524392595 ], "surface": "nan", "building": "nan", "building:levels": "nan", "sport": "tennis", "wikidata": "nan", "brand": "nan", "brand:wikidata": "nan", "brand:wikipedia": "nan", "operator": "nan", "access": "nan", "hoops": "nan", "area": "nan", "lit": "nan", "operator:type": "nan", "ways": "nan", "type": "nan" }, "geometry": { "type": "Polygon", "coordinates": [ [ [ -84.4914869, 38.0343546 ], [ -84.4911113, 38.0344736 ], [ -84.4912508, 38.0347467 ], [ -84.4914117, 38.0346957 ], [ -84.4914329, 38.034689 ], [ -84.4914573, 38.0346812 ], [ -84.4916264, 38.0346277 ], [ -84.4914869, 38.0343546 ] ] ] } },
{ "type": "Feature", "properties": { "element_type": "way", "osmid": "1034263549", "leisure": "sports_centre", "name": "nan", "wheelchair": "nan", "addr:city": "nan", "addr:housenumber": "nan", "addr:postcode": "nan", "addr:state": "nan", "addr:street": "nan", "website": "nan", "barrier": "nan", "nodes": [ 9524392577, 9524392587, 9524392575, 9524392581, 9524392583, 9524392588, 9524392574, 9524392577 ], "surface": "nan", "building": "nan", "building:levels": "nan", "sport": "tennis", "wikidata": "nan", "brand": "nan", "brand:wikidata": "nan", "brand:wikipedia": "nan", "operator": "nan", "access": "nan", "hoops": "nan", "area": "nan", "lit": "nan", "operator:type": "nan", "ways": "nan", "type": "nan" }, "geometry": { "type": "Polygon", "coordinates": [ [ [ -84.4914832, 38.0352268 ], [ -84.4913438, 38.0349537 ], [ -84.4915027, 38.0349033 ], [ -84.4915373, 38.0348924 ], [ -84.4915616, 38.0348847 ], [ -84.4917193, 38.0348347 ], [ -84.4918588, 38.0351078 ], [ -84.4914832, 38.0352268 ] ] ] } },
{ "type": "Feature", "properties": { "element_type": "way", "osmid": "1034264111", "leisure": "sports_centre", "name": "nan", "wheelchair": "nan", "addr:city": "nan", "addr:housenumber": "nan", "addr:postcode": "nan", "addr:state": "nan", "addr:street": "nan", "website": "nan", "barrier": "fence", "nodes": [ 9522555991, 9522555986, 9522555985, 9522555990, 9522555984, 9522555989, 9522555987, 9522555988, 9522555991 ], "surface": "nan", "building": "nan", "building:levels": "nan", "sport": "nan", "wikidata": "nan", "brand": "nan", "brand:wikidata": "nan", "brand:wikipedia": "nan", "operator": "nan", "access": "nan", "hoops": "nan", "area": "nan", "lit": "nan", "operator:type": "nan", "ways": "nan", "type": "nan" }, "geometry": { "type": "Polygon", "coordinates": [ [ [ -84.5026309, 38.0264793 ], [ -84.5026715, 38.0264641 ], [ -84.5027866, 38.0261652 ], [ -84.50277, 38.0261433 ], [ -84.5020775, 38.0259746 ], [ -84.5020406, 38.025992 ], [ -84.5019262, 38.026291 ], [ -84.5019509, 38.0263187 ], [ -84.5026309, 38.0264793 ] ] ] } },
{ "type": "Feature", "properties": { "element_type": "way", "osmid": "1034264112", "leisure": "sports_centre", "name": "nan", "wheelchair": "nan", "addr:city": "nan", "addr:housenumber": "nan", "addr:postcode": "nan", "addr:state": "nan", "addr:street": "nan", "website": "nan", "barrier": "nan", "nodes": [ 9522473588, 9522473594, 9522473544, 9522473560, 9522473596, 9522473553, 9522473566, 9522473585, 9522473588 ], "surface": "nan", "building": "nan", "building:levels": "nan", "sport": "tennis", "wikidata": "nan", "brand": "nan", "brand:wikidata": "nan", "brand:wikipedia": "nan", "operator": "nan", "access": "nan", "hoops": "nan", "area": "nan", "lit": "nan", "operator:type": "nan", "ways": "nan", "type": "nan" }, "geometry": { "type": "Polygon", "coordinates": [ [ [ -84.5028857, 38.0279865 ], [ -84.5025344, 38.0279018 ], [ -84.502167, 38.0278131 ], [ -84.5022924, 38.0274908 ], [ -84.5024176, 38.0271688 ], [ -84.5027754, 38.0272551 ], [ -84.5031362, 38.0273422 ], [ -84.5030108, 38.0276647 ], [ -84.5028857, 38.0279865 ] ] ] } },
{ "type": "Feature", "properties": { "element_type": "way", "osmid": "1034277508", "leisure": "sports_centre", "name": "nan", "wheelchair": "nan", "addr:city": "nan", "addr:housenumber": "nan", "addr:postcode": "nan", "addr:state": "nan", "addr:street": "nan", "website": "nan", "barrier": "fence", "nodes": [ 9528074275, 9528074266, 9528074252, 9528074251, 9528074295, 9528074289, 9528074264, 9528074271, 9528074275 ], "surface": "nan", "building": "nan", "building:levels": "nan", "sport": "tennis", "wikidata": "nan", "brand": "nan", "brand:wikidata": "nan", "brand:wikipedia": "nan", "operator": "nan", "access": "nan", "hoops": "nan", "area": "nan", "lit": "nan", "operator:type": "nan", "ways": "nan", "type": "nan" }, "geometry": { "type": "Polygon", "coordinates": [ [ [ -84.5023, 38.0268979 ], [ -84.5022699, 38.0269124 ], [ -84.5019274, 38.0268298 ], [ -84.5019058, 38.026796 ], [ -84.5020132, 38.0265135 ], [ -84.5020564, 38.0264902 ], [ -84.5023974, 38.0265732 ], [ -84.5024209, 38.026604 ], [ -84.5023, 38.0268979 ] ] ] } },
{ "type": "Feature", "properties": { "element_type": "way", "osmid": "1034280258", "leisure": "sports_centre", "name": "nan", "wheelchair": "nan", "addr:city": "nan", "addr:housenumber": "nan", "addr:postcode": "nan", "addr:state": "nan", "addr:street": "nan", "website": "nan", "barrier": "nan", "nodes": [ 9528095466, 9528095476, 9528095474, 9528095483, 9528095466 ], "surface": "nan", "building": "nan", "building:levels": "nan", "sport": "nan", "wikidata": "nan", "brand": "nan", "brand:wikidata": "nan", "brand:wikipedia": "nan", "operator": "nan", "access": "nan", "hoops": "nan", "area": "nan", "lit": "nan", "operator:type": "nan", "ways": "nan", "type": "nan" }, "geometry": { "type": "Polygon", "coordinates": [ [ [ -84.4993593, 38.02642 ], [ -84.5001275, 38.0254407 ], [ -84.4991518, 38.0249657 ], [ -84.4983836, 38.0259449 ], [ -84.4993593, 38.02642 ] ] ] } },
{ "type": "Feature", "properties": { "element_type": "way", "osmid": "1034280773", "leisure": "sports_centre", "name": "nan", "wheelchair": "nan", "addr:city": "nan", "addr:housenumber": "nan", "addr:postcode": "nan", "addr:state": "nan", "addr:street": "nan", "website": "nan", "barrier": "fence", "nodes": [ 9528130856, 9528130857, 9528130850, 9528130854, 9528131354, 9528131358, 9528131355, 9528131356, 9528131357, 9528130851, 9528130852, 9528130855, 9528130853, 9528130856 ], "surface": "nan", "building": "nan", "building:levels": "nan", "sport": "tennis", "wikidata": "nan", "brand": "nan", "brand:wikidata": "nan", "brand:wikipedia": "nan", "operator": "nan", "access": "nan", "hoops": "nan", "area": "nan", "lit": "nan", "operator:type": "nan", "ways": "nan", "type": "nan" }, "geometry": { "type": "Polygon", "coordinates": [ [ [ -84.50141, 38.0265649 ], [ -84.5013889, 38.0265369 ], [ -84.5015055, 38.0262551 ], [ -84.5015435, 38.0262312 ], [ -84.501639, 38.0262537 ], [ -84.5017639, 38.0259324 ], [ -84.5017973, 38.0259146 ], [ -84.5019469, 38.0259522 ], [ -84.5019665, 38.0259771 ], [ -84.501841, 38.0263012 ], [ -84.5018634, 38.0263528 ], [ -84.5017555, 38.0266254 ], [ -84.5017067, 38.0266349 ], [ -84.50141, 38.0265649 ] ] ] } },
{ "type": "Feature", "properties": { "element_type": "way", "osmid": "1035104764", "leisure": "sports_centre", "name": "nan", "wheelchair": "nan", "addr:city": "nan", "addr:housenumber": "nan", "addr:postcode": "nan", "addr:state": "nan", "addr:street": "nan", "website": "nan", "barrier": "nan", "nodes": [ 9534840787, 9534840779, 9534840785, 9534599826, 9534599825, 9534599835, 9534599820, 9534599831, 9534840782, 9534840787 ], "surface": "nan", "building": "nan", "building:levels": "nan", "sport": "basketball;tennis", "wikidata": "nan", "brand": "nan", "brand:wikidata": "nan", "brand:wikipedia": "nan", "operator": "nan", "access": "nan", "hoops": "nan", "area": "nan", "lit": "nan", "operator:type": "nan", "ways": "nan", "type": "nan" }, "geometry": { "type": "Polygon", "coordinates": [ [ [ -84.4919102, 37.9576336 ], [ -84.4920706, 37.9575394 ], [ -84.4918349, 37.9572815 ], [ -84.4915418, 37.9574462 ], [ -84.4915506, 37.9574557 ], [ -84.4916248, 37.9575365 ], [ -84.4916307, 37.9575429 ], [ -84.4917571, 37.9574707 ], [ -84.4917594, 37.9574693 ], [ -84.4919102, 37.9576336 ] ] ] } },
{ "type": "Feature", "properties": { "element_type": "way", "osmid": "1035331793", "leisure": "sports_centre", "name": "nan", "wheelchair": "nan", "addr:city": "nan", "addr:housenumber": "nan", "addr:postcode": "nan", "addr:state": "nan", "addr:street": "nan", "website": "nan", "barrier": "nan", "nodes": [ 9536905707, 9536905702, 2503115180, 2503115184, 9536905705, 9536905703, 9536905708, 2503115195, 2503115192, 9536905696, 9536905707 ], "surface": "nan", "building": "nan", "building:levels": "nan", "sport": "nan", "wikidata": "nan", "brand": "nan", "brand:wikidata": "nan", "brand:wikipedia": "nan", "operator": "nan", "access": "nan", "hoops": "nan", "area": "nan", "lit": "nan", "operator:type": "nan", "ways": "nan", "type": "nan" }, "geometry": { "type": "Polygon", "coordinates": [ [ [ -84.4808505, 37.9834379 ], [ -84.4808887, 37.9834043 ], [ -84.481003, 37.983304 ], [ -84.4810518, 37.9833039 ], [ -84.4812534, 37.9834449 ], [ -84.481256, 37.9834858 ], [ -84.4810172, 37.9836968 ], [ -84.4809726, 37.98369 ], [ -84.4807711, 37.9835468 ], [ -84.4807689, 37.9835095 ], [ -84.4808505, 37.9834379 ] ] ] } },
{ "type": "Feature", "properties": { "element_type": "way", "osmid": "1038284011", "leisure": "sports_centre", "name": "nan", "wheelchair": "nan", "addr:city": "nan", "addr:housenumber": "nan", "addr:postcode": "nan", "addr:state": "nan", "addr:street": "nan", "website": "nan", "barrier": "nan", "nodes": [ 9562869273, 9562869255, 9562869263, 9562869281, 9562869273 ], "surface": "nan", "building": "nan", "building:levels": "nan", "sport": "tennis", "wikidata": "nan", "brand": "nan", "brand:wikidata": "nan", "brand:wikipedia": "nan", "operator": "nan", "access": "nan", "hoops": "nan", "area": "nan", "lit": "nan", "operator:type": "nan", "ways": "nan", "type": "nan" }, "geometry": { "type": "Polygon", "coordinates": [ [ [ -84.5462911, 38.2032461 ], [ -84.5459042, 38.2031237 ], [ -84.5457429, 38.2034388 ], [ -84.5461299, 38.2035611 ], [ -84.5462911, 38.2032461 ] ] ] } },
{ "type": "Feature", "properties": { "element_type": "way", "osmid": "1038284012", "leisure": "sports_centre", "name": "nan", "wheelchair": "nan", "addr:city": "nan", "addr:housenumber": "nan", "addr:postcode": "nan", "addr:state": "nan", "addr:street": "nan", "website": "nan", "barrier": "nan", "nodes": [ 9562869248, 9562869245, 9562869283, 9562869276, 9562869248 ], "surface": "nan", "building": "nan", "building:levels": "nan", "sport": "tennis", "wikidata": "nan", "brand": "nan", "brand:wikidata": "nan", "brand:wikipedia": "nan", "operator": "nan", "access": "nan", "hoops": "nan", "area": "nan", "lit": "nan", "operator:type": "nan", "ways": "nan", "type": "nan" }, "geometry": { "type": "Polygon", "coordinates": [ [ [ -84.5458084, 38.2030924 ], [ -84.5454214, 38.2029701 ], [ -84.5452601, 38.2032851 ], [ -84.5456471, 38.2034075 ], [ -84.5458084, 38.2030924 ] ] ] } },
{ "type": "Feature", "properties": { "element_type": "way", "osmid": "1038284014", "leisure": "sports_centre", "name": "nan", "wheelchair": "nan", "addr:city": "nan", "addr:housenumber": "nan", "addr:postcode": "nan", "addr:state": "nan", "addr:street": "nan", "website": "nan", "barrier": "nan", "nodes": [ 9562869261, 9562869266, 9562869264, 9562869272, 9562869261 ], "surface": "nan", "building": "nan", "building:levels": "nan", "sport": "tennis", "wikidata": "nan", "brand": "nan", "brand:wikidata": "nan", "brand:wikipedia": "nan", "operator": "nan", "access": "nan", "hoops": "nan", "area": "nan", "lit": "nan", "operator:type": "nan", "ways": "nan", "type": "nan" }, "geometry": { "type": "Polygon", "coordinates": [ [ [ -84.5452204, 38.2029092 ], [ -84.5448334, 38.2027869 ], [ -84.5446721, 38.2031019 ], [ -84.5450591, 38.2032242 ], [ -84.5452204, 38.2029092 ] ] ] } },
{ "type": "Feature", "properties": { "element_type": "way", "osmid": "1038284015", "leisure": "sports_centre", "name": "nan", "wheelchair": "nan", "addr:city": "nan", "addr:housenumber": "nan", "addr:postcode": "nan", "addr:state": "nan", "addr:street": "nan", "website": "nan", "barrier": "nan", "nodes": [ 9562869269, 9562869258, 9562869260, 9562869243, 9562869269 ], "surface": "nan", "building": "nan", "building:levels": "nan", "sport": "tennis", "wikidata": "nan", "brand": "nan", "brand:wikidata": "nan", "brand:wikipedia": "nan", "operator": "nan", "access": "nan", "hoops": "nan", "area": "nan", "lit": "nan", "operator:type": "nan", "ways": "nan", "type": "nan" }, "geometry": { "type": "Polygon", "coordinates": [ [ [ -84.5447054, 38.2027582 ], [ -84.5443185, 38.2026359 ], [ -84.5441572, 38.202951 ], [ -84.5445441, 38.2030733 ], [ -84.5447054, 38.2027582 ] ] ] } },
{ "type": "Feature", "properties": { "element_type": "way", "osmid": "1104445900", "leisure": "sports_centre", "name": "nan", "wheelchair": "nan", "addr:city": "nan", "addr:housenumber": "nan", "addr:postcode": "nan", "addr:state": "nan", "addr:street": "nan", "website": "nan", "barrier": "nan", "nodes": [ 10106617199, 10106617168, 10106617201, 10106617202, 10106617180, 10106617184, 10106617171, 10106617156, 10106617157, 10106617186, 10106617178, 10106617185, 10106617167, 10106617189, 10106617199 ], "surface": "nan", "building": "nan", "building:levels": "nan", "sport": "basketball", "wikidata": "nan", "brand": "nan", "brand:wikidata": "nan", "brand:wikipedia": "nan", "operator": "nan", "access": "nan", "hoops": "nan", "area": "nan", "lit": "nan", "operator:type": "nan", "ways": "nan", "type": "nan" }, "geometry": { "type": "Polygon", "coordinates": [ [ [ -84.502648, 38.068704 ], [ -84.5024482, 38.0687219 ], [ -84.5021999, 38.0687442 ], [ -84.5019942, 38.0687627 ], [ -84.501978, 38.0687642 ], [ -84.5019709, 38.0687016 ], [ -84.501887, 38.0687113 ], [ -84.5018404, 38.0684059 ], [ -84.502633, 38.0683257 ], [ -84.5026389, 38.0683594 ], [ -84.5027202, 38.0683506 ], [ -84.5027568, 38.0685575 ], [ -84.5027683, 38.0686223 ], [ -84.502639, 38.0686369 ], [ -84.502648, 38.068704 ] ] ] } },
{ "type": "Feature", "properties": { "element_type": "way", "osmid": "1116318257", "leisure": "sports_centre", "name": "nan", "wheelchair": "nan", "addr:city": "nan", "addr:housenumber": "nan", "addr:postcode": "nan", "addr:state": "nan", "addr:street": "nan", "website": "nan", "barrier": "nan", "nodes": [ 10210082327, 10210082339, 10210082337, 10210082340, 10210082327 ], "surface": "nan", "building": "nan", "building:levels": "nan", "sport": "tennis", "wikidata": "nan", "brand": "nan", "brand:wikidata": "nan", "brand:wikipedia": "nan", "operator": "nan", "access": "nan", "hoops": "nan", "area": "nan", "lit": "nan", "operator:type": "nan", "ways": "nan", "type": "nan" }, "geometry": { "type": "Polygon", "coordinates": [ [ [ -84.5694538, 38.1629513 ], [ -84.5692652, 38.1628785 ], [ -84.569451, 38.162581 ], [ -84.5696396, 38.1626538 ], [ -84.5694538, 38.1629513 ] ] ] } },
{ "type": "Feature", "properties": { "element_type": "way", "osmid": "1182666237", "leisure": "sports_centre", "name": "nan", "wheelchair": "nan", "addr:city": "nan", "addr:housenumber": "nan", "addr:postcode": "nan", "addr:state": "nan", "addr:street": "nan", "website": "nan", "barrier": "nan", "nodes": [ 10982291152, 10982291105, 10982284586, 10982291125, 10982291152 ], "surface": "nan", "building": "nan", "building:levels": "nan", "sport": "tennis", "wikidata": "nan", "brand": "nan", "brand:wikidata": "nan", "brand:wikipedia": "nan", "operator": "nan", "access": "nan", "hoops": "nan", "area": "nan", "lit": "nan", "operator:type": "nan", "ways": "nan", "type": "nan" }, "geometry": { "type": "Polygon", "coordinates": [ [ [ -84.503839, 38.1303811 ], [ -84.5034898, 38.1302528 ], [ -84.504031, 38.129341 ], [ -84.5043802, 38.1294693 ], [ -84.503839, 38.1303811 ] ] ] } },
{ "type": "Feature", "properties": { "element_type": "way", "osmid": "1182666238", "leisure": "sports_centre", "name": "nan", "wheelchair": "nan", "addr:city": "nan", "addr:housenumber": "nan", "addr:postcode": "nan", "addr:state": "nan", "addr:street": "nan", "website": "nan", "barrier": "nan", "nodes": [ 10982284594, 10982291161, 10982291131, 10982291107, 10982284594 ], "surface": "nan", "building": "nan", "building:levels": "nan", "sport": "tennis", "wikidata": "nan", "brand": "nan", "brand:wikidata": "nan", "brand:wikipedia": "nan", "operator": "nan", "access": "nan", "hoops": "nan", "area": "nan", "lit": "nan", "operator:type": "nan", "ways": "nan", "type": "nan" }, "geometry": { "type": "Polygon", "coordinates": [ [ [ -84.5050027, 38.1306324 ], [ -84.5043052, 38.1303855 ], [ -84.5044752, 38.1300884 ], [ -84.5051726, 38.1303353 ], [ -84.5050027, 38.1306324 ] ] ] } },
{ "type": "Feature", "properties": { "element_type": "relation", "osmid": "13640006", "leisure": "sports_centre", "name": "Keeneland Association", "wheelchair": "nan", "addr:city": "nan", "addr:housenumber": "nan", "addr:postcode": "nan", "addr:state": "nan", "addr:street": "nan", "website": "nan", "barrier": "nan", "nodes": [ [ [ 743079379, 743079383, 743079385, 743079387, 743079389, 743079394, 743079401, 743079406, 743079411, 743079416, 743079433, 743079437, 743079440, 743079443, 743079466, 743079510, 743079521, 743079528, 743079535, 743079543, 743079548, 743079554, 743079561, 9395341894, 9395341895, 743079571, 743079580, 743079588, 743079627, 743079635, 743079644, 743079647, 743079650, 743079654, 743079662, 743079673, 743079681, 743079687, 743079697, 743079705, 743079716, 743079723, 743079730, 743079735, 743079738, 743079742, 743079379 ], [ 1573607411, 1573607438, 1573607465, 1573607457, 1573607409, 1573607444, 1573607430, 1573607440, 1573607467, 1573607432, 1573607459, 1573607447, 1573607470, 1573607442, 1573607411 ] ] ], "surface": "nan", "building": "nan", "building:levels": "nan", "sport": "nan", "wikidata": "nan", "brand": "nan", "brand:wikidata": "nan", "brand:wikipedia": "nan", "operator": "nan", "access": "nan", "hoops": "nan", "area": "nan", "lit": "nan", "operator:type": "nan", "ways": [ 59854582, 143800792 ], "type": "multipolygon" }, "geometry": { "type": "MultiPolygon", "coordinates": [ [ [ [ -84.6150017, 38.0432781 ], [ -84.6134444, 38.04647 ], [ -84.6134015, 38.0470952 ], [ -84.6135303, 38.0477036 ], [ -84.6137234, 38.0483457 ], [ -84.6137449, 38.0487005 ], [ -84.6136376, 38.0491399 ], [ -84.6133586, 38.0495961 ], [ -84.6119424, 38.0512436 ], [ -84.6110626, 38.0523081 ], [ -84.6098509, 38.0545767 ], [ -84.6092495, 38.0557296 ], [ -84.6089841, 38.0560506 ], [ -84.6076798, 38.0569577 ], [ -84.5941093, 38.0555502 ], [ -84.5931879, 38.0570884 ], [ -84.5911567, 38.0563871 ], [ -84.5863434, 38.0549439 ], [ -84.5851203, 38.0545384 ], [ -84.5849696, 38.0544351 ], [ -84.5848281, 38.0543474 ], [ -84.5848307, 38.0541977 ], [ -84.5853732, 38.0532608 ], [ -84.5865297, 38.0511248 ], [ -84.5871158, 38.0500487 ], [ -84.5876785, 38.0489911 ], [ -84.590011, 38.0447693 ], [ -84.590213, 38.044706 ], [ -84.5914847, 38.0446167 ], [ -84.5923358, 38.0445839 ], [ -84.5931361, 38.0445505 ], [ -84.593902, 38.0444466 ], [ -84.5980674, 38.0439307 ], [ -84.6009939, 38.0435783 ], [ -84.6032062, 38.0433025 ], [ -84.6051846, 38.0430071 ], [ -84.6071802, 38.0427634 ], [ -84.6083434, 38.0426668 ], [ -84.608785, 38.042705 ], [ -84.6099249, 38.0426951 ], [ -84.6108971, 38.0427391 ], [ -84.611837, 38.0427888 ], [ -84.6128654, 38.0428203 ], [ -84.6138123, 38.0428524 ], [ -84.6142592, 38.04288 ], [ -84.6149468, 38.0429296 ], [ -84.6150017, 38.0432781 ] ] ], [ [ [ -84.6156685, 38.0430892 ], [ -84.6212003, 38.0433613 ], [ -84.6197025, 38.0471449 ], [ -84.621505, 38.0477194 ], [ -84.6192305, 38.0522479 ], [ -84.6133253, 38.0500724 ], [ -84.6137931, 38.0496491 ], [ -84.6140559, 38.049192 ], [ -84.61413, 38.0487519 ], [ -84.6140999, 38.0483159 ], [ -84.6139701, 38.0477743 ], [ -84.6138285, 38.0473206 ], [ -84.6137598, 38.0468432 ], [ -84.6138392, 38.0463701 ], [ -84.6156685, 38.0430892 ] ] ] ] } },
{ "type": "Feature", "properties": { "element_type": "relation", "osmid": "13654909", "leisure": "sports_centre", "name": "nan", "wheelchair": "nan", "addr:city": "nan", "addr:housenumber": "nan", "addr:postcode": "nan", "addr:state": "nan", "addr:street": "nan", "website": "nan", "barrier": "nan", "nodes": [ [ [ 9405830058, 9405830053, 9405830054, 9405830055, 9405830056, 9405830042, 9405830043, 9405830044, 9405830045, 9405830046, 9405830047, 9405830048, 9405830049, 9405830050, 9405830057 ], [ 9405830057, 4049711832, 4049711886, 9405830059, 4049708079, 4049712298, 9405830058 ] ] ], "surface": "nan", "building": "nan", "building:levels": "nan", "sport": "swimming", "wikidata": "nan", "brand": "nan", "brand:wikidata": "nan", "brand:wikipedia": "nan", "operator": "nan", "access": "nan", "hoops": "nan", "area": "nan", "lit": "nan", "operator:type": "nan", "ways": [ 1019808188, 1019808189 ], "type": "multipolygon" }, "geometry": { "type": "Polygon", "coordinates": [ [ [ -84.5339666, 37.9873845 ], [ -84.5339945, 37.9873734 ], [ -84.5340287, 37.9873649 ], [ -84.5340821, 37.9873769 ], [ -84.5341108, 37.987394 ], [ -84.5341384, 37.9874265 ], [ -84.5341369, 37.9874751 ], [ -84.5340671, 37.9875453 ], [ -84.5345498, 37.9878416 ], [ -84.5342638, 37.9881242 ], [ -84.53373, 37.9877772 ], [ -84.5336917, 37.9877565 ], [ -84.5336736, 37.9877127 ], [ -84.5336821, 37.98767 ], [ -84.5337047, 37.9876487 ], [ -84.5336304, 37.9876009 ], [ -84.533734, 37.9875002 ], [ -84.5337994, 37.9874936 ], [ -84.5337944, 37.9874413 ], [ -84.5338981, 37.9873404 ], [ -84.5339666, 37.9873845 ] ] ] } }
]
}
