{
"type": "FeatureCollection",
"crs": { "type": "name", "properties": { "name": "urn:ogc:def:crs:OGC:1.3:CRS84" } },
"features": [
{ "type": "Feature", "properties": { "element_type": "node", "osmid": "10775943574", "barrier": "nan", "leisure": "golf_course", "name": "Griffin Gate Golf Club", "nodes": "nan", "addr:city": "nan", "addr:housenumber": "nan", "addr:postcode": "nan", "addr:street": "nan", "designation": "nan", "operator": "nan", "gnis:feature_id": "nan", "phone": "nan", "website": "nan", "source": "nan", "addr:state": "nan", "building": "nan", "email": "nan", "facebook": "nan", "ways": "nan", "type": "nan" }, "geometry": { "type": "Point", "coordinates": [ -84.4846173, 38.0915042 ] } },
{ "type": "Feature", "properties": { "element_type": "way", "osmid": "34294186", "barrier": "nan", "leisure": "golf_course", "name": "Idle Hour Country Club", "nodes": [ 393223132, 9482665805, 393223134, 393223135, 393223136, 393223132 ], "addr:city": "nan", "addr:housenumber": "nan", "addr:postcode": "nan", "addr:street": "nan", "designation": "nan", "operator": "nan", "gnis:feature_id": "nan", "phone": "nan", "website": "nan", "source": "nan", "addr:state": "nan", "building": "nan", "email": "nan", "facebook": "nan", "ways": "nan", "type": "nan" }, "geometry": { "type": "Polygon", "coordinates": [ [ [ -84.4690319, 38.0221927 ], [ -84.4726573, 38.0251255 ], [ -84.4735677, 38.025979 ], [ -84.4636285, 38.0330305 ], [ -84.458822, 38.0295961 ], [ -84.4690319, 38.0221927 ] ] ] } },
{ "type": "Feature", "properties": { "element_type": "way", "osmid": "144790700", "barrier": "nan", "leisure": "golf_course", "name": "Gay Brewer Jr Golf Course", "nodes": [ 1582954751, 1582954676, 4079447282, 1582954690, 3513563018, 1582954756, 1582954712, 3620744676, 3620744663, 3393115651, 1582954716, 1582954732, 1582954753, 1582954709, 1582954767, 1582954728, 1582954720, 1582954680, 1582954761, 1582954685, 1582954749, 1582954687, 3394582069, 1582954751 ], "addr:city": "Lexington", "addr:housenumber": "469", "addr:postcode": "40504", "addr:street": "Parkway Drive", "designation": "Picadome Golf Course", "operator": "nan", "gnis:feature_id": "nan", "phone": "nan", "website": "nan", "source": "nan", "addr:state": "nan", "building": "nan", "email": "nan", "facebook": "nan", "ways": "nan", "type": "nan" }, "geometry": { "type": "Polygon", "coordinates": [ [ [ -84.536104, 38.0396928 ], [ -84.5335945, 38.0422615 ], [ -84.5330083, 38.0421981 ], [ -84.5303201, 38.0419075 ], [ -84.5302425, 38.0418675 ], [ -84.5299253, 38.0417038 ], [ -84.5309123, 38.0409265 ], [ -84.5272689, 38.0391295 ], [ -84.5272207, 38.0391057 ], [ -84.5229573, 38.0370033 ], [ -84.5235628, 38.036259 ], [ -84.5230117, 38.0359599 ], [ -84.5232683, 38.0356114 ], [ -84.5242033, 38.0360747 ], [ -84.524367, 38.0361609 ], [ -84.5246886, 38.0359656 ], [ -84.5248225, 38.0359298 ], [ -84.5247973, 38.035844 ], [ -84.5249777, 38.0358015 ], [ -84.5251112, 38.0356276 ], [ -84.5254084, 38.0357805 ], [ -84.5255689, 38.0356979 ], [ -84.526256, 38.034741 ], [ -84.536104, 38.0396928 ] ] ] } },
{ "type": "Feature", "properties": { "element_type": "way", "osmid": "257864626", "barrier": "nan", "leisure": "golf_course", "name": "Spring Valley Golf Club", "nodes": [ 2633267341, 2633267342, 2633267343, 2636152965, 2633267344, 2633267345, 2633267346, 2633267347, 2633267348, 2633267349, 2633267350, 2633267351, 2633267352, 2633267353, 2633267354, 2633267355, 2633267356, 2633267357, 2633267358, 2633267341 ], "addr:city": "nan", "addr:housenumber": "nan", "addr:postcode": "nan", "addr:street": "nan", "designation": "nan", "operator": "nan", "gnis:feature_id": "nan", "phone": "nan", "website": "nan", "source": "nan", "addr:state": "nan", "building": "nan", "email": "nan", "facebook": "nan", "ways": "nan", "type": "nan" }, "geometry": { "type": "Polygon", "coordinates": [ [ [ -84.5334495, 38.0833031 ], [ -84.5317141, 38.0864635 ], [ -84.5314861, 38.0865923 ], [ -84.5304561, 38.0866218 ], [ -84.5284069, 38.0866366 ], [ -84.5247913, 38.0866303 ], [ -84.5234824, 38.0860814 ], [ -84.5211435, 38.085828 ], [ -84.5209948, 38.0865423 ], [ -84.5201362, 38.0864876 ], [ -84.519223, 38.0827035 ], [ -84.5185686, 38.0803389 ], [ -84.5185793, 38.0801024 ], [ -84.5188261, 38.0801109 ], [ -84.5240403, 38.0827626 ], [ -84.5267654, 38.0817323 ], [ -84.5291901, 38.0815212 ], [ -84.5293296, 38.0829568 ], [ -84.5293618, 38.0834298 ], [ -84.5334495, 38.0833031 ] ] ] } },
{ "type": "Feature", "properties": { "element_type": "way", "osmid": "258229089", "barrier": "nan", "leisure": "golf_course", "name": "University Club of Kentucky", "nodes": [ 2636249603, 2636249604, 9506570383, 9506570382, 2636249606, 2636249608, 2636249609, 2636249611, 2636249613, 2636249614, 2636249616, 2636249618, 2636249619, 2636249621, 2636249623, 2636249630, 2636249631, 2636249633, 2636249635, 2636249636, 2636249638, 2636249603 ], "addr:city": "nan", "addr:housenumber": "nan", "addr:postcode": "nan", "addr:street": "nan", "designation": "nan", "operator": "University of Kentucky", "gnis:feature_id": "nan", "phone": "nan", "website": "nan", "source": "nan", "addr:state": "nan", "building": "nan", "email": "nan", "facebook": "nan", "ways": "nan", "type": "nan" }, "geometry": { "type": "Polygon", "coordinates": [ [ [ -84.6160937, 38.1135926 ], [ -84.6158791, 38.1157198 ], [ -84.6152836, 38.1174336 ], [ -84.6132296, 38.1191542 ], [ -84.6084762, 38.1237215 ], [ -84.6051074, 38.1217971 ], [ -84.6053219, 38.1207843 ], [ -84.6053863, 38.1195351 ], [ -84.6051074, 38.1187248 ], [ -84.6040559, 38.1175768 ], [ -84.6022964, 38.1160406 ], [ -84.6014381, 38.1155172 ], [ -84.606309, 38.1096251 ], [ -84.6092058, 38.1110771 ], [ -84.6109439, 38.1094731 ], [ -84.6121026, 38.1088653 ], [ -84.613154, 38.1100809 ], [ -84.6132613, 38.1105368 ], [ -84.6137548, 38.110942 ], [ -84.6152139, 38.1115667 ], [ -84.6157504, 38.1127991 ], [ -84.6160937, 38.1135926 ] ] ] } },
{ "type": "Feature", "properties": { "element_type": "way", "osmid": "285529283", "barrier": "nan", "leisure": "golf_course", "name": "Kearney Hill Golf Links", "nodes": [ 2891925551, 2891925552, 2891925553, 2891925554, 2891925555, 2891925556, 2891925557, 2891925558, 2891925559, 2891925560, 2891925561, 2891925562, 2891925551 ], "addr:city": "Lexington", "addr:housenumber": "3403", "addr:postcode": "40511", "addr:street": "Kearney Road", "designation": "nan", "operator": "nan", "gnis:feature_id": "nan", "phone": "nan", "website": "nan", "source": "nan", "addr:state": "nan", "building": "nan", "email": "nan", "facebook": "nan", "ways": "nan", "type": "nan" }, "geometry": { "type": "Polygon", "coordinates": [ [ [ -84.5410304, 38.1293526 ], [ -84.5397429, 38.1292682 ], [ -84.5352797, 38.1268882 ], [ -84.5353226, 38.1264325 ], [ -84.5296792, 38.1235966 ], [ -84.5288424, 38.1183466 ], [ -84.5291857, 38.1182285 ], [ -84.5296792, 38.1182454 ], [ -84.5306019, 38.1185661 ], [ -84.540966, 38.1228708 ], [ -84.5417385, 38.1236135 ], [ -84.5446996, 38.1249302 ], [ -84.5410304, 38.1293526 ] ] ] } },
{ "type": "Feature", "properties": { "element_type": "way", "osmid": "297625117", "barrier": "nan", "leisure": "golf_course", "name": "Connemara Golf Course", "nodes": [ 1616116781, 3015222415, 3015222417, 3015222419, 3015222422, 3015222421, 3015222420, 3015222418, 3015222416, 3015222414, 3015222408, 3015222401, 3015222398, 3015222399, 3015222400, 3015222402, 3015222407, 1616116781 ], "addr:city": "Nicholasville", "addr:housenumber": "2327", "addr:postcode": "40356", "addr:street": "Lexington Road", "designation": "nan", "operator": "nan", "gnis:feature_id": "2558029", "phone": "859-885-4331", "website": "https://www.connemaragolfcourse.com/", "source": "nan", "addr:state": "nan", "building": "nan", "email": "nan", "facebook": "nan", "ways": "nan", "type": "nan" }, "geometry": { "type": "Polygon", "coordinates": [ [ [ -84.5537015, 37.9240688 ], [ -84.5524818, 37.9272748 ], [ -84.5512791, 37.9299046 ], [ -84.5540293, 37.9311862 ], [ -84.557089, 37.9325843 ], [ -84.5573703, 37.9324178 ], [ -84.557919, 37.9317687 ], [ -84.558341, 37.9309643 ], [ -84.5588474, 37.9291667 ], [ -84.5595016, 37.9265258 ], [ -84.5601698, 37.9238404 ], [ -84.5604582, 37.9228528 ], [ -84.5560339, 37.9204336 ], [ -84.5556541, 37.9216487 ], [ -84.5552531, 37.9224533 ], [ -84.5549648, 37.9229416 ], [ -84.5541137, 37.923796 ], [ -84.5537015, 37.9240688 ] ] ] } },
{ "type": "Feature", "properties": { "element_type": "way", "osmid": "297625151", "barrier": "nan", "leisure": "golf_course", "name": "Lakeside Golf Course", "nodes": [ 260541210, 3015222731, 260541225, 260541224, 260541211, 3015222743, 260541213, 3015222747, 3015222746, 3015222748, 3015222751, 260541214, 3015222756, 260541215, 260541216, 260541217, 260541218, 260541219, 267299739, 631261645, 631261619, 267299738, 267299737, 267299736, 267299735, 260541193, 3015222750, 3015222745, 260541194, 260541195, 260541196, 260541197, 260541198, 260541199, 3015222726, 260541200, 3015222727, 260541201, 260541202, 260541203, 260541204, 260541205, 260541206, 260541207, 260541208, 260541209, 260541210 ], "addr:city": "nan", "addr:housenumber": "nan", "addr:postcode": "nan", "addr:street": "nan", "designation": "nan", "operator": "nan", "gnis:feature_id": "nan", "phone": "859-263-5315", "website": "http://www.lexingtonky.gov/index.aspx?page=264", "source": "Yahoo", "addr:state": "nan", "building": "nan", "email": "nan", "facebook": "nan", "ways": "nan", "type": "nan" }, "geometry": { "type": "Polygon", "coordinates": [ [ [ -84.4311626, 37.9910426 ], [ -84.4313994, 37.9915976 ], [ -84.4316348, 37.9919308 ], [ -84.43163, 37.992158 ], [ -84.431724, 37.9925847 ], [ -84.431875, 37.9929796 ], [ -84.4318295, 37.9931379 ], [ -84.4317309, 37.9931613 ], [ -84.4316204, 37.9931575 ], [ -84.431534, 37.9931916 ], [ -84.43163, 37.9932863 ], [ -84.4318099, 37.9934092 ], [ -84.4318414, 37.9935967 ], [ -84.4319201, 37.9937817 ], [ -84.4320822, 37.9939953 ], [ -84.4323016, 37.9939809 ], [ -84.4323926, 37.993902 ], [ -84.432272, 37.9936354 ], [ -84.4324908, 37.9932859 ], [ -84.4337676, 37.9943935 ], [ -84.43292, 37.9951044 ], [ -84.4249288, 38.0003175 ], [ -84.4228101, 37.9990198 ], [ -84.4254584, 37.9973224 ], [ -84.4211243, 37.9934265 ], [ -84.421276, 37.993357 ], [ -84.421378, 37.9932231 ], [ -84.4215213, 37.9930643 ], [ -84.4222438, 37.9926159 ], [ -84.4230049, 37.9920249 ], [ -84.4236299, 37.991523 ], [ -84.4241446, 37.9912226 ], [ -84.4244585, 37.9907527 ], [ -84.4248371, 37.9904889 ], [ -84.4254068, 37.990511 ], [ -84.4259903, 37.9905202 ], [ -84.426483, 37.9905556 ], [ -84.4271564, 37.9905248 ], [ -84.4275754, 37.9907346 ], [ -84.4284667, 37.9907982 ], [ -84.4288998, 37.9909554 ], [ -84.4293059, 37.9910398 ], [ -84.4297345, 37.9911679 ], [ -84.4301568, 37.9910294 ], [ -84.4306192, 37.9909805 ], [ -84.4309627, 37.9909502 ], [ -84.4311626, 37.9910426 ] ] ] } },
{ "type": "Feature", "properties": { "element_type": "way", "osmid": "297625179", "barrier": "nan", "leisure": "golf_course", "name": "The Brook Golf Club", "nodes": [ 1616116775, 3015223646, 3015223647, 3015223648, 3015223649, 3015223650, 3015223651, 3015223645, 3015223635, 3015223637, 3015223639, 3015223638, 3015223636, 1616116775 ], "addr:city": "Versailles", "addr:housenumber": "2260", "addr:postcode": "40383", "addr:street": "Lexington Road", "designation": "nan", "operator": "nan", "gnis:feature_id": "2558154", "phone": "859-873-8404", "website": "http://thebrookgc.com/", "source": "nan", "addr:state": "nan", "building": "nan", "email": "nan", "facebook": "nan", "ways": "nan", "type": "nan" }, "geometry": { "type": "Polygon", "coordinates": [ [ [ -84.6896669, 38.0480828 ], [ -84.6888856, 38.0515368 ], [ -84.6906675, 38.0519686 ], [ -84.691161, 38.0523787 ], [ -84.6922164, 38.0524759 ], [ -84.6942176, 38.0544187 ], [ -84.6896532, 38.0577537 ], [ -84.6821419, 38.0512022 ], [ -84.6833069, 38.0474783 ], [ -84.6867748, 38.0478453 ], [ -84.6872545, 38.0480396 ], [ -84.6876657, 38.0479101 ], [ -84.687748, 38.0478238 ], [ -84.6896669, 38.0480828 ] ] ] } },
{ "type": "Feature", "properties": { "element_type": "way", "osmid": "401967986", "barrier": "nan", "leisure": "golf_course", "name": "Athens Golf Center", "nodes": [ 4043762077, 4043762078, 4043762079, 4043762080, 4043762084, 4043762082, 4043762081, 4043762077 ], "addr:city": "Lexington", "addr:housenumber": "4400", "addr:postcode": "40509", "addr:street": "Athens Boonesboro Road", "designation": "nan", "operator": "nan", "gnis:feature_id": "nan", "phone": "+1-859-263-2152", "website": "Athensgolfcenter.com", "source": "nan", "addr:state": "KY", "building": "yes", "email": "Toni.schuck@yahoo.com", "facebook": "Facebook.com/Athensgolfcenter", "ways": "nan", "type": "nan" }, "geometry": { "type": "Polygon", "coordinates": [ [ [ -84.4170084, 37.9774512 ], [ -84.4171401, 37.9774751 ], [ -84.4171306, 37.9775076 ], [ -84.4171244, 37.977529 ], [ -84.41711, 37.9775782 ], [ -84.4170808, 37.9775729 ], [ -84.4169785, 37.9775543 ], [ -84.4170084, 37.9774512 ] ] ] } },
{ "type": "Feature", "properties": { "element_type": "way", "osmid": "405594524", "barrier": "fence", "leisure": "golf_course", "name": "Meadowbrook Golf Course", "nodes": [ 4077657694, 9443526259, 9443526260, 4077657693, 4077657691, 4077657692, 8322741797, 4077657694 ], "addr:city": "nan", "addr:housenumber": "nan", "addr:postcode": "nan", "addr:street": "nan", "designation": "nan", "operator": "LFUCG", "gnis:feature_id": "nan", "phone": "nan", "website": "nan", "source": "nan", "addr:state": "nan", "building": "nan", "email": "nan", "facebook": "nan", "ways": "nan", "type": "nan" }, "geometry": { "type": "Polygon", "coordinates": [ [ [ -84.5154972, 37.9796553 ], [ -84.5137232, 37.9787237 ], [ -84.5133732, 37.9785362 ], [ -84.5117076, 37.9776436 ], [ -84.5134434, 37.9757266 ], [ -84.5170594, 37.9774219 ], [ -84.5162511, 37.9785685 ], [ -84.5154972, 37.9796553 ] ] ] } },
{ "type": "Feature", "properties": { "element_type": "way", "osmid": "416463534", "barrier": "nan", "leisure": "golf_course", "name": "Lexington Country Club", "nodes": [ 4172054125, 4172052773, 4172052766, 4172052755, 4172052765, 4172052763, 4172052767, 4172052775, 4172052819, 4172052867, 4172053066, 4172053693, 4172053546, 4172053611, 4172053357, 4172054569, 4172054443, 4172054238, 4172054125 ], "addr:city": "nan", "addr:housenumber": "nan", "addr:postcode": "nan", "addr:street": "nan", "designation": "nan", "operator": "nan", "gnis:feature_id": "nan", "phone": "nan", "website": "nan", "source": "nan", "addr:state": "nan", "building": "nan", "email": "nan", "facebook": "nan", "ways": "nan", "type": "nan" }, "geometry": { "type": "Polygon", "coordinates": [ [ [ -84.4433191, 38.0829422 ], [ -84.4378831, 38.0771129 ], [ -84.4333459, 38.077068 ], [ -84.4329007, 38.0770089 ], [ -84.4324983, 38.0770574 ], [ -84.4317232, 38.0770342 ], [ -84.4310607, 38.0770743 ], [ -84.4299019, 38.0771672 ], [ -84.4285501, 38.0774079 ], [ -84.4274558, 38.0776613 ], [ -84.425428, 38.0783876 ], [ -84.4273941, 38.0812083 ], [ -84.4312726, 38.0801379 ], [ -84.4322677, 38.0805855 ], [ -84.4344992, 38.0795277 ], [ -84.4400487, 38.0850423 ], [ -84.440907, 38.0843794 ], [ -84.4419692, 38.0837101 ], [ -84.4433191, 38.0829422 ] ] ] } },
{ "type": "Feature", "properties": { "element_type": "way", "osmid": "479584034", "barrier": "nan", "leisure": "golf_course", "name": "Tates Creek Golf Course", "nodes": [ 4726579694, 4726579695, 4726579696, 4726579697, 9459370807, 9459370806, 9459370805, 4726579698, 4726579699, 9459370804, 4726579700, 9459370800, 9459370803, 9459370802, 9459370801, 4726579701, 9459370809, 4726579702, 9459370810, 9459370808, 4726579703, 9459370811, 9459370812, 4726579705, 9459414624, 9459414623, 9459414622, 9459414621, 9459414620, 9459414619, 9459414618, 9459414617, 9459370816, 9459370815, 9459370814, 9459370813, 4726579704, 4726579694 ], "addr:city": "nan", "addr:housenumber": "nan", "addr:postcode": "nan", "addr:street": "nan", "designation": "nan", "operator": "nan", "gnis:feature_id": "nan", "phone": "nan", "website": "nan", "source": "nan", "addr:state": "nan", "building": "nan", "email": "nan", "facebook": "nan", "ways": "nan", "type": "nan" }, "geometry": { "type": "Polygon", "coordinates": [ [ [ -84.4724756, 37.9896623 ], [ -84.4675275, 37.9869913 ], [ -84.4677546, 37.986488 ], [ -84.465481, 37.9858144 ], [ -84.4682853, 37.9801656 ], [ -84.4687072, 37.9800141 ], [ -84.4696094, 37.9779513 ], [ -84.4703351, 37.9782487 ], [ -84.4717406, 37.9796908 ], [ -84.4714838, 37.9801133 ], [ -84.4703646, 37.9816859 ], [ -84.4702171, 37.9820941 ], [ -84.4685004, 37.9835428 ], [ -84.4691978, 37.9838617 ], [ -84.4701969, 37.983709 ], [ -84.4722973, 37.9835809 ], [ -84.4727919, 37.9837248 ], [ -84.4739909, 37.9843111 ], [ -84.4752198, 37.985308 ], [ -84.4750545, 37.9854065 ], [ -84.4743565, 37.9849822 ], [ -84.4740089, 37.98545 ], [ -84.4736823, 37.9856121 ], [ -84.4735471, 37.9860036 ], [ -84.4738862, 37.9861155 ], [ -84.4740487, 37.9862742 ], [ -84.474141, 37.9862703 ], [ -84.4743627, 37.986389 ], [ -84.4742229, 37.9865399 ], [ -84.4742906, 37.9868332 ], [ -84.4741077, 37.9868661 ], [ -84.4741501, 37.9870107 ], [ -84.4743361, 37.9869763 ], [ -84.4743258, 37.9869398 ], [ -84.4750452, 37.9868262 ], [ -84.4751779, 37.9868806 ], [ -84.4743334, 37.9876681 ], [ -84.4724756, 37.9896623 ] ] ] } },
{ "type": "Feature", "properties": { "element_type": "way", "osmid": "579658844", "barrier": "nan", "leisure": "golf_course", "name": "Thoroughbred Golf Club", "nodes": [ 5550926545, 5550926546, 5550926547, 5550926548, 5550926549, 5550926550, 5550926551, 5550926552, 5550926553, 5550926554, 5550926555, 5550926556, 5550926557, 5550926558, 5550926545 ], "addr:city": "nan", "addr:housenumber": "nan", "addr:postcode": "nan", "addr:street": "nan", "designation": "nan", "operator": "nan", "gnis:feature_id": "nan", "phone": "nan", "website": "https://thoroughbred.golf/", "source": "nan", "addr:state": "nan", "building": "nan", "email": "nan", "facebook": "nan", "ways": "nan", "type": "nan" }, "geometry": { "type": "Polygon", "coordinates": [ [ [ -84.4877666, 37.8927571 ], [ -84.4900952, 37.888391 ], [ -84.4889836, 37.8875824 ], [ -84.4909022, 37.8858008 ], [ -84.4927582, 37.8839581 ], [ -84.4879791, 37.8802219 ], [ -84.4887647, 37.8786614 ], [ -84.4871478, 37.8772434 ], [ -84.4868789, 37.8770426 ], [ -84.4855057, 37.8768227 ], [ -84.4847925, 37.8792997 ], [ -84.4839629, 37.8823089 ], [ -84.4827724, 37.8867404 ], [ -84.4819319, 37.8901233 ], [ -84.4877666, 37.8927571 ] ] ] } },
{ "type": "Feature", "properties": { "element_type": "way", "osmid": "589060104", "barrier": "nan", "leisure": "golf_course", "name": "Stoner Creek", "nodes": [ 5625128726, 5625128725, 5625128602, 5625128724, 5625128723, 5625128722, 5625128721, 5625128620, 5625128619, 5625128618, 5625128617, 5625128616, 5625128615, 5625128614, 5625128613, 5625128612, 5625128611, 5625128610, 5625128609, 5625128608, 5625128607, 5625128606, 5625128605, 5625128604, 5625128603, 5625128726 ], "addr:city": "Paris", "addr:housenumber": "38", "addr:postcode": "40361", "addr:street": "East Main Street", "designation": "nan", "operator": "nan", "gnis:feature_id": "nan", "phone": "+1 859 987 0041", "website": "http://www.stonercreekparis.com/", "source": "nan", "addr:state": "nan", "building": "nan", "email": "nan", "facebook": "nan", "ways": "nan", "type": "nan" }, "geometry": { "type": "Polygon", "coordinates": [ [ [ -84.239248, 38.2105178 ], [ -84.2378908, 38.2118876 ], [ -84.2381001, 38.2120014 ], [ -84.2413724, 38.2128571 ], [ -84.2417854, 38.213072 ], [ -84.2436173, 38.2144155 ], [ -84.2440693, 38.2141574 ], [ -84.2445695, 38.2145009 ], [ -84.2452294, 38.2141763 ], [ -84.2457175, 38.2139529 ], [ -84.2459965, 38.2138729 ], [ -84.2462754, 38.2138518 ], [ -84.2470104, 38.2139487 ], [ -84.2471069, 38.213561 ], [ -84.2470479, 38.2128992 ], [ -84.2467743, 38.2124693 ], [ -84.2457926, 38.2116305 ], [ -84.2450899, 38.2112722 ], [ -84.2438829, 38.2110067 ], [ -84.2429817, 38.2109393 ], [ -84.2408413, 38.210973 ], [ -84.2399991, 38.2108592 ], [ -84.2396504, 38.2107327 ], [ -84.2395431, 38.2106231 ], [ -84.2393553, 38.2105515 ], [ -84.239248, 38.2105178 ] ] ] } },
{ "type": "Feature", "properties": { "element_type": "way", "osmid": "613053471", "barrier": "nan", "leisure": "golf_course", "name": "Canewood Golf Course", "nodes": [ 5801702827, 5801703032, 5801702957, 5801703122, 5801703047, 5801702971, 5801702796, 5801703061, 5801702986, 5801702811, 5801703076, 5801703001, 5801702826, 5801703091, 5801703016, 5801702841, 5801703106, 5801703031, 5801702956, 5801703121, 5801703046, 5801702970, 5801702795, 5801703060, 5801702985, 5801702810, 5801703075, 5801703000, 5801702825, 5801703090, 5801703015, 5801702840, 5801703105, 5801703030, 5801702955, 5801703120, 5801703045, 5801702969, 5801702794, 5801703059, 8117388964, 8117388963, 8117388962, 8117388965, 8117388966, 5801702809, 5801703074, 5801702999, 5801702824, 5801703089, 5801703014, 5801702790, 5801703041, 5801703116, 5801702851, 5801703026, 5801703101, 5801702836, 5801703011, 5801703086, 5801702821, 5801702996, 5801703071, 5801702806, 5801702981, 5801703056, 7608682604, 7608682589, 7608682586, 7608607783, 7608682603, 7608607778, 7608607781, 7608607784, 7608682587, 7608682590, 7608682593, 7608682596, 7608682599, 7608682602, 7608607775, 7608607779, 7608607782, 7608682585, 7608682588, 7608682591, 7608682594, 7608682597, 7608682600, 7608607776, 7608607780, 7608682598, 7608682601, 7608682592, 7608682595, 7608607777, 5801702791, 5801702966, 5801703042, 5801703117, 5801702852, 5801703027, 5801703102, 5801702837, 5801703012, 5801703087, 5801702822, 5801702997, 5801703072, 5801702807, 5801702982, 5801703057, 5801702792, 5801702967, 5801703043, 5801703118, 5801702953, 5801703028, 5801703103, 5801702838, 5801703013, 5801703088, 5801702823, 5801702998, 5801703073, 5801702808, 5801702983, 5801703058, 5801702793, 5801702968, 5801703044, 5801703119, 5801702954, 5801703029, 5801703104, 5801702839, 5801703002, 5801703077, 5801702812, 5801702987, 5801703062, 5801702797, 5801702972, 5801703048, 5801703123, 5801702958, 5801703033, 5801703108, 5801702843, 5801703018, 5801703093, 5801702828, 5801703003, 5801703078, 5801702813, 5801702988, 5801703063, 5801702798, 5801702973, 5801703049, 5801703124, 5801702959, 5801703034, 5801703109, 5801702844, 5801703019, 5801703094, 5801702829, 5801703004, 5801703079, 5801702814, 5801702989, 5801703064, 5801702799, 5801702974, 5801703050, 5801703125, 5801702960, 5801703035, 5801703110, 5801702845, 5801703020, 5801703095, 5801702830, 5801703005, 5801703080, 5801702815, 5801702990, 5801703065, 5801702800, 5801702975, 5801703051, 5801703126, 5801702961, 5801703036, 5801703111, 5801702846, 5801703021, 5801703096, 5801702831, 5801703006, 5801703081, 5801702816, 5801702991, 5801703066, 5801702801, 5801702976, 5801703052, 5801703127, 5801702962, 5801703037, 5801703112, 5801702847, 5801703022, 5801703097, 5801702832, 5801703007, 5801703082, 5801702817, 5801702992, 5801703067, 5801702802, 5801702977, 5801703053, 5801703128, 5801702963, 5801703038, 5801703113, 5801702848, 5801703023, 5801703098, 5801702833, 5801703008, 5801703083, 5801702818, 5801702993, 5801703068, 5801702803, 5801702978, 5801703054, 5801703129, 5801702964, 5801703039, 5801703114, 5801702849, 5801703024, 5801703099, 5801702834, 5801703009, 5801703084, 5801702819, 5801702994, 5801703069, 5801702804, 5801702979, 5801703055, 5801703130, 6392124318, 5801703040, 5801703115, 5801702850, 6393949192, 6393949191, 5801703025, 6393949193, 5801703100, 5801702835, 5801703010, 5801703085, 5801702820, 5801702995, 5801703070, 5801702805, 5801702980, 5801702827 ], "addr:city": "nan", "addr:housenumber": "nan", "addr:postcode": "nan", "addr:street": "nan", "designation": "nan", "operator": "nan", "gnis:feature_id": "nan", "phone": "nan", "website": "nan", "source": "nan", "addr:state": "nan", "building": "nan", "email": "nan", "facebook": "nan", "ways": "nan", "type": "nan" }, "geometry": { "type": "Polygon", "coordinates": [ [ [ -84.5835747, 38.2199324 ], [ -84.5826286, 38.2231923 ], [ -84.5827578, 38.2233481 ], [ -84.5831532, 38.2233832 ], [ -84.5833707, 38.2233741 ], [ -84.5836843, 38.2232362 ], [ -84.5839813, 38.2229581 ], [ -84.5842255, 38.2227058 ], [ -84.5844683, 38.2224084 ], [ -84.5847623, 38.2220676 ], [ -84.5847016, 38.2217394 ], [ -84.5851728, 38.2215274 ], [ -84.5857157, 38.2212015 ], [ -84.5863275, 38.2208583 ], [ -84.5869082, 38.2205379 ], [ -84.5872292, 38.2203281 ], [ -84.5874278, 38.220085 ], [ -84.5875081, 38.2196498 ], [ -84.5873682, 38.2193205 ], [ -84.5872317, 38.2189707 ], [ -84.5870913, 38.2186408 ], [ -84.5869529, 38.2183566 ], [ -84.5867742, 38.2181757 ], [ -84.5865097, 38.2180416 ], [ -84.5863812, 38.2178311 ], [ -84.5864274, 38.2174964 ], [ -84.586418, 38.2172045 ], [ -84.5863194, 38.2169729 ], [ -84.5860833, 38.2166567 ], [ -84.5859066, 38.2163236 ], [ -84.5859271, 38.2160105 ], [ -84.5859518, 38.2156996 ], [ -84.5858934, 38.2154373 ], [ -84.5858939, 38.2151395 ], [ -84.5860178, 38.2148681 ], [ -84.5862439, 38.2145513 ], [ -84.5864565, 38.2144114 ], [ -84.5867186, 38.2143722 ], [ -84.5870137, 38.2143467 ], [ -84.5876335, 38.2142502 ], [ -84.5878302, 38.2141847 ], [ -84.5880056, 38.2140982 ], [ -84.5882763, 38.2139001 ], [ -84.5883977, 38.2137774 ], [ -84.588397, 38.2137496 ], [ -84.5883429, 38.2136883 ], [ -84.5881924, 38.2134781 ], [ -84.5878954, 38.2133814 ], [ -84.5875281, 38.2133095 ], [ -84.5872263, 38.2130538 ], [ -84.5859273, 38.2120309 ], [ -84.5867786, 38.2091046 ], [ -84.5898943, 38.2088376 ], [ -84.5899344, 38.2092577 ], [ -84.5899771, 38.2094512 ], [ -84.5899502, 38.2097411 ], [ -84.5899806, 38.2099652 ], [ -84.5899866, 38.2102144 ], [ -84.5899418, 38.2104607 ], [ -84.5898752, 38.2106851 ], [ -84.5898004, 38.2108957 ], [ -84.5897512, 38.211075 ], [ -84.5896455, 38.2114451 ], [ -84.5896047, 38.2116698 ], [ -84.5895641, 38.2118174 ], [ -84.5895483, 38.2119356 ], [ -84.5895613, 38.2120052 ], [ -84.5908418, 38.2121741 ], [ -84.5911059, 38.2116427 ], [ -84.591382, 38.2111114 ], [ -84.5915478, 38.2087239 ], [ -84.5923317, 38.208687 ], [ -84.5927031, 38.2087537 ], [ -84.5927687, 38.2094227 ], [ -84.5930176, 38.2096995 ], [ -84.5932161, 38.2105536 ], [ -84.5929777, 38.2116031 ], [ -84.594293, 38.2118604 ], [ -84.5945698, 38.2120095 ], [ -84.5947858, 38.2121954 ], [ -84.5947491, 38.2123155 ], [ -84.5944897, 38.2124895 ], [ -84.5941553, 38.2125065 ], [ -84.5937083, 38.2124515 ], [ -84.5928711, 38.2122043 ], [ -84.5924969, 38.2120826 ], [ -84.5923978, 38.2119444 ], [ -84.5920591, 38.2115698 ], [ -84.5919055, 38.2115258 ], [ -84.5915442, 38.2115581 ], [ -84.5913086, 38.2118106 ], [ -84.5912135, 38.2122231 ], [ -84.591096, 38.212424 ], [ -84.5908862, 38.212364 ], [ -84.5907649, 38.2122297 ], [ -84.5895717, 38.2120611 ], [ -84.5895796, 38.2121032 ], [ -84.5893618, 38.2121311 ], [ -84.5892075, 38.2121403 ], [ -84.5890089, 38.2122042 ], [ -84.5888469, 38.2122135 ], [ -84.5886641, 38.2120748 ], [ -84.5885801, 38.2118834 ], [ -84.5885469, 38.2115473 ], [ -84.5886723, 38.2110453 ], [ -84.5888638, 38.2103745 ], [ -84.5889259, 38.2100899 ], [ -84.5889222, 38.2098164 ], [ -84.5887643, 38.2096861 ], [ -84.5883573, 38.2095988 ], [ -84.5880704, 38.2095598 ], [ -84.5877625, 38.2095058 ], [ -84.5875372, 38.2095092 ], [ -84.5871782, 38.2095659 ], [ -84.5868986, 38.2095901 ], [ -84.5867418, 38.209803 ], [ -84.5867873, 38.2099904 ], [ -84.5869068, 38.2102439 ], [ -84.5871292, 38.2103448 ], [ -84.5871159, 38.2105408 ], [ -84.587103, 38.2107166 ], [ -84.5871097, 38.2109388 ], [ -84.5871503, 38.2111113 ], [ -84.5872974, 38.2112219 ], [ -84.5874255, 38.2113907 ], [ -84.5872803, 38.2115205 ], [ -84.587127, 38.211732 ], [ -84.5871199, 38.2119798 ], [ -84.5873928, 38.2122681 ], [ -84.5875851, 38.2123285 ], [ -84.5877509, 38.2124655 ], [ -84.5878921, 38.2126456 ], [ -84.5880631, 38.2127683 ], [ -84.5883465, 38.2129219 ], [ -84.5882882, 38.2130895 ], [ -84.5882515, 38.2131772 ], [ -84.5882519, 38.2133538 ], [ -84.5885409, 38.2134888 ], [ -84.5886698, 38.2133275 ], [ -84.5887722, 38.2131299 ], [ -84.588844, 38.2129668 ], [ -84.5889723, 38.2128655 ], [ -84.5891731, 38.2127121 ], [ -84.5893305, 38.21264 ], [ -84.5894818, 38.2125519 ], [ -84.5897467, 38.2125274 ], [ -84.5899452, 38.2125617 ], [ -84.5901411, 38.2125993 ], [ -84.5903394, 38.2126956 ], [ -84.5905181, 38.2128432 ], [ -84.5906203, 38.2129818 ], [ -84.5907679, 38.2131253 ], [ -84.5908761, 38.2132407 ], [ -84.5909848, 38.2133637 ], [ -84.5910341, 38.2134592 ], [ -84.5915634, 38.2132582 ], [ -84.5919591, 38.2137934 ], [ -84.5923157, 38.2140621 ], [ -84.5925443, 38.2144026 ], [ -84.5928272, 38.2146493 ], [ -84.5931844, 38.2149039 ], [ -84.5936431, 38.2150856 ], [ -84.5941447, 38.2151941 ], [ -84.5944776, 38.2153461 ], [ -84.5947476, 38.2153921 ], [ -84.5949977, 38.2152409 ], [ -84.5952097, 38.2149953 ], [ -84.5951482, 38.2146887 ], [ -84.5950596, 38.2144289 ], [ -84.5950495, 38.2141284 ], [ -84.5950451, 38.213754 ], [ -84.595117, 38.2135071 ], [ -84.5951975, 38.2132602 ], [ -84.5952619, 38.2130484 ], [ -84.5952978, 38.2127888 ], [ -84.5953227, 38.2124971 ], [ -84.5954254, 38.2122248 ], [ -84.5958721, 38.2123156 ], [ -84.5960952, 38.2132487 ], [ -84.5962309, 38.2141382 ], [ -84.5962335, 38.214596 ], [ -84.5961895, 38.2149985 ], [ -84.5961194, 38.2152521 ], [ -84.5959421, 38.2156204 ], [ -84.5957969, 38.215858 ], [ -84.595493, 38.2163464 ], [ -84.5942546, 38.2159823 ], [ -84.5938459, 38.2157932 ], [ -84.5935288, 38.2155346 ], [ -84.5931753, 38.2152839 ], [ -84.5926947, 38.2150791 ], [ -84.5921752, 38.2148816 ], [ -84.5917631, 38.2147399 ], [ -84.5913735, 38.2145918 ], [ -84.5910653, 38.2144404 ], [ -84.5908225, 38.2142559 ], [ -84.5905495, 38.2139859 ], [ -84.5904776, 38.2137913 ], [ -84.5902454, 38.2134598 ], [ -84.5901284, 38.2133175 ], [ -84.5900138, 38.2134096 ], [ -84.5898888, 38.2135354 ], [ -84.58984, 38.2136454 ], [ -84.589842, 38.2137507 ], [ -84.5898949, 38.2138529 ], [ -84.5899796, 38.2139695 ], [ -84.5897315, 38.2141175 ], [ -84.5895793, 38.2141869 ], [ -84.5893891, 38.2142584 ], [ -84.5892779, 38.2144053 ], [ -84.5892195, 38.2145458 ], [ -84.5891422, 38.2147066 ], [ -84.5890219, 38.2148768 ], [ -84.5889211, 38.2150184 ], [ -84.5887836, 38.2151005 ], [ -84.5885632, 38.2151446 ], [ -84.588258, 38.2151956 ], [ -84.5879726, 38.2153847 ], [ -84.5876706, 38.2154808 ], [ -84.5873967, 38.2155384 ], [ -84.5870627, 38.2156257 ], [ -84.5867022, 38.2157833 ], [ -84.5864019, 38.2158715 ], [ -84.5862468, 38.2159732 ], [ -84.5864737, 38.2161808 ], [ -84.5867592, 38.2164331 ], [ -84.5871738, 38.2165196 ], [ -84.5873813, 38.2166598 ], [ -84.5873765, 38.2169627 ], [ -84.5873385, 38.2173115 ], [ -84.587261, 38.2176127 ], [ -84.5874221, 38.2178321 ], [ -84.5877528, 38.218123 ], [ -84.5879499, 38.2183934 ], [ -84.5881793, 38.2187845 ], [ -84.5882837, 38.2191169 ], [ -84.5883027, 38.219399 ], [ -84.5883653, 38.2196309 ], [ -84.5884074, 38.2199876 ], [ -84.5881609, 38.2202859 ], [ -84.5879498, 38.220559 ], [ -84.5875686, 38.2208435 ], [ -84.5872029, 38.2210843 ], [ -84.5870026, 38.2214348 ], [ -84.5866855, 38.2217235 ], [ -84.5864035, 38.2219193 ], [ -84.5860596, 38.2221219 ], [ -84.5857487, 38.2223581 ], [ -84.5853994, 38.2225813 ], [ -84.5851369, 38.2227926 ], [ -84.5847039, 38.2231472 ], [ -84.5841939, 38.2234789 ], [ -84.5840225, 38.2236958 ], [ -84.5837477, 38.2240326 ], [ -84.5834847, 38.2242262 ], [ -84.5831092, 38.2242272 ], [ -84.5825932, 38.2241695 ], [ -84.5823511, 38.2241484 ], [ -84.5818967, 38.2240842 ], [ -84.5814548, 38.2240657 ], [ -84.581143, 38.2240477 ], [ -84.5815601, 38.2234259 ], [ -84.5815838, 38.2229748 ], [ -84.5815005, 38.2228909 ], [ -84.5816666, 38.2228241 ], [ -84.5817476, 38.2225781 ], [ -84.5817677, 38.2221573 ], [ -84.5819654, 38.2218357 ], [ -84.5821795, 38.2214807 ], [ -84.582303, 38.2211733 ], [ -84.5826308, 38.2206472 ], [ -84.5829015, 38.2202677 ], [ -84.5830391, 38.2201959 ], [ -84.5831626, 38.2198611 ], [ -84.5835747, 38.2199324 ] ] ] } },
{ "type": "Feature", "properties": { "element_type": "way", "osmid": "645635014", "barrier": "nan", "leisure": "golf_course", "name": "nan", "nodes": [ 6068575145, 6068575146, 6068575147, 6068575148, 6068575149, 6068575150, 6068575151, 6068575152, 6068575153, 6068575154, 10243747961, 6068575155, 6068575156, 6068575157, 6068575158, 6068575159, 6068575160, 6068575161, 6068575162, 6068575163, 6068575164, 6068575165, 6068575166, 6068575167, 4042019657, 6068575168, 6068575169, 6068575170, 6068575171, 6068575172, 6068575173, 6068575174, 6068575175, 6068575176, 6068575177, 6068575178, 6068575179, 6068575180, 6068575181, 6068575182, 6068575183, 6068575184, 6068578685, 6068578686, 6068578687, 6068578688, 6068578689, 6068578690, 6068578691, 10243747960, 6068578692, 10243747959, 10243747958, 6068578693, 6068578694, 6068578695, 6068578696, 6068578697, 6068578698, 6068578699, 6068578700, 6068578701, 6068578702, 6068578703, 6068578704, 6068578705, 6068578706, 6068578707, 6068578708, 6068578709, 6068578710, 6068578711, 6068578712, 6068578713, 6068578714, 6068578715, 10243832476, 6068578716, 6068575145 ], "addr:city": "nan", "addr:housenumber": "nan", "addr:postcode": "nan", "addr:street": "nan", "designation": "nan", "operator": "nan", "gnis:feature_id": "nan", "phone": "nan", "website": "nan", "source": "nan", "addr:state": "nan", "building": "nan", "email": "nan", "facebook": "nan", "ways": "nan", "type": "nan" }, "geometry": { "type": "Polygon", "coordinates": [ [ [ -84.3819356, 38.0166034 ], [ -84.383012, 38.016969 ], [ -84.3836438, 38.0178772 ], [ -84.3842756, 38.018221 ], [ -84.3855588, 38.01857 ], [ -84.3861319, 38.0187958 ], [ -84.3862166, 38.0190523 ], [ -84.387109, 38.0194372 ], [ -84.3900205, 38.0214845 ], [ -84.391627, 38.0225052 ], [ -84.3906588, 38.0232256 ], [ -84.3892768, 38.0242935 ], [ -84.3879237, 38.0252761 ], [ -84.3892487, 38.0263001 ], [ -84.3869749, 38.0278871 ], [ -84.385491, 38.0268829 ], [ -84.3847178, 38.0260301 ], [ -84.3822663, 38.0239671 ], [ -84.3816978, 38.024231 ], [ -84.381779, 38.0249985 ], [ -84.3821546, 38.025918 ], [ -84.383941, 38.0271813 ], [ -84.3842963, 38.0292521 ], [ -84.3843673, 38.0298997 ], [ -84.3838171, 38.0301935 ], [ -84.3821242, 38.0289563 ], [ -84.3813426, 38.0276131 ], [ -84.3800941, 38.0261899 ], [ -84.3785006, 38.0248226 ], [ -84.3767547, 38.0238712 ], [ -84.3763307, 38.0236908 ], [ -84.3766173, 38.0233727 ], [ -84.3779265, 38.0238396 ], [ -84.3792357, 38.024363 ], [ -84.3801411, 38.0249736 ], [ -84.3806882, 38.0242912 ], [ -84.3812549, 38.0239217 ], [ -84.3808576, 38.0227826 ], [ -84.3804798, 38.0224645 ], [ -84.3806817, 38.022054 ], [ -84.3811311, 38.0216897 ], [ -84.3808836, 38.0209149 ], [ -84.3821342, 38.0209919 ], [ -84.3821407, 38.0217616 ], [ -84.382017, 38.0220438 ], [ -84.3816913, 38.0224183 ], [ -84.3840296, 38.0245682 ], [ -84.3851109, 38.0255636 ], [ -84.3860814, 38.0250403 ], [ -84.3868611, 38.024264 ], [ -84.3871431, 38.0239833 ], [ -84.3872023, 38.023941 ], [ -84.3873812, 38.0238131 ], [ -84.3892534, 38.0224748 ], [ -84.388791, 38.0220078 ], [ -84.3862702, 38.0212997 ], [ -84.3855538, 38.0213254 ], [ -84.3850262, 38.0213665 ], [ -84.3843683, 38.020879 ], [ -84.3832871, 38.0206327 ], [ -84.3824403, 38.0206789 ], [ -84.3822645, 38.020956 ], [ -84.3811637, 38.0208585 ], [ -84.3811246, 38.0203197 ], [ -84.3798415, 38.0196937 ], [ -84.3791966, 38.0199708 ], [ -84.377679, 38.0211356 ], [ -84.3763438, 38.0219719 ], [ -84.3756598, 38.0231264 ], [ -84.37523, 38.0239012 ], [ -84.3758227, 38.0244502 ], [ -84.3753537, 38.0250198 ], [ -84.3740054, 38.0238653 ], [ -84.3758683, 38.0214691 ], [ -84.3780763, 38.019786 ], [ -84.3802974, 38.0183441 ], [ -84.3803521, 38.0182994 ], [ -84.3811702, 38.0176309 ], [ -84.3819356, 38.0166034 ] ] ] } },
{ "type": "Feature", "properties": { "element_type": "way", "osmid": "645741073", "barrier": "nan", "leisure": "golf_course", "name": "Boone's Trace National Golf Club", "nodes": [ 6069285551, 6069285552, 6069299270, 10737889249, 6069285553, 6069299271, 6069285554, 10737889297, 10737889296, 10737889295, 6069285555, 6069285556, 6069285557, 6069285558, 10739264225, 6069285559, 6069285560, 6069285561, 10737771843, 10737771842, 6069285562, 6069285563, 6069285564, 6069285565, 6069285566, 6069285567, 10737769503, 10737769504, 6069285568, 6069285569, 10737771705, 6069285570, 6069285571, 10737771706, 10737771707, 6069285572, 10737771708, 10737771709, 6069285573, 10737771710, 6069285574, 6069285575, 6069285576, 10737771711, 10737771712, 10737771713, 10737771714, 6069285577, 10739274154, 10739274164, 10739274163, 10739274162, 10739274161, 10739274160, 10739274159, 10739274158, 10739274157, 6069285578, 10739274156, 10739274155, 10737771715, 10737771716, 6069285579, 6069285580, 10737772189, 6069285581, 10737772188, 6069285582, 6069285583, 6069285584, 10737840232, 10737840231, 10737840230, 10737840229, 6069299266, 10737840233, 6069299267, 10737771724, 6069286185, 6069299269, 6069299268, 6069286186, 6069286187, 6069286188, 6069286189, 6069286190, 6069286191, 6069286192, 10737771717, 6069286193, 6069286194, 10737771718, 6069286195, 10737771719, 10737771720, 6069286196, 10737771721, 6069286197, 10737771722, 10737771723, 6069286198, 6069286199, 6069286200, 6069286201, 6069286202, 6069286203, 6069286204, 6069286205, 6069286206, 6069286207, 6069286208, 10737769502, 10737769501, 6069286209, 6069286210, 6069286211, 10737841286, 6069286212, 10737841285, 10737841287, 10737841284, 10737841283, 6069286213, 10737841282, 6069286214, 10737841281, 6069286215, 10737841280, 6069286216, 10737840653, 10737840654, 10737840655, 6069286217, 10737840652, 10737840651, 10737840656, 10737840650, 10737840649, 6069286218, 10737840648, 6069286219, 6069286220, 6069286221, 6069286222, 10737840642, 10737840641, 6069286223, 10737840647, 10737840646, 10737840645, 10737840644, 10737840643, 6069286224, 10737840664, 10737840666, 10737840665, 10737840663, 10737840662, 10737840661, 10737840660, 6069286225, 10737840632, 10737840634, 10737840633, 10737840635, 10737840636, 6069286226, 10737840640, 10737840639, 10737840638, 10737840637, 6069286227, 6069286228, 10737889363, 10737889364, 6069286229, 10737889362, 6069286230, 6069286231, 10737840658, 6069286232, 10737840657, 6069286233, 6069286234, 10737840659, 6069286235, 6069286236, 6069286237, 6069286238, 6069285551 ], "addr:city": "Richmond", "addr:housenumber": "175", "addr:postcode": "40475", "addr:street": "Gleneagles Blvd.", "designation": "nan", "operator": "nan", "gnis:feature_id": "nan", "phone": "nan", "website": "nan", "source": "nan", "addr:state": "Ky", "building": "nan", "email": "nan", "facebook": "nan", "ways": "nan", "type": "nan" }, "geometry": { "type": "Polygon", "coordinates": [ [ [ -84.3718773, 37.889967 ], [ -84.3712933, 37.8899088 ], [ -84.3706752, 37.8899625 ], [ -84.3700717, 37.8898481 ], [ -84.3694398, 37.8897947 ], [ -84.3687984, 37.8896515 ], [ -84.3679742, 37.8893369 ], [ -84.3679043, 37.8891468 ], [ -84.3677106, 37.8890415 ], [ -84.367272, 37.888853 ], [ -84.3670205, 37.8886677 ], [ -84.366621, 37.8883157 ], [ -84.3656287, 37.8885619 ], [ -84.3648575, 37.8890944 ], [ -84.3643978, 37.8893085 ], [ -84.3639422, 37.8894086 ], [ -84.3622435, 37.8895777 ], [ -84.3612966, 37.8895598 ], [ -84.3610409, 37.8893646 ], [ -84.3606267, 37.8890347 ], [ -84.3604466, 37.8888336 ], [ -84.3609677, 37.8884858 ], [ -84.3630204, 37.8881502 ], [ -84.3641147, 37.8878727 ], [ -84.3648689, 37.8875192 ], [ -84.3647637, 37.8869852 ], [ -84.3646476, 37.8864743 ], [ -84.364579, 37.8862147 ], [ -84.3644997, 37.8859607 ], [ -84.3643818, 37.8852822 ], [ -84.3644259, 37.88509 ], [ -84.3645106, 37.884914 ], [ -84.3649483, 37.8841449 ], [ -84.3650417, 37.8838807 ], [ -84.3651088, 37.883739 ], [ -84.3651921, 37.8836615 ], [ -84.3654985, 37.8836236 ], [ -84.3659018, 37.8836207 ], [ -84.3663091, 37.8836884 ], [ -84.3665829, 37.8836563 ], [ -84.3668343, 37.8836644 ], [ -84.3672, 37.8829121 ], [ -84.3674893, 37.8823391 ], [ -84.3676524, 37.8818814 ], [ -84.3677124, 37.8817625 ], [ -84.367773, 37.8816934 ], [ -84.3679008, 37.8816107 ], [ -84.3680896, 37.8815312 ], [ -84.368645, 37.8813355 ], [ -84.3688048, 37.881208 ], [ -84.3689057, 37.8811652 ], [ -84.3689895, 37.8811474 ], [ -84.368996, 37.8811032 ], [ -84.3689984, 37.8810614 ], [ -84.3691104, 37.8809863 ], [ -84.3692487, 37.8809251 ], [ -84.3693106, 37.8809593 ], [ -84.3693647, 37.8809896 ], [ -84.3694399, 37.8809884 ], [ -84.3695687, 37.8809829 ], [ -84.3696494, 37.8811075 ], [ -84.3700236, 37.8810844 ], [ -84.3701033, 37.8812811 ], [ -84.3700232, 37.8816408 ], [ -84.3697197, 37.8817594 ], [ -84.3690095, 37.882053 ], [ -84.3686475, 37.8822584 ], [ -84.3683164, 37.882668 ], [ -84.36877, 37.8829231 ], [ -84.3699495, 37.8829813 ], [ -84.3701338, 37.8831397 ], [ -84.3702402, 37.8831919 ], [ -84.370368, 37.8832015 ], [ -84.3705317, 37.8831981 ], [ -84.3706679, 37.8828204 ], [ -84.3707713, 37.8825434 ], [ -84.3708545, 37.882268 ], [ -84.3706472, 37.8821706 ], [ -84.3707183, 37.8819336 ], [ -84.3711911, 37.8818046 ], [ -84.371678, 37.8822169 ], [ -84.3716613, 37.8829557 ], [ -84.3719263, 37.884769 ], [ -84.3724477, 37.8854664 ], [ -84.372536, 37.8862126 ], [ -84.3720235, 37.8865055 ], [ -84.3714138, 37.8863172 ], [ -84.3704595, 37.8855152 ], [ -84.3699438, 37.8851673 ], [ -84.3694496, 37.8847961 ], [ -84.3694644, 37.884218 ], [ -84.3694505, 37.8840841 ], [ -84.369226, 37.884094 ], [ -84.3687718, 37.8841294 ], [ -84.368504, 37.8841667 ], [ -84.3680168, 37.8842082 ], [ -84.3680241, 37.8846405 ], [ -84.3679379, 37.8850545 ], [ -84.3679362, 37.8856788 ], [ -84.3679538, 37.8859326 ], [ -84.3677557, 37.8864636 ], [ -84.3678705, 37.8874399 ], [ -84.3685156, 37.8877607 ], [ -84.3709279, 37.8880955 ], [ -84.3719352, 37.8884093 ], [ -84.3724396, 37.8885026 ], [ -84.372955, 37.8886438 ], [ -84.3750757, 37.8894806 ], [ -84.3755066, 37.8895746 ], [ -84.3760056, 37.8893061 ], [ -84.3770603, 37.8900847 ], [ -84.3771768, 37.8903824 ], [ -84.3774243, 37.8905572 ], [ -84.3773495, 37.8908231 ], [ -84.3772928, 37.8913601 ], [ -84.3749509, 37.8918657 ], [ -84.3741504, 37.892014 ], [ -84.3738743, 37.892047 ], [ -84.3736851, 37.8920671 ], [ -84.3735979, 37.8920782 ], [ -84.3734839, 37.8920798 ], [ -84.3733845, 37.8920575 ], [ -84.3732634, 37.8920193 ], [ -84.3730742, 37.891948 ], [ -84.3728783, 37.8918883 ], [ -84.3727684, 37.8919329 ], [ -84.3726639, 37.8919776 ], [ -84.3725341, 37.8922073 ], [ -84.3725478, 37.8922878 ], [ -84.3733048, 37.8924942 ], [ -84.3736215, 37.8925775 ], [ -84.3737677, 37.8926015 ], [ -84.3739992, 37.8926704 ], [ -84.374362, 37.8927682 ], [ -84.3747044, 37.8928838 ], [ -84.3749859, 37.8929905 ], [ -84.3752348, 37.8931293 ], [ -84.3758647, 37.8934438 ], [ -84.3762585, 37.8937328 ], [ -84.3765973, 37.8939617 ], [ -84.3770681, 37.8942131 ], [ -84.3772858, 37.8941793 ], [ -84.3774886, 37.8940072 ], [ -84.3774622, 37.8937695 ], [ -84.3775109, 37.8936401 ], [ -84.3774084, 37.8935536 ], [ -84.3772741, 37.8934229 ], [ -84.3771283, 37.8932823 ], [ -84.3770719, 37.8931642 ], [ -84.3769755, 37.892989 ], [ -84.3768969, 37.892761 ], [ -84.3769244, 37.8926113 ], [ -84.3769241, 37.892317 ], [ -84.377069, 37.8922021 ], [ -84.3770707, 37.8921378 ], [ -84.3770456, 37.8920729 ], [ -84.3772408, 37.8920575 ], [ -84.3773269, 37.8920563 ], [ -84.3773328, 37.8921132 ], [ -84.3773928, 37.8921507 ], [ -84.3773948, 37.8921834 ], [ -84.3773914, 37.8923364 ], [ -84.3774396, 37.8924103 ], [ -84.3775118, 37.8924621 ], [ -84.3775787, 37.8924789 ], [ -84.3776457, 37.8924915 ], [ -84.3777247, 37.892502 ], [ -84.3775365, 37.8925551 ], [ -84.3776333, 37.8926929 ], [ -84.3777333, 37.8928284 ], [ -84.3779193, 37.8931069 ], [ -84.3782166, 37.8936454 ], [ -84.3788124, 37.8943895 ], [ -84.3793823, 37.8949669 ], [ -84.3796938, 37.8951062 ], [ -84.3796832, 37.8952106 ], [ -84.3796509, 37.8953171 ], [ -84.3795382, 37.8954679 ], [ -84.3784835, 37.8957632 ], [ -84.3777893, 37.8955327 ], [ -84.3771907, 37.8951904 ], [ -84.3763598, 37.8947681 ], [ -84.3755678, 37.8942494 ], [ -84.3741968, 37.8936243 ], [ -84.3736939, 37.8937546 ], [ -84.37308, 37.8936539 ], [ -84.372008, 37.8930023 ], [ -84.3719117, 37.8921387 ], [ -84.3718833, 37.8907157 ], [ -84.3718773, 37.889967 ] ] ] } },
{ "type": "Feature", "properties": { "element_type": "way", "osmid": "725221873", "barrier": "nan", "leisure": "golf_course", "name": "Coal Ridge Golf Course", "nodes": [ 6800841921, 6800841931, 6800841936, 6800841940, 6800841946, 6800841950, 6800841956, 6800841962, 6800841968, 6800841974, 6800841980, 6800841985, 6800841990, 6800841996, 6800842002, 6800842008, 6800833536, 6800833540, 6800833546, 6800833551, 6800833557, 6800833561, 6800833568, 6800833573, 6800833579, 6800841885, 6800841890, 6800841895, 6800841899, 6800841904, 6800841909, 6800841914, 6800841919, 6800841925, 6800841930, 6800841934, 9238863698, 6800841921 ], "addr:city": "nan", "addr:housenumber": "nan", "addr:postcode": "nan", "addr:street": "nan", "designation": "nan", "operator": "nan", "gnis:feature_id": "nan", "phone": "nan", "website": "nan", "source": "nan", "addr:state": "nan", "building": "nan", "email": "nan", "facebook": "nan", "ways": "nan", "type": "nan" }, "geometry": { "type": "Polygon", "coordinates": [ [ [ -84.4670604, 38.2282666 ], [ -84.4672946, 38.2286047 ], [ -84.4676379, 38.2288833 ], [ -84.4679362, 38.2290805 ], [ -84.4681091, 38.2292699 ], [ -84.4683576, 38.2294901 ], [ -84.4685996, 38.2297943 ], [ -84.4687972, 38.2300422 ], [ -84.4689556, 38.2302946 ], [ -84.468797, 38.230542 ], [ -84.4683661, 38.2307559 ], [ -84.4678716, 38.2307758 ], [ -84.4686986, 38.2315527 ], [ -84.4689736, 38.2318516 ], [ -84.4693362, 38.2320179 ], [ -84.4697152, 38.2321966 ], [ -84.4699555, 38.2322306 ], [ -84.4713303, 38.2315986 ], [ -84.4719562, 38.2320321 ], [ -84.4723404, 38.2320216 ], [ -84.4767687, 38.2339634 ], [ -84.4776001, 38.2343611 ], [ -84.4790757, 38.234835 ], [ -84.4796392, 38.2351798 ], [ -84.4799213, 38.2350598 ], [ -84.4802077, 38.2345605 ], [ -84.4806042, 38.2329723 ], [ -84.4734676, 38.2304768 ], [ -84.4707426, 38.2278264 ], [ -84.4713708, 38.2270857 ], [ -84.4708552, 38.2265877 ], [ -84.4698024, 38.2260701 ], [ -84.4699474, 38.225279 ], [ -84.4681488, 38.2243922 ], [ -84.4682777, 38.224906 ], [ -84.4675876, 38.2251243 ], [ -84.4672617, 38.2270668 ], [ -84.4670604, 38.2282666 ] ] ] } },
{ "type": "Feature", "properties": { "element_type": "way", "osmid": "815704011", "barrier": "nan", "leisure": "golf_course", "name": "Longview Golf Club", "nodes": [ 7618145429, 7618145430, 7618145431, 7618145432, 7618145433, 7618145434, 7618145435, 7618145436, 7618145437, 7618145438, 7618145439, 7618145440, 7618145441, 7618145442, 7618145443, 7618145444, 7618145445, 7618145446, 7618145447, 7618145448, 7618145449, 7618145450, 8537202950, 7618145457, 7618145458, 7618145459, 7618145460, 7618145461, 7618145462, 7618145463, 7618145464, 7618145465, 7618145466, 7618145467, 7618145468, 7618145469, 7618145470, 7618145471, 7618145472, 7618145473, 7618145474, 7618145475, 7618145476, 7618145477, 7618145478, 7618145479, 7618145480, 7618145481, 7618145482, 7618145483, 8537252028, 7618145484, 7618165185, 7618165186, 7618165187, 7618145429 ], "addr:city": "nan", "addr:housenumber": "nan", "addr:postcode": "nan", "addr:street": "nan", "designation": "nan", "operator": "nan", "gnis:feature_id": "nan", "phone": "nan", "website": "nan", "source": "nan", "addr:state": "nan", "building": "nan", "email": "nan", "facebook": "nan", "ways": "nan", "type": "nan" }, "geometry": { "type": "Polygon", "coordinates": [ [ [ -84.6647876, 38.2211304 ], [ -84.6649334, 38.2211304 ], [ -84.6651426, 38.2210432 ], [ -84.6653296, 38.220849 ], [ -84.6655578, 38.2206099 ], [ -84.6657734, 38.2203335 ], [ -84.6659255, 38.2200944 ], [ -84.666214, 38.2195964 ], [ -84.6665468, 38.2192677 ], [ -84.6667877, 38.2189614 ], [ -84.6669937, 38.2186824 ], [ -84.6671332, 38.2183836 ], [ -84.6672156, 38.2181271 ], [ -84.6671585, 38.2177735 ], [ -84.6671649, 38.21738 ], [ -84.6672314, 38.2169591 ], [ -84.6671649, 38.2165706 ], [ -84.6670539, 38.2161273 ], [ -84.666943, 38.2157812 ], [ -84.6667877, 38.2153528 ], [ -84.6666355, 38.2150465 ], [ -84.6665088, 38.2145733 ], [ -84.6662152, 38.2140767 ], [ -84.6624832, 38.2077641 ], [ -84.660537, 38.2083444 ], [ -84.658445, 38.2090094 ], [ -84.6562984, 38.2096716 ], [ -84.6535695, 38.2105331 ], [ -84.652802, 38.2107609 ], [ -84.6523999, 38.2108126 ], [ -84.6520637, 38.2108145 ], [ -84.6517593, 38.2107613 ], [ -84.6514896, 38.2106701 ], [ -84.6510851, 38.2104949 ], [ -84.6503584, 38.2101594 ], [ -84.6502891, 38.210152 ], [ -84.6502554, 38.2101903 ], [ -84.6502385, 38.2110041 ], [ -84.6502029, 38.2117105 ], [ -84.6501636, 38.2121181 ], [ -84.6500625, 38.2125523 ], [ -84.6498583, 38.2131438 ], [ -84.649628, 38.2138031 ], [ -84.6517755, 38.2141423 ], [ -84.6531487, 38.2143296 ], [ -84.6544736, 38.2145111 ], [ -84.6566627, 38.2147964 ], [ -84.657837, 38.2149539 ], [ -84.6610196, 38.2154189 ], [ -84.6616029, 38.2163876 ], [ -84.6615688, 38.2171049 ], [ -84.6614961, 38.218635 ], [ -84.6629669, 38.2195194 ], [ -84.6640472, 38.2213667 ], [ -84.6645375, 38.2212241 ], [ -84.6647876, 38.2211304 ] ] ] } },
{ "type": "Feature", "properties": { "element_type": "relation", "osmid": "3959251", "barrier": "nan", "leisure": "golf_course", "name": "Andover Golf & Country Club", "nodes": [ [ [ 3015223071, 3015223066, 3015223064, 3015223056, 8473661219, 3015223039, 3015223038, 3015222819, 3015222816, 3015222809, 3015222799, 3015222797, 3015222794, 3015222791, 3015222784, 8473661268, 3015222815, 3015222820, 3015222823, 3015223036, 3015223034, 3015223040, 3015223045, 3015223048, 3015223052, 3015223050, 3015223046, 3015223042, 3015222828, 3015222829, 3015222826, 3015222825, 3015222817, 3015222790, 260541187, 3015222792, 260541483, 260541482, 3015222781, 260541481, 3015222772, 3015222768, 260541480, 3015222765, 260541479, 260541478, 260541477, 3015222767, 3015222770, 3015222761, 3015222757, 3015222752, 3015222749, 3015222742, 3015222740, 3015222741, 3015222793, 3015222798, 3015222801, 3015222807, 8473661229, 3015222810, 3015222814, 3015223033, 3015223037, 3015223043, 3015223055, 3015223035, 3015223049, 3015223057, 3015223063, 3015223067, 3015223079, 3015223084, 3015223093, 3015223096, 3015223097, 3015223098, 3015223099, 3015223103, 3015223125, 3015223336, 3015223353, 3015223362, 3015223360, 3015223380, 3015223382, 3015223388, 3015223400, 3015223412, 3015223410, 3015223408, 3015223405, 3015223404, 3015223384, 3015223383, 3015223378, 3015223374, 3015223371, 3015223369, 3015223363, 3015223132, 3015223340, 3015223366, 3015223373, 3015223411, 3015223413, 260541797, 260541796, 260541795, 260541794, 260541793, 260541792, 260541791, 259138274, 259138273, 259138272, 259138271, 259138270, 259138269, 259138268, 259138267, 259138266, 259138265, 259138264, 3015223379, 3015223361, 3015223355, 3015223352, 3015223347, 3015223342, 3015223341, 3015223126, 3015223123, 3015223128, 3015223124, 3015223120, 3015223118, 3015223115, 3015223112, 8473540934, 3015223104, 3015223102, 3015223100, 3015223080, 3015223073, 3015223074, 3015223072, 3015223071 ], [ 3015223116, 3015223117, 3015223110, 3015223106, 3015223105, 3015223107, 3015223111, 3015223114, 3015223113, 3015223122, 3015223131, 3015223343, 3015223356, 3015223377, 3015223395, 3015223403, 3015223385, 3015223376, 3015223368, 3015223364, 3015223357, 3015223354, 3015223349, 3015223338, 3015223333, 3015223127, 3015223335, 3015223339, 3015223337, 3015223344, 3015223367, 3015223375, 3015223406, 3015223407, 3015223401, 3015223381, 3015223359, 3015223345, 3015223334, 3015223130, 3015223129, 3015223121, 3015223119, 3015223116 ], [ 3015222821, 3015222824, 3015222827, 3015222830, 3015222832, 3015223047, 3015223053, 3015223044, 3015223041, 3015223054, 3015223058, 3015223062, 3015223068, 3015223070, 3015223069, 3015223065, 3015223061, 3015223060, 3015223059, 3015223051, 3015222831, 3015222822, 3015222812, 3015222805, 3015222803, 3015222800, 3474404075, 3015222795, 3015222789, 3338594463, 3015222785, 3338594464, 3015222783, 3015222780, 3015222773, 3015222764, 3015222762, 3015222758, 3015222769, 3015222787, 3015222796, 3015222802, 3015222804, 3015222806, 3015222811, 3015222813, 3015222818, 3015222821 ] ] ], "addr:city": "Lexington", "addr:housenumber": "3450", "addr:postcode": "40509", "addr:street": "Todds Road", "designation": "nan", "operator": "nan", "gnis:feature_id": "nan", "phone": "859-263-3710", "website": "https://www.golfandover.com/", "source": "nan", "addr:state": "nan", "building": "nan", "email": "nan", "facebook": "nan", "ways": [ 297624989, 297625248, 297625251 ], "type": "multipolygon" }, "geometry": { "type": "Polygon", "coordinates": [ [ [ -84.4158235, 38.001719 ], [ -84.4161691, 38.0016952 ], [ -84.4162607, 38.0020105 ], [ -84.4149011, 38.0030931 ], [ -84.4148578, 38.0032559 ], [ -84.4149059, 38.003396 ], [ -84.4152912, 38.0036264 ], [ -84.418312, 38.0054326 ], [ -84.4177451, 38.005955 ], [ -84.4179998, 38.0061897 ], [ -84.4180766, 38.0063222 ], [ -84.4180478, 38.0064887 ], [ -84.4183409, 38.0067121 ], [ -84.4192056, 38.0064357 ], [ -84.4196044, 38.0065644 ], [ -84.420349, 38.0076887 ], [ -84.4200415, 38.0078401 ], [ -84.4196812, 38.0084571 ], [ -84.4194122, 38.0086388 ], [ -84.4190951, 38.0087827 ], [ -84.4185763, 38.0090665 ], [ -84.4178749, 38.0099182 ], [ -84.4175824, 38.0102144 ], [ -84.4175223, 38.0101942 ], [ -84.4174193, 38.0101739 ], [ -84.4173421, 38.0102077 ], [ -84.4172648, 38.0103226 ], [ -84.4172391, 38.01037 ], [ -84.4171532, 38.0104376 ], [ -84.4171275, 38.010485 ], [ -84.417076, 38.0105729 ], [ -84.4170331, 38.0106134 ], [ -84.4171017, 38.0106743 ], [ -84.4170841, 38.0107001 ], [ -84.4169983, 38.0106866 ], [ -84.4169124, 38.010761 ], [ -84.4167236, 38.01093 ], [ -84.4165777, 38.0110923 ], [ -84.4164661, 38.0111667 ], [ -84.4164318, 38.0112614 ], [ -84.4154488, 38.0116746 ], [ -84.4139499, 38.0114285 ], [ -84.4127584, 38.0096305 ], [ -84.4127536, 38.0093126 ], [ -84.4149107, 38.007666 ], [ -84.4142045, 38.0069998 ], [ -84.4110481, 38.0092028 ], [ -84.4110049, 38.0093959 ], [ -84.4113076, 38.0095397 ], [ -84.4113412, 38.0097063 ], [ -84.4112499, 38.0098993 ], [ -84.4110529, 38.0100242 ], [ -84.4108608, 38.0100356 ], [ -84.4105053, 38.0107434 ], [ -84.4111442, 38.0109857 ], [ -84.4115574, 38.0112923 ], [ -84.4115766, 38.0114172 ], [ -84.4114565, 38.011508 ], [ -84.4068829, 38.0106298 ], [ -84.4070607, 38.0101188 ], [ -84.4071327, 38.0100204 ], [ -84.4073777, 38.0099334 ], [ -84.4072913, 38.0090514 ], [ -84.4068349, 38.009093 ], [ -84.4066619, 38.0086615 ], [ -84.4091195, 38.0072101 ], [ -84.4100996, 38.0065174 ], [ -84.4146539, 38.0032959 ], [ -84.4147788, 38.0030574 ], [ -84.4144954, 38.0028492 ], [ -84.4140582, 38.0026713 ], [ -84.4131358, 38.002482 ], [ -84.4127419, 38.0023268 ], [ -84.4123239, 38.00213 ], [ -84.4119588, 38.0018763 ], [ -84.410652, 38.0006914 ], [ -84.4118291, 37.9998661 ], [ -84.4114928, 37.9990408 ], [ -84.4110268, 37.9987077 ], [ -84.4106424, 37.9981966 ], [ -84.4086583, 37.9988932 ], [ -84.4081443, 37.9985714 ], [ -84.4076831, 37.9982912 ], [ -84.4077551, 37.9981625 ], [ -84.4096816, 37.9973788 ], [ -84.4106809, 37.9970987 ], [ -84.4116637, 37.9969696 ], [ -84.4116897, 37.9969662 ], [ -84.412002, 37.9962355 ], [ -84.4123143, 37.995997 ], [ -84.4122422, 37.9955692 ], [ -84.4175316, 37.9929114 ], [ -84.4178487, 37.9928129 ], [ -84.4181177, 37.9929265 ], [ -84.4182571, 37.9931991 ], [ -84.4181754, 37.9933922 ], [ -84.4178151, 37.9936042 ], [ -84.4180841, 37.9939563 ], [ -84.4186702, 37.9944409 ], [ -84.4190161, 37.9943311 ], [ -84.4195671, 37.9941513 ], [ -84.4196543, 37.9941817 ], [ -84.4197473, 37.9942343 ], [ -84.4199385, 37.9942781 ], [ -84.4200302, 37.9943336 ], [ -84.4200202, 37.9944144 ], [ -84.4199385, 37.9946 ], [ -84.419886, 37.9946982 ], [ -84.420025, 37.9948423 ], [ -84.4201863, 37.9949433 ], [ -84.4204626, 37.995324 ], [ -84.4206447, 37.9954253 ], [ -84.4207817, 37.9954433 ], [ -84.4209967, 37.9953971 ], [ -84.4222013, 37.9974811 ], [ -84.4223934, 37.997871 ], [ -84.4225568, 37.9979505 ], [ -84.4227201, 37.9979997 ], [ -84.4230516, 37.997977 ], [ -84.4232822, 37.9985222 ], [ -84.4229603, 37.998632 ], [ -84.4226721, 37.9987417 ], [ -84.421889, 37.9987493 ], [ -84.4209666, 37.9986433 ], [ -84.4208705, 37.9986017 ], [ -84.4207744, 37.9984048 ], [ -84.4208177, 37.9981739 ], [ -84.4213702, 37.9982344 ], [ -84.421471, 37.9977991 ], [ -84.4208561, 37.9977196 ], [ -84.420712, 37.9973864 ], [ -84.4206847, 37.9973519 ], [ -84.4187759, 37.9949369 ], [ -84.4179304, 37.9954177 ], [ -84.4170608, 37.9957774 ], [ -84.4168542, 37.9959591 ], [ -84.4163066, 37.9962128 ], [ -84.4138352, 37.9970136 ], [ -84.413615, 37.9974403 ], [ -84.4136403, 37.9976962 ], [ -84.4136042, 37.9983362 ], [ -84.4137883, 37.9983846 ], [ -84.4140998, 37.9986731 ], [ -84.4144055, 37.9989563 ], [ -84.4153909, 38.0000371 ], [ -84.4154739, 38.0005747 ], [ -84.4152325, 38.0013913 ], [ -84.4154391, 38.0016281 ], [ -84.4158235, 38.001719 ] ], [ [ -84.4161691, 38.0050798 ], [ -84.4152611, 38.0042585 ], [ -84.4150309, 38.0041779 ], [ -84.4147688, 38.0043038 ], [ -84.4132917, 38.0053015 ], [ -84.4118529, 38.0059363 ], [ -84.4115908, 38.0059363 ], [ -84.4114309, 38.0063948 ], [ -84.4112263, 38.0068986 ], [ -84.4093208, 38.0080121 ], [ -84.4073577, 38.0088132 ], [ -84.4074664, 38.0098309 ], [ -84.4094039, 38.0103649 ], [ -84.4103886, 38.0106723 ], [ -84.4107403, 38.0100375 ], [ -84.4103311, 38.0098107 ], [ -84.4087709, 38.0093523 ], [ -84.4087133, 38.0092062 ], [ -84.4096916, 38.0088485 ], [ -84.4100881, 38.0086772 ], [ -84.4102863, 38.0085361 ], [ -84.412275, 38.0075184 ], [ -84.413394, 38.0070246 ], [ -84.4141421, 38.0067072 ], [ -84.4145258, 38.0072009 ], [ -84.4150309, 38.0076342 ], [ -84.4154594, 38.0074982 ], [ -84.4158558, 38.0080927 ], [ -84.4139567, 38.0093422 ], [ -84.4139183, 38.0097251 ], [ -84.4143723, 38.0110703 ], [ -84.4145961, 38.0111106 ], [ -84.4158174, 38.0106471 ], [ -84.4170004, 38.0099569 ], [ -84.4180235, 38.0088787 ], [ -84.4182345, 38.0083799 ], [ -84.4190466, 38.0071405 ], [ -84.4189379, 38.0068533 ], [ -84.4182665, 38.0067979 ], [ -84.4177741, 38.0063696 ], [ -84.417934, 38.0062185 ], [ -84.4176654, 38.006032 ], [ -84.4175631, 38.0060975 ], [ -84.4161691, 38.0050798 ] ], [ [ -84.4109744, 37.9978694 ], [ -84.4109347, 37.9979605 ], [ -84.4109852, 37.9980856 ], [ -84.4108264, 37.9981624 ], [ -84.4110899, 37.9986346 ], [ -84.4112559, 37.9987853 ], [ -84.4115736, 37.9986004 ], [ -84.4119995, 37.9984497 ], [ -84.4123676, 37.9988763 ], [ -84.4125878, 37.9992944 ], [ -84.4130065, 37.9998548 ], [ -84.4136021, 38.0008816 ], [ -84.4139053, 38.0011546 ], [ -84.4142987, 38.0009839 ], [ -84.4144286, 38.0004407 ], [ -84.4141327, 37.9998206 ], [ -84.4141038, 37.9995903 ], [ -84.4139414, 37.9993172 ], [ -84.4135407, 37.9987455 ], [ -84.4135299, 37.9980885 ], [ -84.4135299, 37.9977756 ], [ -84.4133386, 37.997238 ], [ -84.4131256, 37.9968426 ], [ -84.4129957, 37.996561 ], [ -84.4137501, 37.9962311 ], [ -84.4138715, 37.9961869 ], [ -84.4149917, 37.9957788 ], [ -84.4163561, 37.9952497 ], [ -84.4169258, 37.9950531 ], [ -84.4170238, 37.9950193 ], [ -84.4171655, 37.9949953 ], [ -84.4177782, 37.9948913 ], [ -84.4179948, 37.9947719 ], [ -84.4183088, 37.9946126 ], [ -84.4183088, 37.9942143 ], [ -84.4180489, 37.9940181 ], [ -84.4177782, 37.9937507 ], [ -84.4162514, 37.9944163 ], [ -84.4143817, 37.9951672 ], [ -84.4127358, 37.9958471 ], [ -84.4121258, 37.9962396 ], [ -84.4118768, 37.9967715 ], [ -84.4121583, 37.9969023 ], [ -84.412494, 37.9971555 ], [ -84.4126022, 37.9972778 ], [ -84.4121402, 37.9975537 ], [ -84.4113028, 37.9977272 ], [ -84.4109744, 37.9978694 ] ] ] } },
{ "type": "Feature", "properties": { "element_type": "relation", "osmid": "3959252", "barrier": "nan", "leisure": "golf_course", "name": "Champions Trace", "nodes": [ [ [ 524425490, 8165639605, 524425497, 524425500, 524425503, 524425506, 524425510, 524425513, 524425516, 524425520, 524425523, 3015222656, 3015222646, 3015222644, 3015222640, 3015222638, 3015222636, 3015222633, 3015222628, 524425532, 3015222615, 524425536, 524425539, 524462314, 524462316, 524462318, 524462319, 524425542, 524462311, 524425547, 524462321, 524425490 ], [ 3015222632, 3015222618, 3015222612, 3015222608, 3015222607, 3015222604, 3015222603, 3015222602, 3015222599, 3015222600, 3015222597, 3015222598, 3015222601, 3015222611, 3015222616, 3015222630, 3015222629, 3015222614, 3015222609, 3015222605, 3015222606, 3015222610, 3015222613, 3015222621, 3015222624, 3015222626, 3015222627, 3015222631, 3015222632 ], [ 3015222675, 3015222678, 3015222681, 3015222682, 3015222657, 3015222648, 3015222654, 3015222647, 3015222649, 3015222660, 3015222665, 3015222670, 3015222675 ], [ 3015222634, 3015222623, 3015222622, 3015222620, 3015222635, 3015222641, 3015222655, 3015222668, 3015222671, 3015222673, 3015222674, 3015222672, 3015222669, 3015222666, 3015222662, 3015222650, 3015222653, 3015222658, 3015222661, 3015222663, 3015222664, 3015222667, 3015222659, 3015222642, 3015222634 ] ] ], "addr:city": "Nicholasville", "addr:housenumber": "20", "addr:postcode": "40356", "addr:street": "Avenue of Champions", "designation": "nan", "operator": "nan", "gnis:feature_id": "nan", "phone": "859-223-7272", "website": "https://www.keenetracegolf.com/", "source": "nan", "addr:state": "nan", "building": "nan", "email": "nan", "facebook": "nan", "ways": [ 42146131, 297625244, 297625240, 297625241 ], "type": "multipolygon" }, "geometry": { "type": "Polygon", "coordinates": [ [ [ -84.6331214, 37.9667752 ], [ -84.6334649, 37.9659856 ], [ -84.6390922, 37.9679459 ], [ -84.6387322, 37.9686316 ], [ -84.6399101, 37.9691231 ], [ -84.64023, 37.9685213 ], [ -84.6434764, 37.9698154 ], [ -84.6432377, 37.9702516 ], [ -84.6447591, 37.9709058 ], [ -84.643939, 37.9719965 ], [ -84.644254, 37.9721508 ], [ -84.6444202, 37.9724029 ], [ -84.6443882, 37.9726095 ], [ -84.6442092, 37.9727356 ], [ -84.6437808, 37.9728414 ], [ -84.6431989, 37.9730884 ], [ -84.6426298, 37.9734413 ], [ -84.6441325, 37.9739302 ], [ -84.6452831, 37.9744565 ], [ -84.6410786, 37.977679 ], [ -84.6363589, 37.9759667 ], [ -84.6358774, 37.975909 ], [ -84.6349268, 37.9761107 ], [ -84.6340092, 37.9764934 ], [ -84.6322673, 37.9771578 ], [ -84.6320777, 37.9771641 ], [ -84.6319058, 37.9771343 ], [ -84.6304681, 37.9766925 ], [ -84.625906, 37.9752908 ], [ -84.6301032, 37.9672784 ], [ -84.6299856, 37.9657878 ], [ -84.6331214, 37.9667752 ] ], [ [ -84.6403662, 37.9695851 ], [ -84.6394902, 37.9695851 ], [ -84.6382049, 37.9688289 ], [ -84.6378021, 37.9687735 ], [ -84.6365871, 37.967972 ], [ -84.6336457, 37.9669738 ], [ -84.6330638, 37.9673771 ], [ -84.6318745, 37.9669436 ], [ -84.6315612, 37.9669637 ], [ -84.6313693, 37.9675939 ], [ -84.6309281, 37.969822 ], [ -84.6319256, 37.9710116 ], [ -84.6321494, 37.9722416 ], [ -84.6331278, 37.9721559 ], [ -84.6332109, 37.9709058 ], [ -84.6339207, 37.9697766 ], [ -84.6351676, 37.9690507 ], [ -84.6357623, 37.9690911 ], [ -84.6362546, 37.9698018 ], [ -84.6372202, 37.9707898 ], [ -84.6391385, 37.9712284 ], [ -84.6403022, 37.9717476 ], [ -84.6405133, 37.9720047 ], [ -84.6413253, 37.9720651 ], [ -84.6419648, 37.9723222 ], [ -84.6430774, 37.9723575 ], [ -84.6438959, 37.9711175 ], [ -84.6415811, 37.9703362 ], [ -84.6403662, 37.9695851 ] ], [ [ -84.6398191, 37.9766657 ], [ -84.6403158, 37.9769114 ], [ -84.6437561, 37.9739413 ], [ -84.6425142, 37.9735164 ], [ -84.6419171, 37.973833 ], [ -84.6355762, 37.9734685 ], [ -84.6360397, 37.9735902 ], [ -84.6357719, 37.974126 ], [ -84.636122, 37.9747024 ], [ -84.6386588, 37.9755275 ], [ -84.639205, 37.9761003 ], [ -84.6394809, 37.9763657 ], [ -84.6398191, 37.9766657 ] ], [ [ -84.6294766, 37.9714408 ], [ -84.6293286, 37.9712492 ], [ -84.6291014, 37.9711825 ], [ -84.6282189, 37.9725906 ], [ -84.6282928, 37.9728781 ], [ -84.6280498, 37.9739154 ], [ -84.6296827, 37.9751901 ], [ -84.6302376, 37.9755733 ], [ -84.6308294, 37.9756566 ], [ -84.6311729, 37.9757441 ], [ -84.6327055, 37.9756316 ], [ -84.6345815, 37.9752317 ], [ -84.6346713, 37.9747818 ], [ -84.63539, 37.9743403 ], [ -84.6345604, 37.9736237 ], [ -84.634275, 37.9737654 ], [ -84.6339262, 37.974032 ], [ -84.633625, 37.9742611 ], [ -84.6333766, 37.9744194 ], [ -84.6330173, 37.9745694 ], [ -84.6309246, 37.9750693 ], [ -84.6305705, 37.9741111 ], [ -84.6298359, 37.9730447 ], [ -84.6297461, 37.9725073 ], [ -84.6294766, 37.9714408 ] ] ] } },
{ "type": "Feature", "properties": { "element_type": "relation", "osmid": "3959256", "barrier": "nan", "leisure": "golf_course", "name": "Golf Club of the Bluegrass", "nodes": [ [ [ 3015222455, 3015222458, 3015222461, 3015222469, 3015222468, 3015222464, 3015222456, 3015222454, 3015222471, 3015222473, 3015222476, 3015222474, 3015222475, 3015222478, 3015222480, 3015222482, 3015222483, 3015222485, 3015222486, 3015222488, 3015222484, 3015222479, 3015222457, 3015222466, 3015222467, 3015222460, 3015222465, 3015222459, 3015222453, 3015222452, 3015222450, 3015222449, 3015222451, 3015222444, 3015222431, 3015222423, 3015222424, 3015222425, 3015222432, 3015222442, 3015222448, 3015222455 ], [ 3015222446, 3015222443, 3015222433, 3015222429, 3015222427, 3015222426, 3015222428, 3015222430, 3015222441, 3015222445, 3015222447, 3015222446 ] ] ], "addr:city": "Nicholasville", "addr:housenumber": "6000", "addr:postcode": "40356", "addr:street": "Harrodsburg Road", "designation": "nan", "operator": "nan", "gnis:feature_id": "nan", "phone": "859-223-4516", "website": "http://www.golfclubofthebluegrass.com/", "source": "nan", "addr:state": "nan", "building": "nan", "email": "nan", "facebook": "nan", "ways": [ 297625041, 297624972 ], "type": "multipolygon" }, "geometry": { "type": "Polygon", "coordinates": [ [ [ -84.5994687, 37.9506513 ], [ -84.6001557, 37.9489994 ], [ -84.6008, 37.9475891 ], [ -84.6017336, 37.9458146 ], [ -84.6037382, 37.9425364 ], [ -84.6039633, 37.9425198 ], [ -84.6097521, 37.9474176 ], [ -84.6097732, 37.9492258 ], [ -84.6076912, 37.9511837 ], [ -84.6062493, 37.9507789 ], [ -84.6049058, 37.9511394 ], [ -84.6057288, 37.952171 ], [ -84.6057921, 37.9536574 ], [ -84.6056092, 37.9541565 ], [ -84.6061579, 37.9543839 ], [ -84.6064111, 37.9542231 ], [ -84.6075857, 37.9544671 ], [ -84.6088026, 37.954395 ], [ -84.6094637, 37.9540345 ], [ -84.6125023, 37.955715 ], [ -84.6118904, 37.9562696 ], [ -84.6114227, 37.9568319 ], [ -84.6109043, 37.9567827 ], [ -84.6098181, 37.9567465 ], [ -84.6087451, 37.9562394 ], [ -84.6082037, 37.9560091 ], [ -84.6077936, 37.9557556 ], [ -84.6070586, 37.9556314 ], [ -84.6058543, 37.9554787 ], [ -84.6055065, 37.9554787 ], [ -84.6053851, 37.9554968 ], [ -84.6051685, 37.9554477 ], [ -84.6044433, 37.9546844 ], [ -84.6025435, 37.953665 ], [ -84.6011063, 37.9540117 ], [ -84.6009783, 37.9543532 ], [ -84.6003548, 37.9545499 ], [ -84.5999414, 37.9545758 ], [ -84.5989307, 37.9542549 ], [ -84.5987896, 37.95411 ], [ -84.5982248, 37.9538909 ], [ -84.5994687, 37.9506513 ] ], [ [ -84.6061958, 37.9491699 ], [ -84.6066882, 37.9476667 ], [ -84.6070821, 37.9465851 ], [ -84.6066038, 37.9461247 ], [ -84.6060341, 37.945975 ], [ -84.6051689, 37.9461358 ], [ -84.604768, 37.947345 ], [ -84.6045007, 37.9487483 ], [ -84.6046414, 37.9499131 ], [ -84.6047469, 37.9503291 ], [ -84.6061466, 37.9501294 ], [ -84.6061958, 37.9491699 ] ] ] } },
{ "type": "Feature", "properties": { "element_type": "relation", "osmid": "3959257", "barrier": "nan", "leisure": "golf_course", "name": "Keene Run Golf Course", "nodes": [ [ [ 3015222463, 3015222477, 3015222491, 3015222503, 3015222504, 3015222508, 3015222513, 3015222516, 3015222518, 3015222515, 3015222526, 3015222538, 3015222595, 3015222596, 3015222594, 3015222591, 3015222592, 3015222593, 3015222590, 3015222589, 3015222588, 3015222585, 3015222581, 3015222498, 3015222497, 3015222506, 3015222511, 3015222512, 3015222510, 3015222507, 3015222495, 3015222492, 3015222489, 3015222481, 3015222472, 3015222470, 3015222462, 3015222463 ], [ 3015222536, 3015222532, 3015222537, 3015222541, 3015222544, 3015222543, 3015222539, 3015222535, 3015222528, 3015222525, 3015222522, 3015222514, 3015222523, 3015222534, 3015222540, 3015222570, 3015222576, 3015222579, 3015222580, 3015222583, 3015222586, 3015222587, 3015222584, 3015222582, 3015222573, 3015222569, 3015222563, 3015222542, 3015222533, 3015222531, 3015222529, 3015222530, 3015222536 ], [ 3015222524, 3015222519, 3015222509, 3015222502, 3015222500, 3015222499, 3015222496, 3015222494, 3015222487, 3015222490, 3015222493, 3015222501, 3015222505, 3015222517, 3015222520, 3015222521, 3015222524 ] ] ], "addr:city": "Nicholasville", "addr:housenumber": "5600", "addr:postcode": "40356", "addr:street": "Harrodsburg Road", "designation": "nan", "operator": "nan", "gnis:feature_id": "nan", "phone": "nan", "website": "https://www.keenetracegolf.com/", "source": "nan", "addr:state": "nan", "building": "nan", "email": "nan", "facebook": "nan", "ways": [ 297625026, 297625020, 297624997 ], "type": "multipolygon" }, "geometry": { "type": "Polygon", "coordinates": [ [ [ -84.5993844, 37.9545803 ], [ -84.6009291, 37.9553436 ], [ -84.603205, 37.9559932 ], [ -84.6053264, 37.9569269 ], [ -84.6072808, 37.9575868 ], [ -84.6071616, 37.9583518 ], [ -84.6063275, 37.959365 ], [ -84.6067701, 37.9596938 ], [ -84.6074084, 37.9598482 ], [ -84.6078935, 37.9597006 ], [ -84.6083616, 37.9593583 ], [ -84.608685, 37.9585598 ], [ -84.6096087, 37.9585637 ], [ -84.6088999, 37.9632764 ], [ -84.607005, 37.9637879 ], [ -84.6049248, 37.9641532 ], [ -84.6040288, 37.9645024 ], [ -84.6033389, 37.9649408 ], [ -84.6023605, 37.9654036 ], [ -84.6008261, 37.9653548 ], [ -84.5981589, 37.9649651 ], [ -84.5971497, 37.9656877 ], [ -84.5971394, 37.9657851 ], [ -84.5962228, 37.9657527 ], [ -84.5969334, 37.9615307 ], [ -84.5969334, 37.9610192 ], [ -84.5971028, 37.9600934 ], [ -84.5984744, 37.9602653 ], [ -84.5986432, 37.9601211 ], [ -84.5989878, 37.9598494 ], [ -84.5989527, 37.9595499 ], [ -84.5987557, 37.9592394 ], [ -84.5972927, 37.9590619 ], [ -84.5975307, 37.9575441 ], [ -84.5977984, 37.9556278 ], [ -84.5981795, 37.9543448 ], [ -84.5984884, 37.9543286 ], [ -84.5993844, 37.9545803 ] ], [ [ -84.6019452, 37.9611204 ], [ -84.6014961, 37.9612246 ], [ -84.6016928, 37.9613569 ], [ -84.6016709, 37.9618159 ], [ -84.6017074, 37.9622912 ], [ -84.6018152, 37.9624502 ], [ -84.6020034, 37.9626745 ], [ -84.6030204, 37.9633312 ], [ -84.6033046, 37.9636648 ], [ -84.6034477, 37.9637863 ], [ -84.6040538, 37.9638452 ], [ -84.6051953, 37.9634411 ], [ -84.6060989, 37.9631161 ], [ -84.6069392, 37.9629328 ], [ -84.6075205, 37.9627662 ], [ -84.6080859, 37.9624787 ], [ -84.6080172, 37.9616912 ], [ -84.6077266, 37.9614121 ], [ -84.6079485, 37.9606454 ], [ -84.6081018, 37.9598496 ], [ -84.6071981, 37.9604871 ], [ -84.6069815, 37.9607954 ], [ -84.6066221, 37.9611121 ], [ -84.6058294, 37.9614454 ], [ -84.6048042, 37.9616662 ], [ -84.6040168, 37.9619412 ], [ -84.6034883, 37.961987 ], [ -84.6032241, 37.961787 ], [ -84.6032294, 37.9615162 ], [ -84.6031977, 37.9613454 ], [ -84.6022729, 37.9614995 ], [ -84.6020192, 37.9611454 ], [ -84.6019452, 37.9611204 ] ], [ [ -84.6025688, 37.9603371 ], [ -84.6032664, 37.9596163 ], [ -84.6040168, 37.9588704 ], [ -84.6044184, 37.9587288 ], [ -84.6054436, 37.9586954 ], [ -84.6061729, 37.9585371 ], [ -84.6064213, 37.9581246 ], [ -84.6023944, 37.9568163 ], [ -84.6019875, 37.9574704 ], [ -84.6019875, 37.9579163 ], [ -84.6015595, 37.9588079 ], [ -84.601179, 37.9592663 ], [ -84.6001115, 37.9602246 ], [ -84.6006611, 37.9603579 ], [ -84.6017656, 37.9604746 ], [ -84.6018396, 37.9606954 ], [ -84.6025688, 37.9603371 ] ] ] } }
]
}
